station,valid,lon,lat,tmpf,dwpf,relh,drct,sknt,p01i,alti,mslp,vsby,gust,skyc1,skyc2,skyc3,skyc4,skyl1,skyl2,skyl3,skyl4,wxcodes,ice_accretion_1hr,ice_accretion_3hr,ice_accretion_6hr,peak_wind_gust,peak_wind_drct,peak_wind_time,feel,metar
ZMUB,2020-10-20 00:00,106.7666,47.8431,26.60,19.40,73.89,10.00,17.49,0.00,29.80,M,6.21,M,SCT,SCT,M,M,3300.00,10000.00,M,M,M,M,M,M,M,M,M,12.82,ZMUB 200000Z 01009MPS 9999 SCT033 SCT100 M03/M07 Q1009 NOSIG RMK QFE650.2 70 MOP
ZGHA,2020-10-20 00:00,112.8667,28.2333,60.80,59.00,93.79,350.00,5.83,0.00,30.24,M,1.37,M,SCT,M,M,M,4000.00,M,M,M,BR,M,M,M,M,M,M,M,ZGHA 200000Z 35003MPS 2200 BR SCT040 16/15 Q1024 BECMG TL0100 3100
ZBYN,2020-10-20 00:00,112.5500,37.7833,42.80,37.40,81.07,M,1.94,0.00,30.27,M,2.17,M,NSC,M,M,M,M,M,M,M,BR,M,M,M,M,M,M,M,ZBYN 200000Z VRB01MPS 3500 BR NSC 06/03 Q1025 NOSIG
ZGGG,2020-10-20 00:00,113.3008,23.3964,69.80,55.40,60.21,20.00,9.72,0.00,30.06,M,6.21,M,SCT,M,M,M,3300.00,M,M,M,M,M,M,M,M,M,M,M,ZGGG 200000Z 02005MPS 9999 SCT033 21/13 Q1018 NOSIG
ZGKL,2020-10-20 00:00,110.3000,25.3333,60.80,59.00,93.79,0.00,0.00,0.00,30.18,M,3.73,M,FEW,M,M,M,3600.00,M,M,M,M,M,M,M,M,M,M,M,ZGKL 200000Z 00000MPS 6000 FEW036 16/15 Q1022 NOSIG
ZGOW,2020-10-20 00:00,116.6833,23.4000,71.60,60.80,68.75,10.00,5.83,0.00,30.03,M,6.21,M,M,M,M,M,M,M,M,M,M,M,M,M,M,M,M,M,ZGOW 200000Z 01003MPS CAVOK 22/16 Q1017 NOSIG
ZHHH,2020-10-20 00:00,114.1300,30.6200,59.00,53.60,82.25,70.00,3.89,0.00,30.27,M,2.49,M,NSC,M,M,M,M,M,M,M,BR,M,M,M,M,M,M,M,ZHHH 200000Z 07002MPS 4000 BR NSC 15/12 Q1025 NOSIG
ZJHK,2020-10-20 00:00,110.4590,19.9349,75.20,68.00,78.34,50.00,15.55,0.00,29.97,M,6.21,M,BKN,BKN,M,M,2000.00,2600.00,M,M,M,M,M,M,M,M,M,M,ZJHK 200000Z 05008MPS 9999 BKN020 BKN026 24/20 Q1015 NOSIG
ZJSY,2020-10-20 00:00,109.4123,18.3029,80.60,71.60,74.11,60.00,11.66,0.00,29.88,M,6.21,M,FEW,SCT,M,M,2000.00,3300.00,M,M,M,M,M,M,M,M,M,84.57,ZJSY 200000Z 06006MPS 030V100 9999 FEW020 SCT033 27/22 Q1012 NOSIG
ZUGY,2020-10-20 00:00,106.7333,26.5833,44.60,42.80,93.35,50.00,3.89,0.00,30.30,M,6.21,M,BKN,OVC,M,M,1600.00,4300.00,M,M,-RA,M,M,M,M,M,M,42.23,ZUGY 200000Z 05002MPS 9999 -RA BKN016 OVC043 07/06 Q1026 NOSIG
ZGSZ,2020-10-20 00:00,114.1000,22.5500,71.60,59.00,64.48,20.00,11.66,0.00,30.03,M,6.21,M,M,M,M,M,M,M,M,M,M,M,M,M,M,M,M,M,ZGSZ 200000Z 02006MPS CAVOK 22/15 Q1017 NOSIG
ZHCC,2020-10-20 00:00,113.6500,34.7167,55.40,48.20,76.66,220.00,1.94,0.00,30.30,M,1.86,M,NSC,M,M,M,M,M,M,M,BR,M,M,M,M,M,M,M,ZHCC 200000Z 22001MPS 3000 BR NSC 13/09 Q1026 NOSIG
ZGNN,2020-10-20 00:00,108.2167,22.6333,66.20,57.20,72.74,350.00,5.83,0.00,30.09,M,6.21,M,M,M,M,M,M,M,M,M,M,M,M,M,M,M,M,M,ZGNN 200000Z 35003MPS CAVOK 19/14 Q1019 NOSIG
ZBAA,2020-10-20 00:00,116.5870,40.0741,46.40,44.60,93.40,100.00,1.94,0.00,30.21,M,4.97,M,NSC,M,M,M,M,M,M,M,M,M,M,M,M,M,M,M,ZBAA 200000Z 10001MPS 8000 NSC 08/07 Q1023 NOSIG
ZBHH,2020-10-20 00:00,111.6833,40.8167,41.00,24.80,52.17,40.00,3.89,0.00,30.18,M,6.21,M,M,M,M,M,M,M,M,M,M,M,M,M,M,M,M,38.04,ZBHH 200000Z 04002MPS CAVOK 05/M04 Q1022 NOSIG
ZBSJ,2020-10-20 00:00,114.6973,38.2807,50.00,46.40,87.37,M,1.94,0.00,30.21,M,1.12,M,NSC,M,M,M,M,M,M,M,BR,M,M,M,M,M,M,M,ZBSJ 200000Z VRB01MPS 1800 BR NSC 10/08 Q1023 BECMG TL0130 3000
ZBTJ,2020-10-20 00:00,117.3462,39.1243,55.40,46.40,71.64,140.00,3.89,0.00,30.24,M,1.86,M,NSC,M,M,M,M,M,M,M,HZ,M,M,M,M,M,M,M,ZBTJ 200000Z 14002MPS 080V200 3000 HZ NSC 13/08 Q1024 NOSIG
ZYTL,2020-10-20 00:00,121.6333,38.9000,62.60,53.60,72.38,210.00,7.78,0.00,30.30,M,1.74,M,NSC,M,M,M,M,M,M,M,BR,M,M,M,M,M,M,M,ZYTL 200000Z 21004MPS 2800 BR NSC 17/12 Q1026 BECMG TL0030 3500
ZYTX,2020-10-20 00:00,123.4000,41.8000,57.20,48.20,71.83,170.00,5.83,0.00,30.21,M,1.86,M,NSC,M,M,M,M,M,M,M,BR,M,M,M,M,M,M,M,ZYTX 200000Z 17003MPS 140V200 3000 BR NSC 14/09 Q1023 NOSIG
ZLLL,2020-10-20 00:00,103.7500,36.0200,35.60,19.40,51.33,40.00,3.89,0.00,30.45,M,6.21,M,M,M,M,M,M,M,M,M,M,M,M,M,M,M,M,31.74,ZLLL 200000Z 04002MPS 340V060 CAVOK 02/M07 Q1031 NOSIG
ZLXY,2020-10-20 00:00,108.7516,34.4471,53.60,51.80,93.60,0.00,0.00,0.00,30.30,M,2.80,M,NSC,M,M,M,M,M,M,M,BR,M,M,M,M,M,M,M,ZLXY 200000Z 00000MPS 4500 BR NSC 12/11 Q1026 NOSIG
ZSAM,2020-10-20 00:00,118.0833,24.4833,73.40,59.00,60.67,40.00,15.55,0.00,30.03,M,6.21,M,FEW,M,M,M,5000.00,M,M,M,M,M,M,M,M,M,M,M,ZSAM 200000Z 04008MPS 9999 FEW050 23/15 Q1017 NOSIG
ZPPP,2020-10-20 00:00,102.6833,25.0167,48.20,48.20,100.00,10.00,5.83,0.00,30.30,M,1.30,M,SCT,BKN,OVC,M,200.00,300.00,3000.00,M,BR,M,M,M,M,M,M,45.13,ZPPP 200000Z 01003MPS 2100 BR SCT002 BKN003 OVC030 09/09 Q1026 BECMG TL0140 3100 FEW006 SCT016 OVC030
ZSFZ,2020-10-20 00:00,119.2833,26.0833,69.80,59.00,68.55,30.00,19.44,0.00,30.12,M,6.21,M,OVC,M,M,M,2700.00,M,M,M,M,M,M,M,M,M,M,M,ZSFZ 200000Z 03010MPS 9999 OVC027 21/15 Q1020 NOSIG
ZSHC,2020-10-20 00:00,120.1667,30.2333,62.60,53.60,72.38,360.00,3.89,0.00,30.27,M,6.21,M,M,M,M,M,M,M,M,M,M,M,M,M,M,M,M,M,ZSHC 200000Z 36002MPS 310V040 CAVOK 17/12 Q1025 NOSIG
ZSNB,2020-10-20 00:00,121.4619,29.8267,64.40,57.20,77.45,M,1.94,0.00,30.24,M,6.21,M,BKN,M,M,M,3000.00,M,M,M,M,M,M,M,M,M,M,M,ZSNB 200000Z VRB01MPS 9999 BKN030 18/14 Q1024 NOSIG
ZSOF,2020-10-20 00:00,117.2984,31.7800,59.00,51.80,76.98,90.00,3.89,0.00,30.30,M,3.11,M,NSC,M,M,M,M,M,M,M,BR,M,M,M,M,M,M,M,ZSOF 200000Z 09002MPS 070V130 5000 BR NSC 15/11 Q1026 NOSIG
ZSQD,2020-10-20 00:00,120.3333,36.0667,59.00,51.80,76.98,M,1.94,0.00,30.33,M,4.97,M,NSC,M,M,M,M,M,M,M,M,M,M,M,M,M,M,M,ZSQD 200000Z VRB01MPS 8000 NSC 15/11 Q1027 NOSIG
ZSSS,2020-10-20 00:00,121.3363,31.1979,64.40,55.40,72.56,10.00,5.83,0.00,30.27,M,6.21,M,M,M,M,M,M,M,M,M,M,M,M,M,M,M,M,M,ZSSS 200000Z 01003MPS CAVOK 18/13 Q1025 NOSIG
ZUCK,2020-10-20 00:00,106.4800,29.5200,57.20,55.40,93.69,10.00,5.83,0.00,30.27,M,6.21,M,NSC,M,M,M,M,M,M,M,-RA,M,M,M,M,M,M,M,ZUCK 200000Z 01003MPS 9999 -RA NSC 14/13 Q1025 NOSIG
ZSNJ,2020-10-20 00:00,118.8667,31.7333,57.20,55.40,93.69,M,1.94,0.00,30.30,M,3.11,M,NSC,M,M,M,M,M,M,M,BR,M,M,M,M,M,M,M,ZSNJ 200000Z VRB01MPS 5000 BR NSC 14/13 Q1026 NOSIG
ZSPD,2020-10-20 00:00,121.7667,31.1167,68.00,51.80,56.13,70.00,9.72,0.00,30.27,M,6.21,M,FEW,M,M,M,4000.00,M,M,M,M,M,M,M,M,M,M,M,ZSPD 200000Z 07005MPS 030V100 9999 FEW040 20/11 Q1025 NOSIG
ZUUU,2020-10-20 00:00,104.0167,30.6667,57.20,57.20,100.00,10.00,3.89,0.00,30.30,M,4.35,M,SCT,BKN,M,M,1100.00,2300.00,M,M,-RA,M,M,M,M,M,M,M,ZUUU 200000Z 01002MPS 340V040 7000 -RA SCT011 BKN023 14/14 Q1026 NOSIG
ZWWW,2020-10-20 00:00,87.4742,43.9071,42.80,28.40,56.48,360.00,1.94,0.00,30.33,M,2.49,M,NSC,M,M,M,M,M,M,M,DU,M,M,M,M,M,M,M,ZWWW 200000Z 36001MPS 4000 DU NSC 06/M02 Q1027 NOSIG
ZYCC,2020-10-20 00:00,125.2167,43.9000,53.60,37.40,54.07,200.00,11.66,0.00,30.18,M,3.73,M,NSC,M,M,M,M,M,M,M,M,M,M,M,M,M,M,M,ZYCC 200000Z 20006MPS 6000 NSC 12/03 Q1022 NOSIG
ZYHB,2020-10-20 00:00,126.5800,46.0200,50.00,44.60,81.61,180.00,11.66,0.00,30.09,M,1.86,M,NSC,M,M,M,M,M,M,M,BR,M,M,M,M,M,M,M,ZYHB 200000Z 18006MPS 3000 BR NSC 10/07 Q1019 NOSIG
ZWSH,2020-10-20 00:00,75.9833,39.4667,51.80,23.00,32.17,320.00,9.72,0.00,30.36,M,6.21,M,M,M,M,M,M,M,M,M,M,M,M,M,M,M,M,M,ZWSH 200000Z 32005MPS CAVOK 11/M05 Q1028 NOSIG
ZBAD,2020-10-20 00:00,116.4106,39.5092,48.20,46.40,93.45,140.00,1.94,0.00,30.21,M,1.74,M,NSC,M,M,M,M,M,M,M,BR,M,M,M,M,M,M,M,ZBAD 200000Z 14001MPS 2800 BR NSC 09/08 Q1023 BECMG TL0120 3200
ZMUB,2020-10-20 00:30,106.7666,47.8431,26.60,17.60,68.40,360.00,17.49,0.00,29.80,M,6.21,M,BKN,M,M,M,3000.00,M,M,M,-SN BLSN,M,M,M,M,M,M,12.82,ZMUB 200030Z 36009MPS 9999 -SN BLSN BKN030 M03/M08 Q1009 NOSIG RMK QFE650.5 67 MOP
ZBYN,2020-10-20 00:30,112.5500,37.7833,44.60,35.60,70.48,0.00,0.00,0.00,30.27,M,2.49,M,NSC,M,M,M,M,M,M,M,HZ,M,M,M,M,M,M,M,ZBYN 200030Z 00000MPS 4000 HZ NSC 07/02 Q1025 NOSIG
ZGGG,2020-10-20 00:30,113.3008,23.3964,69.80,55.40,60.21,20.00,11.66,0.00,30.06,M,6.21,M,SCT,M,M,M,3300.00,M,M,M,M,M,M,M,M,M,M,M,ZGGG 200030Z 02006MPS 9999 SCT033 21/13 Q1018 NOSIG
ZBAA,2020-10-20 00:30,116.5870,40.0741,50.00,44.60,81.61,M,1.94,0.00,30.21,M,4.97,M,NSC,M,M,M,M,M,M,M,M,M,M,M,M,M,M,M,ZBAA 200030Z VRB01MPS 8000 NSC 10/07 Q1023 NOSIG
ZBTJ,2020-10-20 00:30,117.3462,39.1243,59.00,44.60,58.77,190.00,3.89,0.00,30.24,M,1.86,M,NSC,M,M,M,M,M,M,M,HZ,M,M,M,M,M,M,M,ZBTJ 200030Z 19002MPS 160V220 3000 HZ NSC 15/07 Q1024 NOSIG
ZYTL,2020-10-20 00:30,121.6333,38.9000,64.40,55.40,72.56,210.00,5.83,0.00,30.30,M,2.49,M,NSC,M,M,M,M,M,M,M,BR,M,M,M,M,M,M,M,ZYTL 200030Z 21003MPS 160V250 4000 BR NSC 18/13 Q1026 NOSIG
ZYTX,2020-10-20 00:30,123.4000,41.8000,60.80,48.20,63.15,170.00,7.78,0.00,30.21,M,1.86,M,NSC,M,M,M,M,M,M,M,BR,M,M,M,M,M,M,M,ZYTX 200030Z 17004MPS 140V200 3000 BR NSC 16/09 Q1023 NOSIG
ZSHC,2020-10-20 00:30,120.1667,30.2333,66.20,55.40,68.15,40.00,3.89,0.00,30.27,M,6.21,M,BKN,M,M,M,4000.00,M,M,M,M,M,M,M,M,M,M,M,ZSHC 200030Z 04002MPS 310V100 9999 BKN040 19/13 Q1025 NOSIG
ZSSS,2020-10-20 00:30,121.3363,31.1979,66.20,53.60,63.82,40.00,5.83,0.00,30.30,M,6.21,M,M,M,M,M,M,M,M,M,M,M,M,M,M,M,M,M,ZSSS 200030Z 04003MPS 010V080 CAVOK 19/12 Q1026 NOSIG
ZSPD,2020-10-20 00:30,121.7667,31.1167,68.00,51.80,56.13,70.00,9.72,0.00,30.27,M,6.21,M,FEW,M,M,M,4000.00,M,M,M,M,M,M,M,M,M,M,M,ZSPD 200030Z 07005MPS 020V100 9999 FEW040 20/11 Q1025 NOSIG
ZWWW,2020-10-20 00:30,87.4742,43.9071,46.40,26.60,45.73,M,1.94,0.00,30.30,M,2.49,M,NSC,M,M,M,M,M,M,M,DU,M,M,M,M,M,M,M,ZWWW 200030Z VRB01MPS 4000 DU NSC 08/M03 Q1026 NOSIG
ZBAD,2020-10-20 00:30,116.4106,39.5092,50.00,46.40,87.37,180.00,1.94,0.00,30.21,M,1.74,M,NSC,M,M,M,M,M,M,M,BR,M,M,M,M,M,M,M,ZBAD 200030Z 18001MPS 2800 BR NSC 10/08 Q1023 NOSIG
ZMUB,2020-10-20 01:00,106.7666,47.8431,24.80,15.80,68.18,350.00,13.61,0.00,29.83,M,2.24,23.33,BKN,M,M,M,3000.00,M,M,M,-SN BLSN,M,M,M,M,M,M,12.06,ZMUB 200100Z 35007G12MPS 320V030 3600SE -SN BLSN BKN030 M04/M09 Q1010 NOSIG RMK QFE650.8 65 SE MO
ZGHA,2020-10-20 01:00,112.8667,28.2333,62.60,59.00,88.00,20.00,5.83,0.00,30.24,M,1.99,M,OVC,M,M,M,5000.00,M,M,M,BR,M,M,M,M,M,M,M,ZGHA 200100Z 02003MPS 3200 BR OVC050 17/15 Q1024 NOSIG
ZBYN,2020-10-20 01:00,112.5500,37.7833,48.20,33.80,57.26,M,1.94,0.00,30.27,M,3.11,M,NSC,M,M,M,M,M,M,M,HZ,M,M,M,M,M,M,M,ZBYN 200100Z VRB01MPS 5000 HZ NSC 09/01 Q1025 NOSIG
ZGGG,2020-10-20 01:00,113.3008,23.3964,71.60,55.40,56.63,360.00,9.72,0.00,30.06,M,6.21,M,BKN,M,M,M,3300.00,M,M,M,M,M,M,M,M,M,M,M,ZGGG 200100Z 36005MPS 9999 BKN033 22/13 Q1018 NOSIG
ZGKL,2020-10-20 01:00,110.3000,25.3333,64.40,57.20,77.45,0.00,0.00,0.00,30.21,M,6.21,M,FEW,SCT,M,M,2000.00,6600.00,M,M,M,M,M,M,M,M,M,M,ZGKL 200100Z 00000MPS 9999 FEW020 SCT066 18/14 Q1023 NOSIG
ZGOW,2020-10-20 01:00,116.6833,23.4000,75.20,60.80,60.90,10.00,5.83,0.00,30.03,M,6.21,M,M,M,M,M,M,M,M,M,M,M,M,M,M,M,M,M,ZGOW 200100Z 01003MPS 340V050 CAVOK 24/16 Q1017 NOSIG
ZHHH,2020-10-20 01:00,114.1300,30.6200,60.80,53.60,77.14,90.00,3.89,0.00,30.27,M,3.11,M,NSC,M,M,M,M,M,M,M,BR,M,M,M,M,M,M,M,ZHHH 200100Z 09002MPS 030V130 5000 BR NSC 16/12 Q1025 NOSIG
ZJHK,2020-10-20 01:00,110.4590,19.9349,75.20,69.80,83.32,40.00,15.55,0.00,29.97,M,6.21,M,BKN,BKN,M,M,2300.00,3000.00,M,M,M,M,M,M,M,M,M,M,ZJHK 200100Z 04008MPS 9999 BKN023 BKN030 24/21 Q1015 WS RWY09 NOSIG
ZJSY,2020-10-20 01:00,109.4123,18.3029,80.60,73.40,78.76,80.00,7.78,0.00,29.88,M,6.21,M,FEW,SCT,M,M,2000.00,3300.00,M,M,M,M,M,M,M,M,M,85.32,ZJSY 200100Z 08004MPS 050V110 9999 FEW020 SCT033 27/23 Q1012 NOSIG
ZUGY,2020-10-20 01:00,106.7333,26.5833,46.40,41.00,81.34,40.00,7.78,0.00,30.33,M,6.21,M,FEW,BKN,OVC,M,1000.00,1500.00,4300.00,M,-RA,M,M,M,M,M,M,41.95,ZUGY 200100Z 04004MPS 9999 -RA FEW010 BKN015 OVC043 08/05 Q1027 NOSIG
ZGSZ,2020-10-20 01:00,114.1000,22.5500,75.20,60.80,60.90,10.00,9.72,0.00,30.03,M,6.21,M,M,M,M,M,M,M,M,M,M,M,M,M,M,M,M,M,ZGSZ 200100Z 01005MPS 350V050 CAVOK 24/16 Q1017 NOSIG
ZHCC,2020-10-20 01:00,113.6500,34.7167,62.60,48.20,59.26,190.00,3.89,0.00,30.30,M,2.49,M,NSC,M,M,M,M,M,M,M,HZ,M,M,M,M,M,M,M,ZHCC 200100Z 19002MPS 140V250 4000 HZ NSC 17/09 Q1026 NOSIG
ZGNN,2020-10-20 01:00,108.2167,22.6333,68.00,57.20,68.35,350.00,7.78,0.00,30.12,M,6.21,M,M,M,M,M,M,M,M,M,M,M,M,M,M,M,M,M,ZGNN 200100Z 35004MPS 320V020 CAVOK 20/14 Q1020 NOSIG
ZBAA,2020-10-20 01:00,116.5870,40.0741,51.80,44.60,76.34,M,1.94,0.00,30.24,M,3.11,M,NSC,M,M,M,M,M,M,M,BR,M,M,M,M,M,M,M,ZBAA 200100Z VRB01MPS 5000 BR NSC 11/07 Q1024 NOSIG
ZBHH,2020-10-20 01:00,111.6833,40.8167,48.20,19.40,31.57,M,1.94,0.00,30.21,M,6.21,M,M,M,M,M,M,M,M,M,M,M,M,M,M,M,M,M,ZBHH 200100Z VRB01MPS CAVOK 09/M07 Q1023 NOSIG
ZBSJ,2020-10-20 01:00,114.6973,38.2807,55.40,46.40,71.64,M,1.94,0.00,30.21,M,1.55,M,NSC,M,M,M,M,M,M,M,HZ,M,M,M,M,M,M,M,ZBSJ 200100Z VRB01MPS 2500 HZ NSC 13/08 Q1023 BECMG TL0130 3000
ZBTJ,2020-10-20 01:00,117.3462,39.1243,60.80,44.60,55.12,200.00,5.83,0.00,30.24,M,1.86,M,NSC,M,M,M,M,M,M,M,HZ,M,M,M,M,M,M,M,ZBTJ 200100Z 20003MPS 170V240 3000 HZ NSC 16/07 Q1024 NOSIG
ZYTL,2020-10-20 01:00,121.6333,38.9000,66.20,51.80,59.74,230.00,5.83,0.00,30.30,M,3.73,M,NSC,M,M,M,M,M,M,M,M,M,M,M,M,M,M,M,ZYTL 200100Z 23003MPS 190V280 6000 NSC 19/11 Q1026 NOSIG
ZYTX,2020-10-20 01:00,123.4000,41.8000,62.60,48.20,59.26,190.00,9.72,0.00,30.24,M,1.86,M,NSC,M,M,M,M,M,M,M,HZ,M,M,M,M,M,M,M,ZYTX 200100Z 19005MPS 3000 HZ NSC 17/09 Q1024 NOSIG
ZLLL,2020-10-20 01:00,103.7500,36.0200,37.40,19.40,47.80,300.00,1.94,0.00,30.45,M,6.21,M,M,M,M,M,M,M,M,M,M,M,M,M,M,M,M,M,ZLLL 200100Z 30001MPS CAVOK 03/M07 Q1031 NOSIG
ZLXY,2020-10-20 01:00,108.7516,34.4471,55.40,53.60,93.65,280.00,1.94,0.00,30.30,M,2.80,M,NSC,M,M,M,M,M,M,M,BR,M,M,M,M,M,M,M,ZLXY 200100Z 28001MPS 4500 BR NSC 13/12 Q1026 NOSIG
ZSAM,2020-10-20 01:00,118.0833,24.4833,75.20,59.00,57.12,30.00,13.61,0.00,30.03,M,6.21,M,BKN,M,M,M,4000.00,M,M,M,M,M,M,M,M,M,M,M,ZSAM 200100Z 03007MPS 9999 BKN040 24/15 Q1017 NOSIG
ZPPP,2020-10-20 01:00,102.6833,25.0167,50.00,50.00,100.00,10.00,5.83,0.00,30.33,M,2.49,M,SCT,BKN,OVC,M,400.00,1600.00,3000.00,M,-SHRA BR,M,M,M,M,M,M,M,ZPPP 200100Z 01003MPS 4000 -SHRA BR SCT004 BKN016 OVC030 10/10 Q1027 NOSIG
ZSFZ,2020-10-20 01:00,119.2833,26.0833,69.80,59.00,68.55,30.00,19.44,0.00,30.12,M,6.21,M,BKN,M,M,M,2300.00,M,M,M,M,M,M,M,M,M,M,M,ZSFZ 200100Z 03010MPS 9999 BKN023 21/15 Q1020 NOSIG
ZSHC,2020-10-20 01:00,120.1667,30.2333,66.20,55.40,68.15,60.00,5.83,0.00,30.27,M,6.21,M,BKN,M,M,M,4000.00,M,M,M,M,M,M,M,M,M,M,M,ZSHC 200100Z 06003MPS 020V090 9999 BKN040 19/13 Q1025 NOSIG
ZSNB,2020-10-20 01:00,121.4619,29.8267,68.00,59.00,72.92,320.00,1.94,0.00,30.24,M,6.21,M,M,M,M,M,M,M,M,M,M,M,M,M,M,M,M,M,ZSNB 200100Z 32001MPS CAVOK 20/15 Q1024 NOSIG
ZSOF,2020-10-20 01:00,117.2984,31.7800,62.60,51.80,67.75,110.00,7.78,0.00,30.30,M,3.73,M,NSC,M,M,M,M,M,M,M,M,M,M,M,M,M,M,M,ZSOF 200100Z 11004MPS 080V150 6000 NSC 17/11 Q1026 NOSIG
ZSQD,2020-10-20 01:00,120.3333,36.0667,66.20,51.80,59.74,M,1.94,0.00,30.36,M,6.21,M,M,M,M,M,M,M,M,M,M,M,M,M,M,M,M,M,ZSQD 200100Z VRB01MPS CAVOK 19/11 Q1028 NOSIG
ZSSS,2020-10-20 01:00,121.3363,31.1979,68.00,51.80,56.13,50.00,9.72,0.00,30.27,M,6.21,M,M,M,M,M,M,M,M,M,M,M,M,M,M,M,M,M,ZSSS 200100Z 05005MPS 020V080 CAVOK 20/11 Q1025 NOSIG
ZUCK,2020-10-20 01:00,106.4800,29.5200,57.20,55.40,93.69,20.00,7.78,0.00,30.30,M,6.21,M,NSC,M,M,M,M,M,M,M,-RA,M,M,M,M,M,M,M,ZUCK 200100Z 02004MPS 9999 -RA NSC 14/13 Q1026 NOSIG
ZSNJ,2020-10-20 01:00,118.8667,31.7333,62.60,55.40,77.29,70.00,5.83,0.00,30.33,M,3.73,M,NSC,M,M,M,M,M,M,M,M,M,M,M,M,M,M,M,ZSNJ 200100Z 07003MPS 6000 NSC 17/13 Q1027 NOSIG
ZSPD,2020-10-20 01:00,121.7667,31.1167,68.00,51.80,56.13,50.00,11.66,0.00,30.27,M,6.21,M,FEW,M,M,M,4000.00,M,M,M,M,M,M,M,M,M,M,M,ZSPD 200100Z 05006MPS 020V080 9999 FEW040 20/11 Q1025 NOSIG
ZUUU,2020-10-20 01:00,104.0167,30.6667,57.20,55.40,93.69,30.00,9.72,0.00,30.36,M,6.21,M,SCT,BKN,M,M,1300.00,3000.00,M,M,-RA,M,M,M,M,M,M,M,ZUUU 200100Z 03005MPS 360V060 9999 -RA SCT013 BKN030 14/13 Q1028 NOSIG
ZWWW,2020-10-20 01:00,87.4742,43.9071,46.40,23.00,39.36,140.00,5.83,0.00,30.30,M,3.73,M,NSC,M,M,M,M,M,M,M,M,M,M,M,M,M,M,42.97,ZWWW 200100Z 14003MPS 130V190 6000 NSC 08/M05 Q1026 NOSIG
ZYCC,2020-10-20 01:00,125.2167,43.9000,55.40,41.00,58.27,200.00,13.61,0.00,30.18,M,3.73,M,NSC,M,M,M,M,M,M,M,M,M,M,M,M,M,M,M,ZYCC 200100Z 20007MPS 6000 NSC 13/05 Q1022 NOSIG
ZYHB,2020-10-20 01:00,126.5800,46.0200,55.40,46.40,71.64,190.00,13.61,0.00,30.09,M,1.86,M,NSC,M,M,M,M,M,M,M,BR,M,M,M,M,M,M,M,ZYHB 200100Z 19007MPS 3000 BR NSC 13/08 Q1019 NOSIG
ZWSH,2020-10-20 01:00,75.9833,39.4667,50.00,23.00,34.39,320.00,9.72,0.00,30.36,M,6.21,M,M,M,M,M,M,M,M,M,M,M,M,M,M,M,M,M,ZWSH 200100Z 32005MPS CAVOK 10/M05 Q1028 NOSIG
ZBAD,2020-10-20 01:00,116.4106,39.5092,53.60,46.40,76.50,180.00,5.83,0.00,30.21,M,1.74,M,NSC,M,M,M,M,M,M,M,BR,M,M,M,M,M,M,M,ZBAD 200100Z 18003MPS 150V220 2800 BR NSC 12/08 Q1023 BECMG TL0140 3200
ZMUB,2020-10-20 01:30,106.7666,47.8431,24.80,15.80,68.18,350.00,15.55,0.00,29.85,M,2.24,M,BKN,M,M,M,3000.00,M,M,M,-SN BLSN,M,M,M,M,M,M,11.22,ZMUB 200130Z 35008MPS 3600SE -SN BLSN BKN030 M04/M09 Q1011 NOSIG RMK QFE651.4 66 SE MO
ZBYN,2020-10-20 01:30,112.5500,37.7833,50.00,33.80,53.54,M,1.94,0.00,30.27,M,3.11,M,NSC,M,M,M,M,M,M,M,HZ,M,M,M,M,M,M,M,ZBYN 200130Z VRB01MPS 5000 HZ NSC 10/01 Q1025 NOSIG
ZGGG,2020-10-20 01:30,113.3008,23.3964,71.60,55.40,56.63,350.00,11.66,0.00,30.06,M,6.21,M,BKN,M,M,M,3300.00,M,M,M,M,M,M,M,M,M,M,M,ZGGG 200130Z 35006MPS 9999 BKN033 22/13 Q1018 NOSIG
ZBAA,2020-10-20 01:30,116.5870,40.0741,55.40,44.60,66.91,M,1.94,0.00,30.21,M,2.80,M,NSC,M,M,M,M,M,M,M,HZ,M,M,M,M,M,M,M,ZBAA 200130Z VRB01MPS 4500 HZ NSC 13/07 Q1023 NOSIG
ZBTJ,2020-10-20 01:30,117.3462,39.1243,62.60,44.60,51.72,210.00,7.78,0.00,30.24,M,2.17,M,NSC,M,M,M,M,M,M,M,HZ,M,M,M,M,M,M,M,ZBTJ 200130Z 21004MPS 170V240 3500 HZ NSC 17/07 Q1024 NOSIG
ZYTL,2020-10-20 01:30,121.6333,38.9000,66.20,50.00,55.88,240.00,9.72,0.00,30.30,M,4.35,M,NSC,M,M,M,M,M,M,M,M,M,M,M,M,M,M,M,ZYTL 200130Z 24005MPS 7000 NSC 19/10 Q1026 NOSIG
ZYTX,2020-10-20 01:30,123.4000,41.8000,64.40,46.40,51.98,200.00,11.66,0.00,30.21,M,2.49,M,NSC,M,M,M,M,M,M,M,HZ,M,M,M,M,M,M,M,ZYTX 200130Z 20006MPS 4000 HZ NSC 18/08 Q1023 NOSIG
ZSHC,2020-10-20 01:30,120.1667,30.2333,68.00,55.40,64.04,60.00,7.78,0.00,30.27,M,6.21,M,BKN,M,M,M,4000.00,M,M,M,M,M,M,M,M,M,M,M,ZSHC 200130Z 06004MPS 030V090 9999 BKN040 20/13 Q1025 NOSIG
ZSSS,2020-10-20 01:30,121.3363,31.1979,69.80,51.80,52.77,70.00,9.72,0.00,30.30,M,6.21,M,M,M,M,M,M,M,M,M,M,M,M,M,M,M,M,M,ZSSS 200130Z 07005MPS 030V090 CAVOK 21/11 Q1026 NOSIG
ZSPD,2020-10-20 01:30,121.7667,31.1167,69.80,51.80,52.77,60.00,11.66,0.00,30.27,M,6.21,M,FEW,M,M,M,4000.00,M,M,M,M,M,M,M,M,M,M,M,ZSPD 200130Z 06006MPS 020V090 9999 FEW040 21/11 Q1025 NOSIG
ZWWW,2020-10-20 01:30,87.4742,43.9071,51.80,21.20,29.82,170.00,9.72,0.00,30.30,M,4.97,M,NSC,M,M,M,M,M,M,M,M,M,M,M,M,M,M,M,ZWWW 200130Z 17005MPS 8000 NSC 11/M06 Q1026 NOSIG
ZBAD,2020-10-20 01:30,116.4106,39.5092,55.40,44.60,66.91,210.00,5.83,0.00,30.21,M,2.17,M,NSC,M,M,M,M,M,M,M,BR,M,M,M,M,M,M,M,ZBAD 200130Z 21003MPS 180V240 3500 BR NSC 13/07 Q1023 NOSIG
ZGHA,2020-10-20 02:00,112.8667,28.2333,64.40,59.00,82.62,10.00,5.83,0.00,30.24,M,2.98,M,OVC,M,M,M,5000.00,M,M,M,BR,M,M,M,M,M,M,M,ZGHA 200200Z 01003MPS 4800 BR OVC050 18/15 Q1024 NOSIG
ZBYN,2020-10-20 02:00,112.5500,37.7833,51.80,33.80,50.08,M,1.94,0.00,30.27,M,3.11,M,NSC,M,M,M,M,M,M,M,HZ,M,M,M,M,M,M,M,ZBYN 200200Z VRB01MPS 5000 HZ NSC 11/01 Q1025 NOSIG
ZGGG,2020-10-20 02:00,113.3008,23.3964,71.60,57.20,60.44,340.00,9.72,0.00,30.06,M,6.21,M,BKN,M,M,M,3300.00,M,M,M,M,M,M,M,M,M,M,M,ZGGG 200200Z 34005MPS 320V020 9999 BKN033 22/14 Q1018 NOSIG
ZGKL,2020-10-20 02:00,110.3000,25.3333,69.80,57.20,64.26,60.00,3.89,0.00,30.21,M,6.21,M,FEW,SCT,M,M,2300.00,4600.00,M,M,M,M,M,M,M,M,M,M,ZGKL 200200Z 06002MPS 030V160 9999 FEW023 SCT046 21/14 Q1023 NOSIG
ZGOW,2020-10-20 02:00,116.6833,23.4000,78.80,62.60,57.60,60.00,7.78,0.00,30.00,M,6.21,M,M,M,M,M,M,M,M,M,M,M,M,M,M,M,M,M,ZGOW 200200Z 06004MPS 010V120 CAVOK 26/17 Q1016 NOSIG
ZHHH,2020-10-20 02:00,114.1300,30.6200,64.40,53.60,67.95,M,1.94,0.00,30.27,M,3.11,M,NSC,M,M,M,M,M,M,M,BR,M,M,M,M,M,M,M,ZHHH 200200Z VRB01MPS 5000 BR NSC 18/12 Q1025 NOSIG
ZJHK,2020-10-20 02:00,110.4590,19.9349,75.20,69.80,83.32,50.00,15.55,0.00,29.97,M,6.21,M,BKN,OVC,M,M,2000.00,3000.00,M,M,M,M,M,M,M,M,M,M,ZJHK 200200Z 05008MPS 9999 BKN020 OVC030 24/21 Q1015 NOSIG
ZJSY,2020-10-20 02:00,109.4123,18.3029,84.20,73.40,70.08,70.00,11.66,0.00,29.88,M,6.21,M,FEW,M,M,M,2300.00,M,M,M,M,M,M,M,M,M,M,90.94,ZJSY 200200Z 07006MPS 030V110 9999 FEW023 29/23 Q1012 NOSIG
ZUGY,2020-10-20 02:00,106.7333,26.5833,44.60,42.80,93.35,20.00,5.83,0.00,30.36,M,3.11,M,FEW,BKN,OVC,M,500.00,1500.00,3000.00,M,-RA BR,M,M,M,M,M,M,40.81,ZUGY 200200Z 02003MPS 5000 -RA BR FEW005 BKN015 OVC030 07/06 Q1028 NOSIG
ZGSZ,2020-10-20 02:00,114.1000,22.5500,77.00,60.80,57.36,360.00,11.66,0.00,30.03,M,6.21,M,M,M,M,M,M,M,M,M,M,M,M,M,M,M,M,M,ZGSZ 200200Z 36006MPS CAVOK 25/16 Q1017 NOSIG
ZHCC,2020-10-20 02:00,113.6500,34.7167,62.60,50.00,63.38,190.00,3.89,0.00,30.27,M,2.49,M,NSC,M,M,M,M,M,M,M,HZ,M,M,M,M,M,M,M,ZHCC 200200Z 19002MPS 080V240 4000 HZ NSC 17/10 Q1025 NOSIG
ZGNN,2020-10-20 02:00,108.2167,22.6333,69.80,57.20,64.26,350.00,7.78,0.00,30.12,M,6.21,M,M,M,M,M,M,M,M,M,M,M,M,M,M,M,M,M,ZGNN 200200Z 35004MPS CAVOK 21/14 Q1020 NOSIG
ZBAA,2020-10-20 02:00,116.5870,40.0741,55.40,44.60,66.91,110.00,3.89,0.00,30.21,M,2.80,M,NSC,M,M,M,M,M,M,M,HZ,M,M,M,M,M,M,M,ZBAA 200200Z 11002MPS 020V160 4500 HZ NSC 13/07 Q1023 NOSIG
ZBHH,2020-10-20 02:00,111.6833,40.8167,50.00,21.20,31.87,190.00,5.83,0.00,30.21,M,6.21,M,M,M,M,M,M,M,M,M,M,M,M,M,M,M,M,M,ZBHH 200200Z 19003MPS 150V240 CAVOK 10/M06 Q1023 NOSIG
ZBSJ,2020-10-20 02:00,114.6973,38.2807,59.00,46.40,62.92,M,1.94,0.00,30.18,M,1.86,M,NSC,M,M,M,M,M,M,M,HZ,M,M,M,M,M,M,M,ZBSJ 200200Z VRB01MPS 3000 HZ NSC 15/08 Q1022 NOSIG
ZBTJ,2020-10-20 02:00,117.3462,39.1243,62.60,44.60,51.72,220.00,11.66,0.00,30.21,M,2.17,M,NSC,M,M,M,M,M,M,M,HZ,M,M,M,M,M,M,M,ZBTJ 200200Z 22006MPS 3500 HZ NSC 17/07 Q1023 NOSIG
ZYTL,2020-10-20 02:00,121.6333,38.9000,68.00,48.20,49.10,200.00,7.78,0.00,30.27,M,4.35,M,NSC,M,M,M,M,M,M,M,M,M,M,M,M,M,M,M,ZYTL 200200Z 20004MPS 150V270 7000 NSC 20/09 Q1025 NOSIG
ZYTX,2020-10-20 02:00,123.4000,41.8000,66.20,46.40,48.83,200.00,13.61,0.00,30.21,M,2.49,M,NSC,M,M,M,M,M,M,M,HZ,M,M,M,M,M,M,M,ZYTX 200200Z 20007MPS 4000 HZ NSC 19/08 Q1023 NOSIG
ZLLL,2020-10-20 02:00,103.7500,36.0200,42.80,19.40,38.75,M,1.94,0.00,30.47,M,6.21,M,M,M,M,M,M,M,M,M,M,M,M,M,M,M,M,M,ZLLL 200200Z VRB01MPS CAVOK 06/M07 Q1032 NOSIG
ZLXY,2020-10-20 02:00,108.7516,34.4471,59.00,51.80,76.98,210.00,3.89,0.00,30.30,M,3.73,M,NSC,M,M,M,M,M,M,M,M,M,M,M,M,M,M,M,ZLXY 200200Z 21002MPS 170V250 6000 NSC 15/11 Q1026 NOSIG
ZSAM,2020-10-20 02:00,118.0833,24.4833,75.20,60.80,60.90,30.00,13.61,0.00,30.03,M,6.21,M,OVC,M,M,M,4000.00,M,M,M,M,M,M,M,M,M,M,M,ZSAM 200200Z 03007MPS 9999 OVC040 24/16 Q1017 NOSIG
ZPPP,2020-10-20 02:00,102.6833,25.0167,50.00,50.00,100.00,10.00,5.83,0.00,30.36,M,3.73,M,SCT,SCT,OVC,M,400.00,1600.00,3000.00,M,-RA,M,M,M,M,M,M,M,ZPPP 200200Z 01003MPS 340V050 6000 -RA SCT004 SCT016 OVC030 10/10 Q1028 NOSIG
ZSFZ,2020-10-20 02:00,119.2833,26.0833,71.60,59.00,64.48,30.00,21.38,0.00,30.12,M,6.21,M,BKN,M,M,M,2700.00,M,M,M,M,M,M,M,M,M,M,M,ZSFZ 200200Z 03011MPS 9999 BKN027 22/15 Q1020 NOSIG
ZSHC,2020-10-20 02:00,120.1667,30.2333,69.80,55.40,60.21,60.00,7.78,0.00,30.27,M,6.21,M,BKN,M,M,M,4000.00,M,M,M,M,M,M,M,M,M,M,M,ZSHC 200200Z 06004MPS 020V090 9999 BKN040 21/13 Q1025 NOSIG
ZSNB,2020-10-20 02:00,121.4619,29.8267,71.60,59.00,64.48,30.00,7.78,0.00,30.24,M,6.21,M,SCT,M,M,M,2600.00,M,M,M,M,M,M,M,M,M,M,M,ZSNB 200200Z 03004MPS 9999 SCT026 22/15 Q1024 NOSIG
ZSOF,2020-10-20 02:00,117.2984,31.7800,62.60,51.80,67.75,150.00,7.78,0.00,30.30,M,4.35,M,NSC,M,M,M,M,M,M,M,M,M,M,M,M,M,M,M,ZSOF 200200Z 15004MPS 7000 NSC 17/11 Q1026 NOSIG
ZSQD,2020-10-20 02:00,120.3333,36.0667,68.00,50.00,52.51,150.00,7.78,0.00,30.33,M,6.21,M,M,M,M,M,M,M,M,M,M,M,M,M,M,M,M,M,ZSQD 200200Z 15004MPS 120V180 CAVOK 20/10 Q1027 NOSIG
ZSSS,2020-10-20 02:00,121.3363,31.1979,69.80,51.80,52.77,70.00,7.78,0.00,30.27,M,6.21,M,M,M,M,M,M,M,M,M,M,M,M,M,M,M,M,M,ZSSS 200200Z 07004MPS 030V100 CAVOK 21/11 Q1025 NOSIG
ZUCK,2020-10-20 02:00,106.4800,29.5200,57.20,53.60,87.74,20.00,9.72,0.00,30.33,M,6.21,M,FEW,M,M,M,4600.00,M,M,M,-RA,M,M,M,M,M,M,M,ZUCK 200200Z 02005MPS 9999 -RA FEW046 14/12 Q1027 NOSIG
ZSNJ,2020-10-20 02:00,118.8667,31.7333,66.20,51.80,59.74,60.00,5.83,0.00,30.30,M,6.21,M,M,M,M,M,M,M,M,M,M,M,M,M,M,M,M,M,ZSNJ 200200Z 06003MPS 030V100 CAVOK 19/11 Q1026 NOSIG
ZSPD,2020-10-20 02:00,121.7667,31.1167,71.60,53.60,53.03,50.00,11.66,0.00,30.27,M,6.21,M,SCT,M,M,M,4000.00,M,M,M,M,M,M,M,M,M,M,M,ZSPD 200200Z 05006MPS 010V080 9999 SCT040 22/12 Q1025 NOSIG
ZUUU,2020-10-20 02:00,104.0167,30.6667,59.00,57.20,93.74,20.00,5.83,0.00,30.36,M,6.21,M,SCT,BKN,M,M,1200.00,3000.00,M,M,-RA,M,M,M,M,M,M,M,ZUUU 200200Z 02003MPS 330V050 9999 -RA SCT012 BKN030 15/14 Q1028 NOSIG
ZWWW,2020-10-20 02:00,87.4742,43.9071,53.60,21.20,27.91,140.00,3.89,0.00,30.30,M,6.21,M,M,M,M,M,M,M,M,M,M,M,M,M,M,M,M,M,ZWWW 200200Z 14002MPS 080V210 CAVOK 12/M06 Q1026 NOSIG
ZYCC,2020-10-20 02:00,125.2167,43.9000,59.00,42.80,54.86,210.00,15.55,0.00,30.15,M,3.11,M,NSC,M,M,M,M,M,M,M,HZ,M,M,M,M,M,M,M,ZYCC 200200Z 21008MPS 5000 HZ NSC 15/06 Q1021 NOSIG
ZYHB,2020-10-20 02:00,126.5800,46.0200,59.00,46.40,62.92,190.00,13.61,0.00,30.06,M,2.49,23.33,NSC,M,M,M,M,M,M,M,HZ,M,M,M,M,M,M,M,ZYHB 200200Z 19007G12MPS 4000 HZ NSC 15/08 Q1018 NOSIG
ZWSH,2020-10-20 02:00,75.9833,39.4667,51.80,23.00,32.17,320.00,9.72,0.00,30.36,M,6.21,M,M,M,M,M,M,M,M,M,M,M,M,M,M,M,M,M,ZWSH 200200Z 32005MPS CAVOK 11/M05 Q1028 NOSIG
ZBAD,2020-10-20 02:00,116.4106,39.5092,57.20,46.40,67.12,200.00,3.89,0.00,30.18,M,2.17,M,NSC,M,M,M,M,M,M,M,BR,M,M,M,M,M,M,M,ZBAD 200200Z 20002MPS 160V230 3500 BR NSC 14/08 Q1022 NOSIG
ZMUB,2020-10-20 02:00,106.7666,47.8431,24.80,14.00,63.03,350.00,13.61,0.00,29.85,M,6.21,M,FEW,BKN,M,M,2700.00,3000.00,M,M,M,M,M,M,M,M,M,12.06,ZMUB 200200Z 35007MPS 9999 FEW027 BKN030 M04/M10 Q1011 NOSIG RMK QFE651.8 64 E CM
ZMUB,2020-10-20 02:30,106.7666,47.8431,24.80,14.00,63.03,350.00,17.49,0.00,29.88,M,6.21,M,FEW,BKN,M,M,2700.00,3000.00,M,M,M,M,M,M,M,M,M,10.46,ZMUB 200230Z 35009MPS 9999 FEW027 BKN030 M04/M10 Q1012 NOSIG RMK QFE652.0 64 E CM
ZBYN,2020-10-20 02:30,112.5500,37.7833,53.60,33.80,46.88,M,1.94,0.00,30.27,M,3.73,M,NSC,M,M,M,M,M,M,M,M,M,M,M,M,M,M,M,ZBYN 200230Z VRB01MPS 6000 NSC 12/01 Q1025 NOSIG
ZGGG,2020-10-20 02:30,113.3008,23.3964,75.20,57.20,53.55,350.00,9.72,0.00,30.06,M,6.21,M,BKN,M,M,M,3300.00,M,M,M,M,M,M,M,M,M,M,M,ZGGG 200230Z 35005MPS 9999 BKN033 24/14 Q1018 NOSIG
ZBAA,2020-10-20 02:30,116.5870,40.0741,57.20,44.60,62.69,90.00,3.89,0.00,30.21,M,2.80,M,NSC,M,M,M,M,M,M,M,HZ,M,M,M,M,M,M,M,ZBAA 200230Z 09002MPS 050V170 4500 HZ NSC 14/07 Q1023 NOSIG
ZBTJ,2020-10-20 02:30,117.3462,39.1243,66.20,46.40,48.83,210.00,7.78,0.00,30.21,M,2.17,M,NSC,M,M,M,M,M,M,M,HZ,M,M,M,M,M,M,M,ZBTJ 200230Z 21004MPS 180V240 3500 HZ NSC 19/08 Q1023 NOSIG
ZYTL,2020-10-20 02:30,121.6333,38.9000,69.80,48.20,46.16,200.00,9.72,0.00,30.27,M,4.35,M,NSC,M,M,M,M,M,M,M,M,M,M,M,M,M,M,M,ZYTL 200230Z 20005MPS 170V240 7000 NSC 21/09 Q1025 NOSIG
ZYTX,2020-10-20 02:30,123.4000,41.8000,68.00,46.40,45.88,200.00,13.61,0.00,30.18,M,2.49,M,NSC,M,M,M,M,M,M,M,HZ,M,M,M,M,M,M,M,ZYTX 200230Z 20007MPS 170V230 4000 HZ NSC 20/08 Q1022 NOSIG
ZSHC,2020-10-20 02:30,120.1667,30.2333,69.80,53.60,56.38,40.00,7.78,0.00,30.27,M,6.21,M,BKN,M,M,M,4000.00,M,M,M,M,M,M,M,M,M,M,M,ZSHC 200230Z 04004MPS 360V090 9999 BKN040 21/12 Q1025 NOSIG
ZSSS,2020-10-20 02:30,121.3363,31.1979,71.60,51.80,49.64,70.00,5.83,0.00,30.27,M,6.21,M,M,M,M,M,M,M,M,M,M,M,M,M,M,M,M,M,ZSSS 200230Z 07003MPS 010V110 CAVOK 22/11 Q1025 NOSIG
ZSPD,2020-10-20 02:30,121.7667,31.1167,69.80,53.60,56.38,50.00,11.66,0.00,30.27,M,6.21,M,SCT,M,M,M,4000.00,M,M,M,M,M,M,M,M,M,M,M,ZSPD 200230Z 05006MPS 010V090 9999 SCT040 21/12 Q1025 NOSIG
ZWWW,2020-10-20 02:30,87.4742,43.9071,55.40,23.00,28.20,M,1.94,0.00,30.30,M,6.21,M,M,M,M,M,M,M,M,M,M,M,M,M,M,M,M,M,ZWWW 200230Z VRB01MPS CAVOK 13/M05 Q1026 NOSIG
ZBAD,2020-10-20 02:30,116.4106,39.5092,59.00,46.40,62.92,200.00,3.89,0.00,30.18,M,2.17,M,NSC,M,M,M,M,M,M,M,BR,M,M,M,M,M,M,M,ZBAD 200230Z 20002MPS 170V250 3500 BR NSC 15/08 Q1022 NOSIG
ZLLL,2020-10-20 03:00,103.7500,36.0200,48.20,21.20,34.09,M,1.94,0.00,30.45,M,6.21,M,M,M,M,M,M,M,M,M,M,M,M,M,M,M,M,M,ZLLL 200300Z VRB01MPS CAVOK 09/M06 Q1031 NOSIG
ZLXY,2020-10-20 03:00,108.7516,34.4471,60.80,51.80,72.20,220.00,5.83,0.00,30.30,M,6.21,M,M,M,M,M,M,M,M,M,M,M,M,M,M,M,M,M,ZLXY 200300Z 22003MPS CAVOK 16/11 Q1026 NOSIG
ZSAM,2020-10-20 03:00,118.0833,24.4833,77.00,60.80,57.36,30.00,13.61,0.00,30.03,M,6.21,M,BKN,M,M,M,3600.00,M,M,M,M,M,M,M,M,M,M,M,ZSAM 200300Z 03007MPS 9999 BKN036 25/16 Q1017 NOSIG
ZPPP,2020-10-20 03:00,102.6833,25.0167,51.80,51.80,100.00,10.00,5.83,0.00,30.36,M,2.49,M,SCT,SCT,OVC,M,300.00,1600.00,3000.00,M,-RA BR,M,M,M,M,M,M,M,ZPPP 200300Z 01003MPS 4000 -RA BR SCT003 SCT016 OVC030 11/11 Q1028 NOSIG
ZSFZ,2020-10-20 03:00,119.2833,26.0833,73.40,59.00,60.67,30.00,23.33,0.00,30.09,M,6.21,M,BKN,M,M,M,2700.00,M,M,M,M,M,M,M,M,M,M,M,ZSFZ 200300Z 03012MPS 9999 BKN027 23/15 Q1019 NOSIG
ZSHC,2020-10-20 03:00,120.1667,30.2333,69.80,55.40,60.21,70.00,7.78,0.00,30.24,M,6.21,M,BKN,M,M,M,4000.00,M,M,M,M,M,M,M,M,M,M,M,ZSHC 200300Z 07004MPS 030V100 9999 BKN040 21/13 Q1024 NOSIG
ZSNB,2020-10-20 03:00,121.4619,29.8267,73.40,57.20,56.88,40.00,7.78,0.00,30.24,M,6.21,M,SCT,M,M,M,3000.00,M,M,M,M,M,M,M,M,M,M,M,ZSNB 200300Z 04004MPS 9999 SCT030 23/14 Q1024 NOSIG
ZSOF,2020-10-20 03:00,117.2984,31.7800,64.40,51.80,63.60,110.00,3.89,0.00,30.27,M,4.97,M,NSC,M,M,M,M,M,M,M,M,M,M,M,M,M,M,M,ZSOF 200300Z 11002MPS 070V150 8000 NSC 18/11 Q1025 NOSIG
ZSQD,2020-10-20 03:00,120.3333,36.0667,69.80,48.20,46.16,180.00,9.72,0.00,30.30,M,6.21,M,M,M,M,M,M,M,M,M,M,M,M,M,M,M,M,M,ZSQD 200300Z 18005MPS 160V240 CAVOK 21/09 Q1026 NOSIG
ZSSS,2020-10-20 03:00,121.3363,31.1979,71.60,50.00,46.43,70.00,9.72,0.00,30.27,M,6.21,M,M,M,M,M,M,M,M,M,M,M,M,M,M,M,M,M,ZSSS 200300Z 07005MPS 040V120 CAVOK 22/10 Q1025 NOSIG
ZUCK,2020-10-20 03:00,106.4800,29.5200,57.20,53.60,87.74,360.00,11.66,0.00,30.33,M,6.21,M,FEW,SCT,M,M,1700.00,4000.00,M,M,-RA,M,M,M,M,M,M,M,ZUCK 200300Z 36006MPS 9999 -RA FEW017 SCT040 14/12 Q1027 NOSIG
ZSNJ,2020-10-20 03:00,118.8667,31.7333,69.80,51.80,52.77,90.00,7.78,0.00,30.27,M,6.21,M,M,M,M,M,M,M,M,M,M,M,M,M,M,M,M,M,ZSNJ 200300Z 09004MPS 050V120 CAVOK 21/11 Q1025 NOSIG
ZSPD,2020-10-20 03:00,121.7667,31.1167,71.60,53.60,53.03,50.00,11.66,0.00,30.27,M,6.21,M,FEW,M,M,M,4000.00,M,M,M,M,M,M,M,M,M,M,M,ZSPD 200300Z 05006MPS 020V080 9999 FEW040 22/12 Q1025 NOSIG
ZUUU,2020-10-20 03:00,104.0167,30.6667,59.00,57.20,93.74,360.00,3.89,0.00,30.36,M,6.21,M,SCT,BKN,M,M,1200.00,3000.00,M,M,-RA,M,M,M,M,M,M,M,ZUUU 200300Z 36002MPS 320V030 9999 -RA SCT012 BKN030 15/14 Q1028 NOSIG
ZWWW,2020-10-20 03:00,87.4742,43.9071,57.20,23.00,26.42,M,1.94,0.00,30.30,M,6.21,M,M,M,M,M,M,M,M,M,M,M,M,M,M,M,M,M,ZWWW 200300Z VRB01MPS CAVOK 14/M05 Q1026 NOSIG
ZYCC,2020-10-20 03:00,125.2167,43.9000,64.40,42.80,45.32,210.00,17.49,0.00,30.12,M,3.11,M,NSC,M,M,M,M,M,M,M,HZ,M,M,M,M,M,M,M,ZYCC 200300Z 21009MPS 5000 HZ NSC 18/06 Q1020 NOSIG
ZYHB,2020-10-20 03:00,126.5800,46.0200,62.60,46.40,55.37,180.00,13.61,0.00,30.03,M,2.49,25.27,NSC,M,M,M,M,M,M,M,HZ,M,M,M,M,M,M,M,ZYHB 200300Z 18007G13MPS 4000 HZ NSC 17/08 Q1017 NOSIG
ZWSH,2020-10-20 03:00,75.9833,39.4667,55.40,23.00,28.20,330.00,7.78,0.00,30.39,M,6.21,M,M,M,M,M,M,M,M,M,M,M,M,M,M,M,M,M,ZWSH 200300Z 33004MPS CAVOK 13/M05 Q1029 NOSIG
ZMUB,2020-10-20 03:00,106.7666,47.8431,23.00,14.00,67.96,340.00,21.38,0.00,29.88,M,6.21,M,BKN,M,M,M,3000.00,M,M,M,M,M,M,M,M,M,M,6.72,ZMUB 200300Z 34011MPS 9999 BKN030 M05/M10 Q1012 NOSIG RMK QFE652.3 64 MOP
ZGHA,2020-10-20 03:00,112.8667,28.2333,66.20,59.00,77.60,350.00,5.83,0.00,30.24,M,3.11,M,OVC,M,M,M,5000.00,M,M,M,M,M,M,M,M,M,M,M,ZGHA 200300Z 35003MPS 320V030 5000 OVC050 19/15 Q1024 NOSIG
ZBYN,2020-10-20 03:00,112.5500,37.7833,53.60,32.00,43.61,M,1.94,0.00,30.24,M,3.73,M,NSC,M,M,M,M,M,M,M,M,M,M,M,M,M,M,M,ZBYN 200300Z VRB01MPS 6000 NSC 12/00 Q1024 NOSIG
ZGGG,2020-10-20 03:00,113.3008,23.3964,75.20,57.20,53.55,350.00,9.72,0.00,30.06,M,6.21,M,SCT,M,M,M,3300.00,M,M,M,M,M,M,M,M,M,M,M,ZGGG 200300Z 35005MPS 320V030 9999 SCT033 24/14 Q1018 NOSIG
ZGKL,2020-10-20 03:00,110.3000,25.3333,69.80,55.40,60.21,20.00,9.72,0.00,30.18,M,6.21,M,FEW,BKN,M,M,2000.00,6600.00,M,M,M,M,M,M,M,M,M,M,ZGKL 200300Z 02005MPS 9999 FEW020 BKN066 21/13 Q1022 NOSIG
ZGOW,2020-10-20 03:00,116.6833,23.4000,82.40,62.60,51.21,90.00,7.78,0.00,30.00,M,6.21,M,M,M,M,M,M,M,M,M,M,M,M,M,M,M,M,83.41,ZGOW 200300Z 09004MPS 060V120 CAVOK 28/17 Q1016 NOSIG
ZHHH,2020-10-20 03:00,114.1300,30.6200,62.60,57.20,82.50,290.00,3.89,0.00,30.24,M,3.73,M,NSC,M,M,M,M,M,M,M,M,M,M,M,M,M,M,M,ZHHH 200300Z 29002MPS 240V330 6000 NSC 17/14 Q1024 NOSIG
ZJHK,2020-10-20 03:00,110.4590,19.9349,75.20,69.80,83.32,50.00,13.61,0.00,29.97,M,6.21,M,BKN,OVC,M,M,2000.00,3000.00,M,M,M,M,M,M,M,M,M,M,ZJHK 200300Z 05007MPS 9999 BKN020 OVC030 24/21 Q1015 NOSIG
ZJSY,2020-10-20 03:00,109.4123,18.3029,86.00,75.20,70.27,80.00,15.55,0.00,29.88,M,6.21,27.21,SCT,M,M,M,2600.00,M,M,M,M,M,M,M,M,M,M,95.19,ZJSY 200300Z 08008G14MPS 050V120 9999 SCT026 30/24 Q1012 NOSIG
ZUGY,2020-10-20 03:00,106.7333,26.5833,46.40,46.40,100.00,10.00,5.83,0.00,30.36,M,2.49,M,FEW,BKN,OVC,M,500.00,1500.00,3600.00,M,-RA BR,M,M,M,M,M,M,42.97,ZUGY 200300Z 01003MPS 4000 -RA BR FEW005 BKN015 OVC036 08/08 Q1028 NOSIG
ZGSZ,2020-10-20 03:00,114.1000,22.5500,78.80,62.60,57.60,10.00,11.66,0.00,30.03,M,6.21,M,M,M,M,M,M,M,M,M,M,M,M,M,M,M,M,M,ZGSZ 200300Z 01006MPS 340V040 CAVOK 26/17 Q1017 NOSIG
ZHCC,2020-10-20 03:00,113.6500,34.7167,66.20,48.20,52.25,210.00,5.83,0.00,30.27,M,3.11,M,NSC,M,M,M,M,M,M,M,HZ,M,M,M,M,M,M,M,ZHCC 200300Z 21003MPS 160V250 5000 HZ NSC 19/09 Q1025 NOSIG
ZGNN,2020-10-20 03:00,108.2167,22.6333,71.60,57.20,60.44,10.00,7.78,0.00,30.12,M,6.21,M,M,M,M,M,M,M,M,M,M,M,M,M,M,M,M,M,ZGNN 200300Z 01004MPS CAVOK 22/14 Q1020 NOSIG
ZBAA,2020-10-20 03:00,116.5870,40.0741,59.00,44.60,58.77,M,1.94,0.00,30.18,M,2.80,M,NSC,M,M,M,M,M,M,M,HZ,M,M,M,M,M,M,M,ZBAA 200300Z VRB01MPS 4500 HZ NSC 15/07 Q1022 NOSIG
ZBHH,2020-10-20 03:00,111.6833,40.8167,51.80,23.00,32.17,220.00,3.89,0.00,30.15,M,6.21,M,M,M,M,M,M,M,M,M,M,M,M,M,M,M,M,M,ZBHH 200300Z 22002MPS 140V290 CAVOK 11/M05 Q1021 BECMG TL0430 24007MPS
ZBSJ,2020-10-20 03:00,114.6973,38.2807,60.80,48.20,63.15,M,1.94,0.00,30.18,M,1.86,M,NSC,M,M,M,M,M,M,M,HZ,M,M,M,M,M,M,M,ZBSJ 200300Z VRB01MPS 3000 HZ NSC 16/09 Q1022 BECMG TL0330 2800
ZBTJ,2020-10-20 03:00,117.3462,39.1243,68.00,44.60,42.85,200.00,9.72,0.00,30.18,M,2.17,21.38,NSC,M,M,M,M,M,M,M,HZ,M,M,M,M,M,M,M,ZBTJ 200300Z 20005G11MPS 160V250 3500 HZ NSC 20/07 Q1022 NOSIG
ZYTL,2020-10-20 03:00,121.6333,38.9000,68.00,46.40,45.88,200.00,11.66,0.00,30.27,M,4.35,M,NSC,M,M,M,M,M,M,M,M,M,M,M,M,M,M,M,ZYTL 200300Z 20006MPS 160V250 7000 NSC 20/08 Q1025 NOSIG
ZYTX,2020-10-20 03:00,123.4000,41.8000,68.00,44.60,42.85,210.00,15.55,0.00,30.18,M,3.11,25.27,NSC,M,M,M,M,M,M,M,HZ,M,M,M,M,M,M,M,ZYTX 200300Z 21008G13MPS 170V240 5000 HZ NSC 20/07 Q1022 NOSIG
ZBAD,2020-10-20 03:00,116.4106,39.5092,60.80,46.40,59.01,200.00,3.89,0.00,30.18,M,2.17,M,NSC,M,M,M,M,M,M,M,HZ,M,M,M,M,M,M,M,ZBAD 200300Z 20002MPS 130V230 3500 HZ NSC 16/08 Q1022 NOSIG
ZMUB,2020-10-20 03:30,106.7666,47.8431,23.00,14.00,67.96,340.00,21.38,0.00,29.91,M,4.97,31.10,BKN,M,M,M,3000.00,M,M,M,-SN BLSN,M,M,M,M,M,M,6.72,ZMUB 200330Z 34011G16MPS 8000NW -SN BLSN BKN030 M05/M10 Q1013 NOSIG RMK QFE652.3 64 NW MO
ZBYN,2020-10-20 03:30,112.5500,37.7833,57.20,32.00,38.26,M,1.94,0.00,30.24,M,3.73,M,NSC,M,M,M,M,M,M,M,M,M,M,M,M,M,M,M,ZBYN 200330Z VRB01MPS 6000 NSC 14/00 Q1024 NOSIG
ZGGG,2020-10-20 03:30,113.3008,23.3964,77.00,57.20,50.43,350.00,7.78,0.00,30.03,M,6.21,M,SCT,M,M,M,3300.00,M,M,M,M,M,M,M,M,M,M,M,ZGGG 200330Z 35004MPS 300V030 9999 SCT033 25/14 Q1017 NOSIG
ZBAA,2020-10-20 03:30,116.5870,40.0741,60.80,44.60,55.12,110.00,3.89,0.00,30.18,M,2.30,M,NSC,M,M,M,M,M,M,M,HZ,M,M,M,M,M,M,M,ZBAA 200330Z 11002MPS 050V190 3700 HZ NSC 16/07 Q1022 NOSIG
ZBTJ,2020-10-20 03:30,117.3462,39.1243,68.00,44.60,42.85,200.00,11.66,0.00,30.18,M,2.49,M,NSC,M,M,M,M,M,M,M,HZ,M,M,M,M,M,M,M,ZBTJ 200330Z 20006MPS 4000 HZ NSC 20/07 Q1022 NOSIG
ZYTL,2020-10-20 03:30,121.6333,38.9000,69.80,41.00,35.09,210.00,13.61,0.00,30.27,M,5.59,M,NSC,M,M,M,M,M,M,M,M,M,M,M,M,M,M,M,ZYTL 200330Z 21007MPS 9000 NSC 21/05 Q1025 NOSIG
ZYTX,2020-10-20 03:30,123.4000,41.8000,69.80,44.60,40.29,210.00,15.55,0.00,30.18,M,3.11,M,NSC,M,M,M,M,M,M,M,HZ,M,M,M,M,M,M,M,ZYTX 200330Z 21008MPS 5000 HZ NSC 21/07 Q1022 NOSIG
ZSHC,2020-10-20 03:30,120.1667,30.2333,71.60,53.60,53.03,50.00,7.78,0.00,30.24,M,6.21,M,BKN,M,M,M,4000.00,M,M,M,M,M,M,M,M,M,M,M,ZSHC 200330Z 05004MPS 320V090 9999 BKN040 22/12 Q1024 NOSIG
ZSSS,2020-10-20 03:30,121.3363,31.1979,73.40,51.80,46.71,80.00,7.78,0.00,30.24,M,6.21,M,M,M,M,M,M,M,M,M,M,M,M,M,M,M,M,M,ZSSS 200330Z 08004MPS 030V110 CAVOK 23/11 Q1024 NOSIG
ZSPD,2020-10-20 03:30,121.7667,31.1167,71.60,53.60,53.03,60.00,11.66,0.00,30.24,M,6.21,M,FEW,M,M,M,4000.00,M,M,M,M,M,M,M,M,M,M,M,ZSPD 200330Z 06006MPS 020V090 9999 FEW040 22/12 Q1024 NOSIG
ZWWW,2020-10-20 03:30,87.4742,43.9071,59.00,23.00,24.76,M,1.94,0.00,30.30,M,6.21,M,M,M,M,M,M,M,M,M,M,M,M,M,M,M,M,M,ZWWW 200330Z VRB01MPS CAVOK 15/M05 Q1026 NOSIG
ZBAD,2020-10-20 03:30,116.4106,39.5092,60.80,46.40,59.01,190.00,5.83,0.00,30.18,M,2.17,M,NSC,M,M,M,M,M,M,M,HZ,M,M,M,M,M,M,M,ZBAD 200330Z 19003MPS 150V240 3500 HZ NSC 16/08 Q1022 NOSIG
ZWSH,2020-10-20 04:00,75.9833,39.4667,60.80,19.40,19.94,M,5.83,0.00,30.39,M,6.21,M,M,M,M,M,M,M,M,M,M,M,M,M,M,M,M,M,ZWSH 200400Z VRB03MPS CAVOK 16/M07 Q1029 NOSIG
ZGHA,2020-10-20 04:00,112.8667,28.2333,68.00,59.00,72.92,M,3.89,0.00,30.21,M,4.35,M,OVC,M,M,M,5000.00,M,M,M,M,M,M,M,M,M,M,M,ZGHA 200400Z VRB02MPS 7000 OVC050 20/15 Q1023 NOSIG
ZBYN,2020-10-20 04:00,112.5500,37.7833,57.20,32.00,38.26,190.00,3.89,0.00,30.21,M,3.73,M,NSC,M,M,M,M,M,M,M,M,M,M,M,M,M,M,M,ZBYN 200400Z 19002MPS 110V240 6000 NSC 14/M00 Q1023 NOSIG
ZGGG,2020-10-20 04:00,113.3008,23.3964,78.80,57.20,47.52,10.00,7.78,0.00,30.03,M,6.21,M,SCT,M,M,M,3300.00,M,M,M,M,M,M,M,M,M,M,M,ZGGG 200400Z 01004MPS 340V040 9999 SCT033 26/14 Q1017 NOSIG
ZGKL,2020-10-20 04:00,110.3000,25.3333,71.60,55.40,56.63,50.00,11.66,0.00,30.18,M,6.21,M,FEW,BKN,M,M,2600.00,7300.00,M,M,M,M,M,M,M,M,M,M,ZGKL 200400Z 05006MPS 9999 FEW026 BKN073 22/13 Q1022 NOSIG
ZGOW,2020-10-20 04:00,116.6833,23.4000,82.40,64.40,54.55,M,3.89,0.00,29.97,M,6.21,M,FEW,M,M,M,3300.00,M,M,M,M,M,M,M,M,M,M,83.98,ZGOW 200400Z VRB02MPS 9999 FEW033 28/18 Q1015 NOSIG
ZHHH,2020-10-20 04:00,114.1300,30.6200,64.40,57.20,77.45,280.00,3.89,0.00,30.21,M,3.73,M,NSC,M,M,M,M,M,M,M,M,M,M,M,M,M,M,M,ZHHH 200400Z 28002MPS 240V330 6000 NSC 18/14 Q1023 NOSIG
ZJHK,2020-10-20 04:00,110.4590,19.9349,77.00,69.80,78.48,50.00,15.55,0.00,29.97,M,6.21,M,BKN,OVC,M,M,2000.00,3000.00,M,M,M,M,M,M,M,M,M,M,ZJHK 200400Z 05008MPS 9999 BKN020 OVC030 25/21 Q1015 NOSIG
ZJSY,2020-10-20 04:00,109.4123,18.3029,84.20,73.40,70.08,80.00,13.61,0.00,29.88,M,6.21,M,SCT,SCT,M,M,2600.00,3000.00,M,M,M,M,M,M,M,M,M,90.94,ZJSY 200400Z 08007MPS 9999 SCT026 SCT030 29/23 Q1012 NOSIG
ZUGY,2020-10-20 04:00,106.7333,26.5833,46.40,44.60,93.40,340.00,5.83,0.00,30.33,M,3.11,M,SCT,BKN,OVC,M,500.00,1500.00,3600.00,M,-RA BR,M,M,M,M,M,M,42.97,ZUGY 200400Z 34003MPS 300V010 5000 -RA BR SCT005 BKN015 OVC036 08/07 Q1027 NOSIG
ZGSZ,2020-10-20 04:00,114.1000,22.5500,78.80,62.60,57.60,30.00,9.72,0.00,30.00,M,6.21,M,BKN,M,M,M,3600.00,M,M,M,M,M,M,M,M,M,M,M,ZGSZ 200400Z 03005MPS 360V070 9999 BKN036 26/17 Q1016 NOSIG
ZHCC,2020-10-20 04:00,113.6500,34.7167,66.20,48.20,52.25,190.00,5.83,0.00,30.24,M,3.73,M,NSC,M,M,M,M,M,M,M,M,M,M,M,M,M,M,M,ZHCC 200400Z 19003MPS 130V240 6000 NSC 19/09 Q1024 NOSIG
ZGNN,2020-10-20 04:00,108.2167,22.6333,71.60,57.20,60.44,350.00,7.78,0.00,30.09,M,6.21,M,M,M,M,M,M,M,M,M,M,M,M,M,M,M,M,M,ZGNN 200400Z 35004MPS 300V030 CAVOK 22/14 Q1019 NOSIG
ZBAA,2020-10-20 04:00,116.5870,40.0741,62.60,44.60,51.72,160.00,5.83,0.00,30.15,M,2.30,M,NSC,M,M,M,M,M,M,M,HZ,M,M,M,M,M,M,M,ZBAA 200400Z 16003MPS 120V200 3700 HZ NSC 17/07 Q1021 NOSIG
ZBHH,2020-10-20 04:00,111.6833,40.8167,55.40,23.00,28.20,240.00,5.83,0.00,30.12,M,6.21,M,M,M,M,M,M,M,M,M,M,M,M,M,M,M,M,M,ZBHH 200400Z 24003MPS 170V280 CAVOK 13/M05 Q1020 BECMG TL0530 25008MPS
ZBSJ,2020-10-20 04:00,114.6973,38.2807,62.60,48.20,59.26,120.00,3.89,0.00,30.15,M,1.74,M,NSC,M,M,M,M,M,M,M,HZ,M,M,M,M,M,M,M,ZBSJ 200400Z 12002MPS 090V150 2800 HZ NSC 17/09 Q1021 BECMG TL0430 3000
ZBTJ,2020-10-20 04:00,117.3462,39.1243,68.00,44.60,42.85,190.00,11.66,0.00,30.18,M,3.11,M,NSC,M,M,M,M,M,M,M,HZ,M,M,M,M,M,M,M,ZBTJ 200400Z 19006MPS 5000 HZ NSC 20/07 Q1022 NOSIG
ZYTL,2020-10-20 04:00,121.6333,38.9000,69.80,42.80,37.61,230.00,11.66,0.00,30.27,M,5.59,M,NSC,M,M,M,M,M,M,M,M,M,M,M,M,M,M,M,ZYTL 200400Z 23006MPS 200V260 9000 NSC 21/06 Q1025 NOSIG
ZYTX,2020-10-20 04:00,123.4000,41.8000,71.60,44.60,37.89,230.00,19.44,0.00,30.15,M,3.11,M,NSC,M,M,M,M,M,M,M,HZ,M,M,M,M,M,M,M,ZYTX 200400Z 23010MPS 200V260 5000 HZ NSC 22/07 Q1021 NOSIG
ZLLL,2020-10-20 04:00,103.7500,36.0200,51.80,15.80,23.65,180.00,7.78,0.00,30.45,M,6.21,M,M,M,M,M,M,M,M,M,M,M,M,M,M,M,M,M,ZLLL 200400Z 18004MPS 150V220 CAVOK 11/M09 Q1031 NOSIG
ZLXY,2020-10-20 04:00,108.7516,34.4471,62.60,51.80,67.75,230.00,5.83,0.00,30.27,M,6.21,M,M,M,M,M,M,M,M,M,M,M,M,M,M,M,M,M,ZLXY 200400Z 23003MPS 200V260 CAVOK 17/11 Q1025 NOSIG
ZSAM,2020-10-20 04:00,118.0833,24.4833,77.00,60.80,57.36,30.00,13.61,0.00,30.00,M,6.21,M,BKN,M,M,M,3600.00,M,M,M,M,M,M,M,M,M,M,M,ZSAM 200400Z 03007MPS 9999 BKN036 25/16 Q1016 NOSIG
ZPPP,2020-10-20 04:00,102.6833,25.0167,51.80,51.80,100.00,10.00,5.83,0.00,30.33,M,3.11,M,SCT,SCT,OVC,M,300.00,1600.00,3000.00,M,-RA BR,M,M,M,M,M,M,M,ZPPP 200400Z 01003MPS 290V060 5000 -RA BR SCT003 SCT016 OVC030 11/11 Q1027 NOSIG
ZSFZ,2020-10-20 04:00,119.2833,26.0833,71.60,59.00,64.48,30.00,21.38,0.00,30.06,M,6.21,M,BKN,M,M,M,2700.00,M,M,M,M,M,M,M,M,M,M,M,ZSFZ 200400Z 03011MPS 9999 BKN027 22/15 Q1018 NOSIG
ZSHC,2020-10-20 04:00,120.1667,30.2333,71.60,53.60,53.03,50.00,7.78,0.00,30.21,M,6.21,17.49,BKN,M,M,M,4000.00,M,M,M,M,M,M,M,M,M,M,M,ZSHC 200400Z 05004G09MPS 360V100 9999 BKN040 22/12 Q1023 NOSIG
ZSNB,2020-10-20 04:00,121.4619,29.8267,73.40,59.00,60.67,20.00,9.72,0.00,30.21,M,6.21,M,BKN,M,M,M,3000.00,M,M,M,M,M,M,M,M,M,M,M,ZSNB 200400Z 02005MPS 9999 BKN030 23/15 Q1023 NOSIG
ZSOF,2020-10-20 04:00,117.2984,31.7800,64.40,50.00,59.50,110.00,7.78,0.00,30.21,M,6.21,M,M,M,M,M,M,M,M,M,M,M,M,M,M,M,M,M,ZSOF 200400Z 11004MPS 080V140 CAVOK 18/10 Q1023 NOSIG
ZSQD,2020-10-20 04:00,120.3333,36.0667,69.80,48.20,46.16,180.00,9.72,0.00,30.27,M,6.21,M,M,M,M,M,M,M,M,M,M,M,M,M,M,M,M,M,ZSQD 200400Z 18005MPS CAVOK 21/09 Q1025 NOSIG
ZSSS,2020-10-20 04:00,121.3363,31.1979,73.40,53.60,49.90,30.00,9.72,0.00,30.24,M,6.21,M,M,M,M,M,M,M,M,M,M,M,M,M,M,M,M,M,ZSSS 200400Z 03005MPS 360V070 CAVOK 23/12 Q1024 NOSIG
ZUCK,2020-10-20 04:00,106.4800,29.5200,59.00,53.60,82.25,10.00,7.78,0.00,30.33,M,6.21,M,FEW,SCT,M,M,1700.00,4300.00,M,M,M,M,M,M,M,M,M,M,ZUCK 200400Z 01004MPS 9999 FEW017 SCT043 15/12 Q1027 NOSIG
ZSNJ,2020-10-20 04:00,118.8667,31.7333,69.80,50.00,49.37,90.00,7.78,0.00,30.24,M,6.21,M,M,M,M,M,M,M,M,M,M,M,M,M,M,M,M,M,ZSNJ 200400Z 09004MPS 060V120 CAVOK 21/10 Q1024 NOSIG
ZSPD,2020-10-20 04:00,121.7667,31.1167,71.60,53.60,53.03,50.00,9.72,0.00,30.24,M,6.21,M,SCT,M,M,M,4000.00,M,M,M,M,M,M,M,M,M,M,M,ZSPD 200400Z 05005MPS 010V090 9999 SCT040 22/12 Q1024 NOSIG
ZUUU,2020-10-20 04:00,104.0167,30.6667,59.00,57.20,93.74,360.00,3.89,0.00,30.36,M,6.21,M,SCT,BKN,M,M,1200.00,3000.00,M,M,-RA,M,M,M,M,M,M,M,ZUUU 200400Z 36002MPS 320V040 9999 -RA SCT012 BKN030 15/14 Q1028 NOSIG
ZWWW,2020-10-20 04:00,87.4742,43.9071,60.80,19.40,19.94,M,1.94,0.00,30.27,M,6.21,M,M,M,M,M,M,M,M,M,M,M,M,M,M,M,M,M,ZWWW 200400Z VRB01MPS CAVOK 16/M07 Q1025 NOSIG
ZYCC,2020-10-20 04:00,125.2167,43.9000,66.20,39.20,37.03,200.00,15.55,0.00,30.09,M,3.11,M,NSC,M,M,M,M,M,M,M,HZ,M,M,M,M,M,M,M,ZYCC 200400Z 20008MPS 160V240 5000 HZ NSC 19/04 Q1019 NOSIG
ZYHB,2020-10-20 04:00,126.5800,46.0200,66.20,42.80,42.57,190.00,17.49,0.00,30.03,M,3.73,M,NSC,M,M,M,M,M,M,M,M,M,M,M,M,M,M,M,ZYHB 200400Z 19009MPS 6000 NSC 19/06 Q1017 NOSIG
ZBAD,2020-10-20 04:00,116.4106,39.5092,62.60,46.40,55.37,220.00,5.83,0.00,30.15,M,2.17,M,NSC,M,M,M,M,M,M,M,HZ,M,M,M,M,M,M,M,ZBAD 200400Z 22003MPS 170V250 3500 HZ NSC 17/08 Q1021 NOSIG
ZMUB,2020-10-20 04:00,106.7666,47.8431,24.80,14.00,63.03,340.00,23.33,0.00,29.91,M,4.97,M,BKN,M,M,M,3000.00,M,M,M,-SN BLSN,M,M,M,M,M,M,8.54,ZMUB 200400Z 34012MPS 8000NW -SN BLSN BKN030 M04/M10 Q1013 NOSIG RMK QFE653.2 62 NW MO
ZMUB,2020-10-20 04:30,106.7666,47.8431,24.80,12.20,58.22,350.00,19.44,0.00,29.94,M,4.97,M,BKN,M,M,M,3000.00,M,M,M,M,M,M,M,M,M,M,9.76,ZMUB 200430Z 35010MPS 310V010 8000NW BKN030 M04/M11 Q1014 NOSIG RMK QFE653.5 54 NW MO
ZBYN,2020-10-20 04:30,112.5500,37.7833,59.00,32.00,35.87,180.00,3.89,0.00,30.21,M,3.11,M,NSC,M,M,M,M,M,M,M,HZ,M,M,M,M,M,M,M,ZBYN 200430Z 18002MPS 150V220 5000 HZ NSC 15/00 Q1023 NOSIG
ZGGG,2020-10-20 04:30,113.3008,23.3964,78.80,57.20,47.52,10.00,9.72,0.00,30.00,M,6.21,M,SCT,M,M,M,3300.00,M,M,M,M,M,M,M,M,M,M,M,ZGGG 200430Z 01005MPS 310V060 9999 SCT033 26/14 Q1016 NOSIG
ZBAA,2020-10-20 04:30,116.5870,40.0741,62.60,42.80,48.28,150.00,5.83,0.00,30.15,M,2.30,M,NSC,M,M,M,M,M,M,M,HZ,M,M,M,M,M,M,M,ZBAA 200430Z 15003MPS 110V190 3700 HZ NSC 17/06 Q1021 NOSIG
ZBTJ,2020-10-20 04:30,117.3462,39.1243,69.80,46.40,43.13,190.00,11.66,0.00,30.15,M,3.11,M,NSC,M,M,M,M,M,M,M,HZ,M,M,M,M,M,M,M,ZBTJ 200430Z 19006MPS 160V220 5000 HZ NSC 21/08 Q1021 NOSIG
ZYTL,2020-10-20 04:30,121.6333,38.9000,69.80,41.00,35.09,230.00,11.66,0.00,30.24,M,5.59,M,NSC,M,M,M,M,M,M,M,M,M,M,M,M,M,M,M,ZYTL 200430Z 23006MPS 180V250 9000 NSC 21/05 Q1024 NOSIG
ZYTX,2020-10-20 04:30,123.4000,41.8000,71.60,42.80,35.37,220.00,15.55,0.00,30.15,M,3.73,M,NSC,M,M,M,M,M,M,M,M,M,M,M,M,M,M,M,ZYTX 200430Z 22008MPS 6000 NSC 22/06 Q1021 NOSIG
ZSHC,2020-10-20 04:30,120.1667,30.2333,71.60,55.40,56.63,90.00,7.78,0.00,30.18,M,6.21,M,BKN,M,M,M,4000.00,M,M,M,M,M,M,M,M,M,M,M,ZSHC 200430Z 09004MPS 060V160 9999 BKN040 22/13 Q1022 NOSIG
ZSSS,2020-10-20 04:30,121.3363,31.1979,71.60,51.80,49.64,50.00,9.72,0.00,30.21,M,6.21,M,M,M,M,M,M,M,M,M,M,M,M,M,M,M,M,M,ZSSS 200430Z 05005MPS 010V080 CAVOK 22/11 Q1023 NOSIG
ZSPD,2020-10-20 04:30,121.7667,31.1167,71.60,53.60,53.03,50.00,11.66,0.00,30.21,M,6.21,M,SCT,M,M,M,4000.00,M,M,M,M,M,M,M,M,M,M,M,ZSPD 200430Z 05006MPS 360V090 9999 SCT040 22/12 Q1023 NOSIG
ZWWW,2020-10-20 04:30,87.4742,43.9071,62.60,23.00,21.79,M,1.94,0.00,30.24,M,6.21,M,M,M,M,M,M,M,M,M,M,M,M,M,M,M,M,M,ZWWW 200430Z VRB01MPS CAVOK 17/M05 Q1024 NOSIG
ZBAD,2020-10-20 04:30,116.4106,39.5092,62.60,46.40,55.37,210.00,5.83,0.00,30.12,M,2.17,M,NSC,M,M,M,M,M,M,M,HZ,M,M,M,M,M,M,M,ZBAD 200430Z 21003MPS 180V240 3500 HZ NSC 17/08 Q1020 NOSIG
ZGHA,2020-10-20 05:00,112.8667,28.2333,68.00,59.00,72.92,360.00,5.83,0.00,30.18,M,5.59,M,OVC,M,M,M,5000.00,M,M,M,M,M,M,M,M,M,M,M,ZGHA 200500Z 36003MPS 9000 OVC050 20/15 Q1022 NOSIG
ZBYN,2020-10-20 05:00,112.5500,37.7833,59.00,32.00,35.87,200.00,3.89,0.00,30.18,M,3.11,M,NSC,M,M,M,M,M,M,M,HZ,M,M,M,M,M,M,M,ZBYN 200500Z 20002MPS 130V240 5000 HZ NSC 15/00 Q1022 NOSIG
ZGGG,2020-10-20 05:00,113.3008,23.3964,80.60,59.00,47.79,350.00,9.72,0.00,30.00,M,6.21,M,SCT,M,M,M,3300.00,M,M,M,M,M,M,M,M,M,M,81.11,ZGGG 200500Z 35005MPS 320V030 9999 SCT033 27/15 Q1016 NOSIG
ZGKL,2020-10-20 05:00,110.3000,25.3333,71.60,55.40,56.63,50.00,9.72,0.00,30.15,M,6.21,M,SCT,BKN,M,M,3600.00,7300.00,M,M,M,M,M,M,M,M,M,M,ZGKL 200500Z 05005MPS 010V090 9999 SCT036 BKN073 22/13 Q1021 NOSIG
ZGOW,2020-10-20 05:00,116.6833,23.4000,84.20,64.40,51.47,M,5.83,0.00,29.94,M,6.21,M,FEW,M,M,M,4000.00,M,M,M,M,M,M,M,M,M,M,85.71,ZGOW 200500Z VRB03MPS 9999 FEW040 29/18 Q1014 NOSIG
ZHHH,2020-10-20 05:00,114.1300,30.6200,64.40,55.40,72.56,M,1.94,0.00,30.18,M,3.73,M,SCT,M,M,M,4000.00,M,M,M,-RA,M,M,M,M,M,M,M,ZHHH 200500Z VRB01MPS 6000 -RA SCT040 18/13 Q1022 NOSIG
ZJHK,2020-10-20 05:00,110.4590,19.9349,77.00,69.80,78.48,40.00,15.55,0.00,29.94,M,6.21,M,BKN,OVC,M,M,2000.00,3000.00,M,M,M,M,M,M,M,M,M,M,ZJHK 200500Z 04008MPS 9999 BKN020 OVC030 25/21 Q1014 NOSIG
ZJSY,2020-10-20 05:00,109.4123,18.3029,84.20,73.40,70.08,80.00,15.55,0.00,29.85,M,6.21,M,BKN,M,M,M,2600.00,M,M,M,M,M,M,M,M,M,M,90.94,ZJSY 200500Z 08008MPS 040V100 9999 BKN026 29/23 Q1011 NOSIG
ZUGY,2020-10-20 05:00,106.7333,26.5833,48.20,46.40,93.45,350.00,7.78,0.00,30.33,M,4.35,M,SCT,BKN,OVC,M,500.00,1500.00,3600.00,M,-RA,M,M,M,M,M,M,44.17,ZUGY 200500Z 35004MPS 7000 -RA SCT005 BKN015 OVC036 09/08 Q1027 NOSIG
ZGSZ,2020-10-20 05:00,114.1000,22.5500,80.60,62.60,54.30,360.00,9.72,0.00,29.97,M,6.21,M,FEW,M,M,M,3600.00,M,M,M,M,M,M,M,M,M,M,81.84,ZGSZ 200500Z 36005MPS 340V040 9999 FEW036 27/17 Q1015 NOSIG
ZHCC,2020-10-20 05:00,113.6500,34.7167,66.20,48.20,52.25,180.00,5.83,0.00,30.21,M,3.73,M,NSC,M,M,M,M,M,M,M,M,M,M,M,M,M,M,M,ZHCC 200500Z 18003MPS 110V230 6000 NSC 19/09 Q1023 NOSIG
ZGNN,2020-10-20 05:00,108.2167,22.6333,71.60,57.20,60.44,340.00,7.78,0.00,30.06,M,6.21,M,M,M,M,M,M,M,M,M,M,M,M,M,M,M,M,M,ZGNN 200500Z 34004MPS 300V020 CAVOK 22/14 Q1018 NOSIG
ZBAA,2020-10-20 05:00,116.5870,40.0741,62.60,44.60,51.72,140.00,5.83,0.00,30.12,M,2.30,M,NSC,M,M,M,M,M,M,M,HZ,M,M,M,M,M,M,M,ZBAA 200500Z 14003MPS 100V160 3700 HZ NSC 17/07 Q1020 NOSIG
ZBHH,2020-10-20 05:00,111.6833,40.8167,59.00,21.20,22.95,250.00,9.72,0.00,30.09,M,6.21,M,M,M,M,M,M,M,M,M,M,M,M,M,M,M,M,M,ZBHH 200500Z 25005MPS 210V280 CAVOK 15/M06 Q1019 BECMG TL0630 26010MPS
ZBSJ,2020-10-20 05:00,114.6973,38.2807,64.40,48.20,55.63,140.00,3.89,0.00,30.09,M,1.86,M,NSC,M,M,M,M,M,M,M,HZ,M,M,M,M,M,M,M,ZBSJ 200500Z 14002MPS 080V180 3000 HZ NSC 18/09 Q1019 NOSIG
ZBTJ,2020-10-20 05:00,117.3462,39.1243,68.00,42.80,40.00,220.00,9.72,0.00,30.12,M,3.11,M,NSC,M,M,M,M,M,M,M,HZ,M,M,M,M,M,M,M,ZBTJ 200500Z 22005MPS 190V250 5000 HZ NSC 20/06 Q1020 NOSIG
ZYTL,2020-10-20 05:00,121.6333,38.9000,69.80,35.60,28.39,220.00,11.66,0.00,30.21,M,6.21,M,M,M,M,M,M,M,M,M,M,M,M,M,M,M,M,M,ZYTL 200500Z 22006MPS CAVOK 21/02 Q1023 NOSIG
ZYTX,2020-10-20 05:00,123.4000,41.8000,71.60,41.00,33.00,230.00,17.49,0.00,30.15,M,3.73,M,NSC,M,M,M,M,M,M,M,M,M,M,M,M,M,M,M,ZYTX 200500Z 23009MPS 6000 NSC 22/05 Q1021 NOSIG
ZLLL,2020-10-20 05:00,103.7500,36.0200,51.80,12.20,20.20,150.00,5.83,0.00,30.42,M,6.21,M,M,M,M,M,M,M,M,M,M,M,M,M,M,M,M,M,ZLLL 200500Z 15003MPS 020V180 CAVOK 11/M11 Q1030 NOSIG
ZLXY,2020-10-20 05:00,108.7516,34.4471,66.20,50.00,55.88,230.00,7.78,0.00,30.24,M,6.21,M,M,M,M,M,M,M,M,M,M,M,M,M,M,M,M,M,ZLXY 200500Z 23004MPS CAVOK 19/10 Q1024 NOSIG
ZSAM,2020-10-20 05:00,118.0833,24.4833,78.80,62.60,57.60,30.00,15.55,0.00,29.97,M,6.21,M,BKN,M,M,M,3600.00,M,M,M,M,M,M,M,M,M,M,M,ZSAM 200500Z 03008MPS 9999 BKN036 26/17 Q1015 NOSIG
ZPPP,2020-10-20 05:00,102.6833,25.0167,53.60,53.60,100.00,360.00,3.89,0.00,30.33,M,3.11,M,SCT,SCT,OVC,M,300.00,1600.00,3000.00,M,-RA BR,M,M,M,M,M,M,M,ZPPP 200500Z 36002MPS 5000 -RA BR SCT003 SCT016 OVC030 12/12 Q1027 NOSIG
ZSFZ,2020-10-20 05:00,119.2833,26.0833,73.40,59.00,60.67,30.00,19.44,0.00,30.06,M,6.21,29.16,OVC,M,M,M,2600.00,M,M,M,M,M,M,M,M,M,M,M,ZSFZ 200500Z 03010G15MPS 9999 OVC026 23/15 Q1018 NOSIG
ZSHC,2020-10-20 05:00,120.1667,30.2333,73.40,55.40,53.29,90.00,7.78,0.00,30.18,M,6.21,M,BKN,M,M,M,4000.00,M,M,M,M,M,M,M,M,M,M,M,ZSHC 200500Z 09004MPS 060V130 9999 BKN040 23/13 Q1022 NOSIG
ZSNB,2020-10-20 05:00,121.4619,29.8267,73.40,55.40,53.29,20.00,9.72,0.00,30.18,M,6.21,M,SCT,M,M,M,3000.00,M,M,M,M,M,M,M,M,M,M,M,ZSNB 200500Z 02005MPS 9999 SCT030 23/13 Q1022 NOSIG
ZSOF,2020-10-20 05:00,117.2984,31.7800,66.20,50.00,55.88,110.00,5.83,0.00,30.21,M,6.21,M,M,M,M,M,M,M,M,M,M,M,M,M,M,M,M,M,ZSOF 200500Z 11003MPS 080V160 CAVOK 19/10 Q1023 NOSIG
ZSQD,2020-10-20 05:00,120.3333,36.0667,69.80,48.20,46.16,160.00,11.66,0.00,30.24,M,6.21,M,M,M,M,M,M,M,M,M,M,M,M,M,M,M,M,M,ZSQD 200500Z 16006MPS CAVOK 21/09 Q1024 NOSIG
ZSSS,2020-10-20 05:00,121.3363,31.1979,73.40,51.80,46.71,50.00,7.78,0.00,30.18,M,6.21,M,M,M,M,M,M,M,M,M,M,M,M,M,M,M,M,M,ZSSS 200500Z 05004MPS 340V090 CAVOK 23/11 Q1022 NOSIG
ZUCK,2020-10-20 05:00,106.4800,29.5200,60.80,53.60,77.14,40.00,3.89,0.00,30.30,M,6.21,M,FEW,SCT,M,M,1500.00,4300.00,M,M,M,M,M,M,M,M,M,M,ZUCK 200500Z 04002MPS 010V070 9999 FEW015 SCT043 16/12 Q1026 NOSIG
ZSNJ,2020-10-20 05:00,118.8667,31.7333,69.80,50.00,49.37,80.00,7.78,0.00,30.21,M,6.21,M,SCT,M,M,M,4000.00,M,M,M,M,M,M,M,M,M,M,M,ZSNJ 200500Z 08004MPS 040V110 9999 SCT040 21/10 Q1023 NOSIG
ZSPD,2020-10-20 05:00,121.7667,31.1167,71.60,51.80,49.64,40.00,11.66,0.00,30.21,M,6.21,M,SCT,M,M,M,4000.00,M,M,M,M,M,M,M,M,M,M,M,ZSPD 200500Z 04006MPS 360V080 9999 SCT040 22/11 Q1023 NOSIG
ZUUU,2020-10-20 05:00,104.0167,30.6667,60.80,57.20,87.92,360.00,3.89,0.00,30.36,M,6.21,M,SCT,BKN,M,M,1200.00,3000.00,M,M,-RA,M,M,M,M,M,M,M,ZUUU 200500Z 36002MPS 320V040 9999 -RA SCT012 BKN030 16/14 Q1028 NOSIG
ZWWW,2020-10-20 05:00,87.4742,43.9071,62.60,26.60,25.32,10.00,5.83,0.00,30.24,M,6.21,M,M,M,M,M,M,M,M,M,M,M,M,M,M,M,M,M,ZWWW 200500Z 01003MPS 340V050 CAVOK 17/M03 Q1024 NOSIG
ZYCC,2020-10-20 05:00,125.2167,43.9000,68.00,37.40,32.43,220.00,17.49,0.00,30.06,M,3.11,M,NSC,M,M,M,M,M,M,M,HZ,M,M,M,M,M,M,M,ZYCC 200500Z 22009MPS 5000 HZ NSC 20/03 Q1018 NOSIG
ZYHB,2020-10-20 05:00,126.5800,46.0200,66.20,42.80,42.57,190.00,17.49,0.00,30.00,M,4.35,M,NSC,M,M,M,M,M,M,M,M,M,M,M,M,M,M,M,ZYHB 200500Z 19009MPS 7000 NSC 19/06 Q1016 NOSIG
ZWSH,2020-10-20 05:00,75.9833,39.4667,62.60,19.40,18.71,60.00,5.83,0.00,30.36,M,6.21,M,M,M,M,M,M,M,M,M,M,M,M,M,M,M,M,M,ZWSH 200500Z 06003MPS 010V110 CAVOK 17/M07 Q1028 NOSIG
ZBAD,2020-10-20 05:00,116.4106,39.5092,64.40,48.20,55.63,200.00,5.83,0.00,30.12,M,2.17,M,NSC,M,M,M,M,M,M,M,HZ,M,M,M,M,M,M,M,ZBAD 200500Z 20003MPS 140V240 3500 HZ NSC 18/09 Q1020 NOSIG
ZMUB,2020-10-20 05:00,106.7666,47.8431,26.60,12.20,54.03,350.00,19.44,0.00,29.97,M,6.21,M,BKN,M,M,M,3000.00,M,M,M,M,M,M,M,M,M,M,12.15,ZMUB 200500Z 35010MPS 320V020 9999 BKN030 M03/M11 Q1015 NOSIG RMK QFE653.8 51 MOP
ZMUB,2020-10-20 05:30,106.7666,47.8431,24.80,10.40,53.75,350.00,17.49,0.00,29.97,M,6.21,M,BKN,M,M,M,3000.00,M,M,M,M,M,M,M,M,M,M,10.46,ZMUB 200530Z 35009MPS 9999 BKN030 M04/M12 Q1015 NOSIG RMK QFE654.1 51 MOP
ZBYN,2020-10-20 05:30,112.5500,37.7833,60.80,32.00,33.64,230.00,3.89,0.00,30.18,M,3.11,M,NSC,M,M,M,M,M,M,M,HZ,M,M,M,M,M,M,M,ZBYN 200530Z 23002MPS 190V260 5000 HZ NSC 16/00 Q1022 NOSIG
ZGGG,2020-10-20 05:30,113.3008,23.3964,80.60,57.20,44.80,350.00,9.72,0.00,30.00,M,6.21,19.44,BKN,M,M,M,3600.00,M,M,M,M,M,M,M,M,M,M,80.81,ZGGG 200530Z 35005G10MPS 320V020 9999 BKN036 27/14 Q1016 NOSIG
ZBAA,2020-10-20 05:30,116.5870,40.0741,60.80,44.60,55.12,150.00,5.83,0.00,30.09,M,2.17,M,NSC,M,M,M,M,M,M,M,HZ,M,M,M,M,M,M,M,ZBAA 200530Z 15003MPS 3500 HZ NSC 16/07 Q1019 NOSIG
ZBTJ,2020-10-20 05:30,117.3462,39.1243,68.00,42.80,40.00,210.00,9.72,0.00,30.12,M,3.11,M,NSC,M,M,M,M,M,M,M,HZ,M,M,M,M,M,M,M,ZBTJ 200530Z 21005MPS 170V240 5000 HZ NSC 20/06 Q1020 NOSIG
ZYTL,2020-10-20 05:30,121.6333,38.9000,69.80,35.60,28.39,230.00,11.66,0.00,30.21,M,6.21,M,M,M,M,M,M,M,M,M,M,M,M,M,M,M,M,M,ZYTL 200530Z 23006MPS CAVOK 21/02 Q1023 NOSIG
ZYTX,2020-10-20 05:30,123.4000,41.8000,71.60,41.00,33.00,230.00,17.49,0.00,30.12,M,3.73,M,NSC,M,M,M,M,M,M,M,M,M,M,M,M,M,M,M,ZYTX 200530Z 23009MPS 6000 NSC 22/05 Q1020 NOSIG
ZSHC,2020-10-20 05:30,120.1667,30.2333,71.60,55.40,56.63,90.00,7.78,0.00,30.15,M,6.21,M,BKN,M,M,M,4000.00,M,M,M,M,M,M,M,M,M,M,M,ZSHC 200530Z 09004MPS 040V130 9999 BKN040 22/13 Q1021 NOSIG
ZSSS,2020-10-20 05:30,121.3363,31.1979,73.40,50.00,43.69,60.00,9.72,0.00,30.18,M,6.21,M,M,M,M,M,M,M,M,M,M,M,M,M,M,M,M,M,ZSSS 200530Z 06005MPS 030V090 CAVOK 23/10 Q1022 NOSIG
ZSPD,2020-10-20 05:30,121.7667,31.1167,71.60,53.60,53.03,70.00,9.72,0.00,30.18,M,6.21,M,SCT,M,M,M,4000.00,M,M,M,M,M,M,M,M,M,M,M,ZSPD 200530Z 07005MPS 010V100 9999 SCT040 22/12 Q1022 NOSIG
ZWWW,2020-10-20 05:30,87.4742,43.9071,60.80,26.60,26.98,20.00,5.83,0.00,30.24,M,6.21,M,M,M,M,M,M,M,M,M,M,M,M,M,M,M,M,M,ZWWW 200530Z 02003MPS CAVOK 16/M03 Q1024 NOSIG
ZBAD,2020-10-20 05:30,116.4106,39.5092,64.40,48.20,55.63,180.00,5.83,0.00,30.09,M,2.17,M,NSC,M,M,M,M,M,M,M,HZ,M,M,M,M,M,M,M,ZBAD 200530Z 18003MPS 3500 HZ NSC 18/09 Q1019 NOSIG
ZMUB,2020-10-20 06:00,106.7666,47.8431,24.80,12.20,58.22,350.00,15.55,0.00,29.97,M,4.97,M,BKN,M,M,M,3000.00,M,M,M,-SN BLSN,M,M,M,M,M,M,11.22,ZMUB 200600Z 35008MPS 320V030 8000NW -SN BLSN BKN030 M04/M11 Q1015 NOSIG RMK QFE654.1 51 NW MO
ZGHA,2020-10-20 06:00,112.8667,28.2333,71.60,59.00,64.48,340.00,7.78,0.00,30.15,M,5.59,M,NSC,M,M,M,M,M,M,M,M,M,M,M,M,M,M,M,ZGHA 200600Z 34004MPS 310V010 9000 NSC 22/15 Q1021 NOSIG
ZBYN,2020-10-20 06:00,112.5500,37.7833,60.80,33.80,36.16,220.00,3.89,0.00,30.15,M,3.11,M,NSC,M,M,M,M,M,M,M,HZ,M,M,M,M,M,M,M,ZBYN 200600Z 22002MPS 170V250 5000 HZ NSC 16/01 Q1021 NOSIG
ZGGG,2020-10-20 06:00,113.3008,23.3964,80.60,57.20,44.80,340.00,11.66,0.00,29.97,M,6.21,M,BKN,M,M,M,3600.00,M,M,M,M,M,M,M,M,M,M,80.81,ZGGG 200600Z 34006MPS 320V030 9999 BKN036 27/14 Q1015 NOSIG
ZGKL,2020-10-20 06:00,110.3000,25.3333,71.60,55.40,56.63,50.00,7.78,0.00,30.12,M,6.21,M,SCT,M,M,M,3600.00,M,M,M,M,M,M,M,M,M,M,M,ZGKL 200600Z 05004MPS 020V090 9999 SCT036 22/13 Q1020 NOSIG
ZGOW,2020-10-20 06:00,116.6833,23.4000,84.20,64.40,51.47,10.00,5.83,0.00,29.91,M,6.21,M,SCT,M,M,M,5000.00,M,M,M,M,M,M,M,M,M,M,85.71,ZGOW 200600Z 01003MPS 320V070 9999 SCT050 29/18 Q1013 NOSIG
ZHHH,2020-10-20 06:00,114.1300,30.6200,64.40,57.20,77.45,M,3.89,0.00,30.18,M,3.73,M,SCT,M,M,M,4000.00,M,M,M,-RA,M,M,M,M,M,M,M,ZHHH 200600Z VRB02MPS 6000 -RA SCT040 18/14 Q1022 NOSIG
ZJHK,2020-10-20 06:00,110.4590,19.9349,80.60,71.60,74.11,60.00,17.49,0.00,29.91,M,6.21,M,SCT,M,M,M,2000.00,M,M,M,M,M,M,M,M,M,M,84.57,ZJHK 200600Z 06009MPS 9999 SCT020 27/22 Q1013 NOSIG
ZJSY,2020-10-20 06:00,109.4123,18.3029,86.00,73.40,66.15,90.00,17.49,0.00,29.83,M,6.21,M,BKN,M,M,M,3000.00,M,M,M,M,M,M,M,M,M,M,93.45,ZJSY 200600Z 09009MPS 9999 BKN030 30/23 Q1010 NOSIG
ZUGY,2020-10-20 06:00,106.7333,26.5833,50.00,48.20,93.50,10.00,7.78,0.00,30.30,M,5.59,M,SCT,BKN,OVC,M,500.00,1500.00,3600.00,M,-RA,M,M,M,M,M,M,M,ZUGY 200600Z 01004MPS 340V040 9000 -RA SCT005 BKN015 OVC036 10/09 Q1026 NOSIG
ZGSZ,2020-10-20 06:00,114.1000,22.5500,82.40,64.40,54.55,360.00,7.78,0.00,29.94,M,6.21,M,M,M,M,M,M,M,M,M,M,M,M,M,M,M,M,83.98,ZGSZ 200600Z 36004MPS 230V020 CAVOK 28/18 Q1014 NOSIG
ZHCC,2020-10-20 06:00,113.6500,34.7167,64.40,50.00,59.50,190.00,5.83,0.00,30.18,M,3.11,M,NSC,M,M,M,M,M,M,M,HZ,M,M,M,M,M,M,M,ZHCC 200600Z 19003MPS 110V240 5000 HZ NSC 18/10 Q1022 NOSIG
ZGNN,2020-10-20 06:00,108.2167,22.6333,75.20,59.00,57.12,340.00,7.78,0.00,30.06,M,6.21,M,FEW,M,M,M,3300.00,M,M,M,M,M,M,M,M,M,M,M,ZGNN 200600Z 34004MPS 310V010 9999 FEW033 24/15 Q1018 NOSIG
ZBAA,2020-10-20 06:00,116.5870,40.0741,62.60,44.60,51.72,160.00,5.83,0.00,30.09,M,2.17,M,NSC,M,M,M,M,M,M,M,HZ,M,M,M,M,M,M,M,ZBAA 200600Z 16003MPS 3500 HZ NSC 17/07 Q1019 BECMG TL0730 2500
ZBHH,2020-10-20 06:00,111.6833,40.8167,60.80,19.40,19.94,240.00,13.61,0.00,30.03,M,6.21,23.33,M,M,M,M,M,M,M,M,M,M,M,M,M,M,M,M,ZBHH 200600Z 24007G12MPS CAVOK 16/M07 Q1017 NOSIG
ZBSJ,2020-10-20 06:00,114.6973,38.2807,66.20,46.40,48.83,160.00,3.89,0.00,30.06,M,1.86,M,NSC,M,M,M,M,M,M,M,HZ,M,M,M,M,M,M,M,ZBSJ 200600Z 16002MPS 3000 HZ NSC 19/08 Q1018 NOSIG
ZBTJ,2020-10-20 06:00,117.3462,39.1243,68.00,42.80,40.00,200.00,9.72,0.00,30.09,M,3.73,M,NSC,M,M,M,M,M,M,M,M,M,M,M,M,M,M,M,ZBTJ 200600Z 20005MPS 6000 NSC 20/06 Q1019 NOSIG
ZYTL,2020-10-20 06:00,121.6333,38.9000,69.80,35.60,28.39,190.00,9.72,0.00,30.21,M,6.21,M,M,M,M,M,M,M,M,M,M,M,M,M,M,M,M,M,ZYTL 200600Z 19005MPS CAVOK 21/02 Q1023 NOSIG
ZYTX,2020-10-20 06:00,123.4000,41.8000,71.60,41.00,33.00,230.00,17.49,0.00,30.12,M,3.73,M,NSC,M,M,M,M,M,M,M,M,M,M,M,M,M,M,M,ZYTX 200600Z 23009MPS 6000 NSC 22/05 Q1020 NOSIG
ZLLL,2020-10-20 06:00,103.7500,36.0200,53.60,14.00,20.46,160.00,5.83,0.00,30.36,M,6.21,M,M,M,M,M,M,M,M,M,M,M,M,M,M,M,M,M,ZLLL 200600Z 16003MPS 110V200 CAVOK 12/M10 Q1028 NOSIG
ZLXY,2020-10-20 06:00,108.7516,34.4471,66.20,50.00,55.88,240.00,9.72,0.00,30.21,M,6.21,M,M,M,M,M,M,M,M,M,M,M,M,M,M,M,M,M,ZLXY 200600Z 24005MPS CAVOK 19/10 Q1023 NOSIG
ZSAM,2020-10-20 06:00,118.0833,24.4833,80.60,62.60,54.30,30.00,15.55,0.00,29.94,M,6.21,M,BKN,M,M,M,4000.00,M,M,M,M,M,M,M,M,M,M,81.84,ZSAM 200600Z 03008MPS 9999 BKN040 27/17 Q1014 NOSIG
ZPPP,2020-10-20 06:00,102.6833,25.0167,53.60,53.60,100.00,20.00,7.78,0.00,30.30,M,6.21,M,SCT,SCT,OVC,M,300.00,1600.00,3000.00,M,-RA,M,M,M,M,M,M,M,ZPPP 200600Z 02004MPS 9999 -RA SCT003 SCT016 OVC030 12/12 Q1026 NOSIG
ZSFZ,2020-10-20 06:00,119.2833,26.0833,73.40,60.80,64.69,20.00,15.55,0.00,30.03,M,6.21,M,BKN,M,M,M,3000.00,M,M,M,M,M,M,M,M,M,M,M,ZSFZ 200600Z 02008MPS 9999 BKN030 23/16 Q1017 NOSIG
ZSHC,2020-10-20 06:00,120.1667,30.2333,71.60,53.60,53.03,70.00,7.78,0.00,30.15,M,6.21,M,BKN,M,M,M,4000.00,M,M,M,M,M,M,M,M,M,M,M,ZSHC 200600Z 07004MPS 020V110 9999 BKN040 22/12 Q1021 NOSIG
ZSNB,2020-10-20 06:00,121.4619,29.8267,73.40,55.40,53.29,30.00,7.78,0.00,30.15,M,6.21,M,SCT,M,M,M,3000.00,M,M,M,M,M,M,M,M,M,M,M,ZSNB 200600Z 03004MPS 9999 SCT030 23/13 Q1021 NOSIG
ZSOF,2020-10-20 06:00,117.2984,31.7800,66.20,48.20,52.25,70.00,3.89,0.00,30.18,M,6.21,M,SCT,M,M,M,3300.00,M,M,M,M,M,M,M,M,M,M,M,ZSOF 200600Z 07002MPS 020V100 9999 SCT033 19/09 Q1022 NOSIG
ZSQD,2020-10-20 06:00,120.3333,36.0667,69.80,48.20,46.16,160.00,11.66,0.00,30.24,M,6.21,M,M,M,M,M,M,M,M,M,M,M,M,M,M,M,M,M,ZSQD 200600Z 16006MPS CAVOK 21/09 Q1024 NOSIG
ZSSS,2020-10-20 06:00,121.3363,31.1979,71.60,50.00,46.43,80.00,9.72,0.00,30.18,M,6.21,M,M,M,M,M,M,M,M,M,M,M,M,M,M,M,M,M,ZSSS 200600Z 08005MPS CAVOK 22/10 Q1022 NOSIG
ZUCK,2020-10-20 06:00,106.4800,29.5200,62.60,53.60,72.38,M,1.94,0.00,30.30,M,6.21,M,FEW,SCT,M,M,1500.00,5000.00,M,M,M,M,M,M,M,M,M,M,ZUCK 200600Z VRB01MPS 9999 FEW015 SCT050 17/12 Q1026 NOSIG
ZSNJ,2020-10-20 06:00,118.8667,31.7333,69.80,50.00,49.37,90.00,7.78,0.00,30.18,M,6.21,M,SCT,M,M,M,4000.00,M,M,M,M,M,M,M,M,M,M,M,ZSNJ 200600Z 09004MPS 050V110 9999 SCT040 21/10 Q1022 NOSIG
ZSPD,2020-10-20 06:00,121.7667,31.1167,71.60,53.60,53.03,50.00,9.72,0.00,30.18,M,6.21,M,SCT,M,M,M,4000.00,M,M,M,M,M,M,M,M,M,M,M,ZSPD 200600Z 05005MPS 020V090 9999 SCT040 22/12 Q1022 NOSIG
ZUUU,2020-10-20 06:00,104.0167,30.6667,60.80,57.20,87.92,360.00,3.89,0.00,30.33,M,6.21,M,SCT,BKN,M,M,1300.00,3000.00,M,M,-RA,M,M,M,M,M,M,M,ZUUU 200600Z 36002MPS 320V030 9999 -RA SCT013 BKN030 16/14 Q1027 NOSIG
ZWWW,2020-10-20 06:00,87.4742,43.9071,60.80,24.80,25.04,20.00,7.78,0.00,30.21,M,6.21,M,M,M,M,M,M,M,M,M,M,M,M,M,M,M,M,M,ZWWW 200600Z 02004MPS CAVOK 16/M04 Q1023 NOSIG
ZYCC,2020-10-20 06:00,125.2167,43.9000,68.00,37.40,32.43,210.00,17.49,0.00,30.06,M,3.73,M,NSC,M,M,M,M,M,M,M,M,M,M,M,M,M,M,M,ZYCC 200600Z 21009MPS 6000 NSC 20/03 Q1018 NOSIG
ZYHB,2020-10-20 06:00,126.5800,46.0200,66.20,42.80,42.57,190.00,15.55,0.00,29.97,M,4.35,25.27,NSC,M,M,M,M,M,M,M,M,M,M,M,M,M,M,M,ZYHB 200600Z 19008G13MPS 7000 NSC 19/06 Q1015 NOSIG
ZWSH,2020-10-20 06:00,75.9833,39.4667,64.40,19.40,17.56,M,5.83,0.00,30.36,M,6.21,M,M,M,M,M,M,M,M,M,M,M,M,M,M,M,M,M,ZWSH 200600Z VRB03MPS CAVOK 18/M07 Q1028 NOSIG
ZBAD,2020-10-20 06:00,116.4106,39.5092,64.40,48.20,55.63,210.00,5.83,0.00,30.09,M,2.17,M,NSC,M,M,M,M,M,M,M,HZ,M,M,M,M,M,M,M,ZBAD 200600Z 21003MPS 180V240 3500 HZ NSC 18/09 Q1019 NOSIG
ZBYN,2020-10-20 06:30,112.5500,37.7833,60.80,33.80,36.16,210.00,5.83,0.00,30.12,M,3.11,M,NSC,M,M,M,M,M,M,M,HZ,M,M,M,M,M,M,M,ZBYN 200630Z 21003MPS 170V230 5000 HZ NSC 16/01 Q1020 NOSIG
ZGGG,2020-10-20 06:30,113.3008,23.3964,78.80,59.00,50.69,340.00,13.61,0.00,29.97,M,6.21,25.27,BKN,M,M,M,3600.00,M,M,M,M,M,M,M,M,M,M,M,ZGGG 200630Z 34007G13MPS 9999 BKN036 26/15 Q1015 NOSIG
ZBAA,2020-10-20 06:30,116.5870,40.0741,62.60,44.60,51.72,170.00,5.83,0.00,30.09,M,1.99,M,NSC,M,M,M,M,M,M,M,HZ,M,M,M,M,M,M,M,ZBAA 200630Z 17003MPS 140V220 3200 HZ NSC 17/07 Q1019 NOSIG
ZBTJ,2020-10-20 06:30,117.3462,39.1243,68.00,42.80,40.00,190.00,7.78,0.00,30.09,M,3.73,M,NSC,M,M,M,M,M,M,M,M,M,M,M,M,M,M,M,ZBTJ 200630Z 19004MPS 150V210 6000 NSC 20/06 Q1019 NOSIG
ZYTL,2020-10-20 06:30,121.6333,38.9000,69.80,39.20,32.72,200.00,9.72,0.00,30.21,M,6.21,M,M,M,M,M,M,M,M,M,M,M,M,M,M,M,M,M,ZYTL 200630Z 20005MPS 170V250 CAVOK 21/04 Q1023 NOSIG
ZYTX,2020-10-20 06:30,123.4000,41.8000,71.60,39.20,30.77,220.00,15.55,0.00,30.12,M,3.73,M,NSC,M,M,M,M,M,M,M,M,M,M,M,M,M,M,M,ZYTX 200630Z 22008MPS 180V250 6000 NSC 22/04 Q1020 NOSIG
ZSHC,2020-10-20 06:30,120.1667,30.2333,73.40,53.60,49.90,70.00,9.72,0.00,30.15,M,6.21,M,BKN,M,M,M,3300.00,M,M,M,M,M,M,M,M,M,M,M,ZSHC 200630Z 07005MPS 9999 BKN033 23/12 Q1021 NOSIG
ZSSS,2020-10-20 06:30,121.3363,31.1979,71.60,50.00,46.43,80.00,7.78,0.00,30.18,M,6.21,M,M,M,M,M,M,M,M,M,M,M,M,M,M,M,M,M,ZSSS 200630Z 08004MPS CAVOK 22/10 Q1022 NOSIG
ZSPD,2020-10-20 06:30,121.7667,31.1167,71.60,53.60,53.03,60.00,9.72,0.00,30.18,M,6.21,M,SCT,M,M,M,4000.00,M,M,M,M,M,M,M,M,M,M,M,ZSPD 200630Z 06005MPS 020V100 9999 SCT040 22/12 Q1022 NOSIG
ZWWW,2020-10-20 06:30,87.4742,43.9071,62.60,24.80,23.50,20.00,7.78,0.00,30.21,M,6.21,M,M,M,M,M,M,M,M,M,M,M,M,M,M,M,M,M,ZWWW 200630Z 02004MPS CAVOK 17/M04 Q1023 NOSIG
ZBAD,2020-10-20 06:30,116.4106,39.5092,66.20,48.20,52.25,220.00,5.83,0.00,30.06,M,2.17,M,NSC,M,M,M,M,M,M,M,HZ,M,M,M,M,M,M,M,ZBAD 200630Z 22003MPS 180V290 3500 HZ NSC 19/09 Q1018 NOSIG
ZMUB,2020-10-20 06:30,106.7666,47.8431,24.80,10.40,53.75,340.00,21.38,0.00,30.00,M,4.97,M,M,M,M,M,M,M,M,M,-SN BLSN,M,M,M,M,M,M,9.13,ZMUB 200630Z 34011MPS 8000NW -SN BLSN M04/M12 Q1016 NOSIG RMK QFE654.1 51 NW MO
ZMUB,2020-10-20 07:00,106.7666,47.8431,24.80,10.40,53.75,340.00,21.38,0.00,30.00,M,6.21,M,BKN,M,M,M,3000.00,M,M,M,M,M,M,M,M,M,M,9.13,ZMUB 200700Z 34011MPS 9999 BKN030 M04/M12 Q1016 NOSIG RMK QFE654.7 49 MOP
ZGHA,2020-10-20 07:00,112.8667,28.2333,68.00,57.20,68.35,320.00,7.78,0.00,30.15,M,6.21,M,FEW,OVC,M,M,3000.00,5000.00,M,M,M,M,M,M,M,M,M,M,ZGHA 200700Z 32004MPS 9999 FEW030 OVC050 20/14 Q1021 NOSIG
ZBYN,2020-10-20 07:00,112.5500,37.7833,62.60,35.60,36.45,M,3.89,0.00,30.12,M,3.11,M,NSC,M,M,M,M,M,M,M,HZ,M,M,M,M,M,M,M,ZBYN 200700Z VRB02MPS 5000 HZ NSC 17/02 Q1020 BECMG TL0830 21005MPS
ZGGG,2020-10-20 07:00,113.3008,23.3964,78.80,57.20,47.52,10.00,11.66,0.00,29.97,M,6.21,M,SCT,M,M,M,3600.00,M,M,M,M,M,M,M,M,M,M,M,ZGGG 200700Z 01006MPS 340V060 9999 SCT036 26/14 Q1015 NOSIG
ZGKL,2020-10-20 07:00,110.3000,25.3333,69.80,55.40,60.21,50.00,7.78,0.00,30.12,M,6.21,M,FEW,SCT,M,M,2000.00,3600.00,M,M,M,M,M,M,M,M,M,M,ZGKL 200700Z 05004MPS 020V080 9999 FEW020 SCT036 21/13 Q1020 NOSIG
ZGOW,2020-10-20 07:00,116.6833,23.4000,84.20,64.40,51.47,20.00,7.78,0.00,29.88,M,6.21,M,SCT,M,M,M,5000.00,M,M,M,M,M,M,M,M,M,M,85.71,ZGOW 200700Z 02004MPS 9999 SCT050 29/18 Q1012 NOSIG
ZHHH,2020-10-20 07:00,114.1300,30.6200,64.40,57.20,77.45,280.00,3.89,0.00,30.18,M,3.11,M,NSC,M,M,M,M,M,M,M,BR,M,M,M,M,M,M,M,ZHHH 200700Z 28002MPS 230V340 5000 BR NSC 18/14 Q1022 NOSIG
ZJHK,2020-10-20 07:00,110.4590,19.9349,78.80,69.80,73.95,50.00,15.55,0.00,29.91,M,6.21,M,SCT,M,M,M,2600.00,M,M,M,M,M,M,M,M,M,M,M,ZJHK 200700Z 05008MPS 9999 SCT026 26/21 Q1013 NOSIG
ZJSY,2020-10-20 07:00,109.4123,18.3029,84.20,73.40,70.08,80.00,15.55,0.00,29.83,M,6.21,M,BKN,M,M,M,2100.00,M,M,M,M,M,M,M,M,M,M,90.94,ZJSY 200700Z 08008MPS 050V110 9999 BKN021 29/23 Q1010 NOSIG
ZUGY,2020-10-20 07:00,106.7333,26.5833,50.00,48.20,93.50,10.00,5.83,0.00,30.27,M,6.21,M,SCT,BKN,OVC,M,500.00,1500.00,3600.00,M,-RA,M,M,M,M,M,M,M,ZUGY 200700Z 01003MPS 350V060 9999 -RA SCT005 BKN015 OVC036 10/09 Q1025 NOSIG
ZGSZ,2020-10-20 07:00,114.1000,22.5500,82.40,62.60,51.21,340.00,9.72,0.00,29.94,M,6.21,M,M,M,M,M,M,M,M,M,M,M,M,M,M,M,M,83.41,ZGSZ 200700Z 34005MPS 310V020 CAVOK 28/17 Q1014 NOSIG
ZHCC,2020-10-20 07:00,113.6500,34.7167,64.40,50.00,59.50,210.00,5.83,0.00,30.18,M,3.11,M,NSC,M,M,M,M,M,M,M,HZ,M,M,M,M,M,M,M,ZHCC 200700Z 21003MPS 150V250 5000 HZ NSC 18/10 Q1022 NOSIG
ZGNN,2020-10-20 07:00,108.2167,22.6333,73.40,59.00,60.67,340.00,7.78,0.00,30.03,M,6.21,M,FEW,M,M,M,3300.00,M,M,M,M,M,M,M,M,M,M,M,ZGNN 200700Z 34004MPS 320V020 9999 FEW033 23/15 Q1017 NOSIG
ZBAA,2020-10-20 07:00,116.5870,40.0741,62.60,44.60,51.72,M,1.94,0.00,30.06,M,1.99,M,NSC,M,M,M,M,M,M,M,HZ,M,M,M,M,M,M,M,ZBAA 200700Z VRB01MPS 3200 HZ NSC 17/07 Q1018 BECMG TL0730 2500
ZBHH,2020-10-20 07:00,111.6833,40.8167,62.60,19.40,18.71,240.00,11.66,0.00,29.97,M,6.21,M,M,M,M,M,M,M,M,M,M,M,M,M,M,M,M,M,ZBHH 200700Z 24006MPS 210V270 CAVOK 17/M07 Q1015 BECMG TL0830 26011MPS
ZBSJ,2020-10-20 07:00,114.6973,38.2807,68.00,44.60,42.85,170.00,5.83,0.00,30.03,M,2.17,M,NSC,M,M,M,M,M,M,M,HZ,M,M,M,M,M,M,M,ZBSJ 200700Z 17003MPS 3500 HZ NSC 20/07 Q1017 NOSIG
ZBTJ,2020-10-20 07:00,117.3462,39.1243,69.80,42.80,37.61,190.00,7.78,0.00,30.09,M,3.73,M,NSC,M,M,M,M,M,M,M,M,M,M,M,M,M,M,M,ZBTJ 200700Z 19004MPS 6000 NSC 21/06 Q1019 NOSIG
ZYTL,2020-10-20 07:00,121.6333,38.9000,68.00,39.20,34.80,200.00,7.78,0.00,30.18,M,6.21,M,M,M,M,M,M,M,M,M,M,M,M,M,M,M,M,M,ZYTL 200700Z 20004MPS CAVOK 20/04 Q1022 NOSIG
ZYTX,2020-10-20 07:00,123.4000,41.8000,69.80,39.20,32.72,220.00,13.61,0.00,30.09,M,3.73,M,NSC,M,M,M,M,M,M,M,M,M,M,M,M,M,M,M,ZYTX 200700Z 22007MPS 6000 NSC 21/04 Q1019 NOSIG
ZLLL,2020-10-20 07:00,103.7500,36.0200,53.60,14.00,20.46,140.00,5.83,0.00,30.33,M,6.21,M,M,M,M,M,M,M,M,M,M,M,M,M,M,M,M,M,ZLLL 200700Z 14003MPS 080V170 CAVOK 12/M10 Q1027 NOSIG
ZLXY,2020-10-20 07:00,108.7516,34.4471,66.20,51.80,59.74,210.00,7.78,0.00,30.18,M,6.21,M,M,M,M,M,M,M,M,M,M,M,M,M,M,M,M,M,ZLXY 200700Z 21004MPS CAVOK 19/11 Q1022 NOSIG
ZSAM,2020-10-20 07:00,118.0833,24.4833,80.60,62.60,54.30,40.00,17.49,0.00,29.94,M,6.21,M,SCT,M,M,M,4600.00,M,M,M,M,M,M,M,M,M,M,81.84,ZSAM 200700Z 04009MPS 9999 SCT046 27/17 Q1014 NOSIG
ZPPP,2020-10-20 07:00,102.6833,25.0167,51.80,51.80,100.00,30.00,7.78,0.00,30.27,M,6.21,M,SCT,SCT,OVC,M,300.00,1600.00,3000.00,M,-RA,M,M,M,M,M,M,M,ZPPP 200700Z 03004MPS 9999 -RA SCT003 SCT016 OVC030 11/11 Q1025 NOSIG
ZSFZ,2020-10-20 07:00,119.2833,26.0833,75.20,60.80,60.90,20.00,21.38,0.00,30.03,M,6.21,33.05,BKN,M,M,M,5000.00,M,M,M,M,M,M,M,M,M,M,M,ZSFZ 200700Z 02011G17MPS 9999 BKN050 24/16 Q1017 NOSIG
ZSHC,2020-10-20 07:00,120.1667,30.2333,73.40,53.60,49.90,80.00,9.72,0.00,30.15,M,6.21,M,SCT,M,M,M,3300.00,M,M,M,M,M,M,M,M,M,M,M,ZSHC 200700Z 08005MPS 050V130 9999 SCT033 23/12 Q1021 NOSIG
ZSNB,2020-10-20 07:00,121.4619,29.8267,73.40,57.20,56.88,30.00,7.78,0.00,30.15,M,6.21,M,SCT,M,M,M,3000.00,M,M,M,M,M,M,M,M,M,M,M,ZSNB 200700Z 03004MPS 9999 SCT030 23/14 Q1021 NOSIG
ZSOF,2020-10-20 07:00,117.2984,31.7800,66.20,48.20,52.25,90.00,3.89,0.00,30.18,M,6.21,M,M,M,M,M,M,M,M,M,M,M,M,M,M,M,M,M,ZSOF 200700Z 09002MPS 060V130 CAVOK 19/09 Q1022 NOSIG
ZSQD,2020-10-20 07:00,120.3333,36.0667,68.00,48.20,49.10,180.00,11.66,0.00,30.21,M,6.21,M,M,M,M,M,M,M,M,M,M,M,M,M,M,M,M,M,ZSQD 200700Z 18006MPS 150V210 CAVOK 20/09 Q1023 NOSIG
ZSSS,2020-10-20 07:00,121.3363,31.1979,73.40,51.80,46.71,100.00,9.72,0.00,30.15,M,6.21,M,M,M,M,M,M,M,M,M,M,M,M,M,M,M,M,M,ZSSS 200700Z 10005MPS 080V140 CAVOK 23/11 Q1021 NOSIG
ZUCK,2020-10-20 07:00,106.4800,29.5200,62.60,55.40,77.29,160.00,3.89,0.00,30.27,M,6.21,M,SCT,M,M,M,2600.00,M,M,M,M,M,M,M,M,M,M,M,ZUCK 200700Z 16002MPS 090V220 9999 SCT026 17/13 Q1025 NOSIG
ZSNJ,2020-10-20 07:00,118.8667,31.7333,69.80,51.80,52.77,80.00,9.72,0.00,30.18,M,6.21,M,SCT,M,M,M,4000.00,M,M,M,M,M,M,M,M,M,M,M,ZSNJ 200700Z 08005MPS 9999 SCT040 21/11 Q1022 NOSIG
ZSPD,2020-10-20 07:00,121.7667,31.1167,69.80,53.60,56.38,70.00,11.66,0.00,30.18,M,6.21,M,SCT,M,M,M,4000.00,M,M,M,M,M,M,M,M,M,M,M,ZSPD 200700Z 07006MPS 040V100 9999 SCT040 21/12 Q1022 NOSIG
ZUUU,2020-10-20 07:00,104.0167,30.6667,60.80,55.40,82.37,M,1.94,0.00,30.30,M,6.21,M,SCT,BKN,M,M,1600.00,4000.00,M,M,-RA,M,M,M,M,M,M,M,ZUUU 200700Z VRB01MPS 9999 -RA SCT016 BKN040 16/13 Q1026 NOSIG
ZWWW,2020-10-20 07:00,87.4742,43.9071,64.40,24.80,22.06,360.00,5.83,0.00,30.18,M,6.21,M,M,M,M,M,M,M,M,M,M,M,M,M,M,M,M,M,ZWWW 200700Z 36003MPS 320V060 CAVOK 18/M04 Q1022 NOSIG
ZYCC,2020-10-20 07:00,125.2167,43.9000,68.00,35.60,30.20,200.00,15.55,0.00,30.03,M,3.73,M,NSC,M,M,M,M,M,M,M,M,M,M,M,M,M,M,M,ZYCC 200700Z 20008MPS 6000 NSC 20/02 Q1017 NOSIG
ZYHB,2020-10-20 07:00,126.5800,46.0200,66.20,42.80,42.57,190.00,11.66,0.00,29.97,M,4.35,M,NSC,M,M,M,M,M,M,M,M,M,M,M,M,M,M,M,ZYHB 200700Z 19006MPS 7000 NSC 19/06 Q1015 NOSIG
ZWSH,2020-10-20 07:00,75.9833,39.4667,66.20,17.60,15.27,100.00,5.83,0.00,30.33,M,6.21,M,M,M,M,M,M,M,M,M,M,M,M,M,M,M,M,M,ZWSH 200700Z 10003MPS 040V140 CAVOK 19/M08 Q1027 NOSIG
ZBAD,2020-10-20 07:00,116.4106,39.5092,64.40,46.40,51.98,220.00,9.72,0.00,30.06,M,2.17,M,NSC,M,M,M,M,M,M,M,HZ,M,M,M,M,M,M,M,ZBAD 200700Z 22005MPS 3500 HZ NSC 18/08 Q1018 NOSIG
ZMUB,2020-10-20 07:30,106.7666,47.8431,24.80,8.60,49.59,340.00,17.49,0.00,30.00,M,6.21,M,BKN,M,M,M,3000.00,M,M,M,M,M,M,M,M,M,M,10.46,ZMUB 200730Z 34009MPS 310V030 9999 BKN030 M04/M13 Q1016 NOSIG RMK QFE655.0 48 MOP
ZBYN,2020-10-20 07:30,112.5500,37.7833,62.60,33.80,33.93,210.00,3.89,0.00,30.12,M,3.11,M,NSC,M,M,M,M,M,M,M,HZ,M,M,M,M,M,M,M,ZBYN 200730Z 21002MPS 170V250 5000 HZ NSC 17/01 Q1020 NOSIG
ZGGG,2020-10-20 07:30,113.3008,23.3964,80.60,59.00,47.79,360.00,11.66,0.00,29.97,M,6.21,M,FEW,M,M,M,3600.00,M,M,M,M,M,M,M,M,M,M,81.11,ZGGG 200730Z 36006MPS 9999 FEW036 27/15 Q1015 NOSIG
ZBAA,2020-10-20 07:30,116.5870,40.0741,62.60,46.40,55.37,M,1.94,0.00,30.09,M,1.74,M,NSC,M,M,M,M,M,M,M,HZ,M,M,M,M,M,M,M,ZBAA 200730Z VRB01MPS 2800 HZ NSC 17/08 Q1019 NOSIG
ZBTJ,2020-10-20 07:30,117.3462,39.1243,68.00,42.80,40.00,190.00,7.78,0.00,30.06,M,3.73,M,NSC,M,M,M,M,M,M,M,M,M,M,M,M,M,M,M,ZBTJ 200730Z 19004MPS 6000 NSC 20/06 Q1018 NOSIG
ZYTL,2020-10-20 07:30,121.6333,38.9000,68.00,42.80,40.00,200.00,7.78,0.00,30.18,M,6.21,M,M,M,M,M,M,M,M,M,M,M,M,M,M,M,M,M,ZYTL 200730Z 20004MPS 160V240 CAVOK 20/06 Q1022 NOSIG
ZYTX,2020-10-20 07:30,123.4000,41.8000,69.80,39.20,32.72,230.00,11.66,0.00,30.09,M,3.73,M,NSC,M,M,M,M,M,M,M,M,M,M,M,M,M,M,M,ZYTX 200730Z 23006MPS 6000 NSC 21/04 Q1019 NOSIG
ZSHC,2020-10-20 07:30,120.1667,30.2333,73.40,51.80,46.71,90.00,7.78,0.00,30.15,M,6.21,M,SCT,M,M,M,3300.00,M,M,M,M,M,M,M,M,M,M,M,ZSHC 200730Z 09004MPS 060V120 9999 SCT033 23/11 Q1021 NOSIG
ZSSS,2020-10-20 07:30,121.3363,31.1979,71.60,51.80,49.64,100.00,7.78,0.00,30.18,M,6.21,M,M,M,M,M,M,M,M,M,M,M,M,M,M,M,M,M,ZSSS 200730Z 10004MPS 060V130 CAVOK 22/11 Q1022 NOSIG
ZSPD,2020-10-20 07:30,121.7667,31.1167,69.80,55.40,60.21,70.00,11.66,0.00,30.18,M,6.21,M,SCT,M,M,M,4000.00,M,M,M,M,M,M,M,M,M,M,M,ZSPD 200730Z 07006MPS 040V110 9999 SCT040 21/13 Q1022 NOSIG
ZWWW,2020-10-20 07:30,87.4742,43.9071,64.40,23.00,20.46,360.00,5.83,0.00,30.18,M,6.21,M,M,M,M,M,M,M,M,M,M,M,M,M,M,M,M,M,ZWWW 200730Z 36003MPS 330V040 CAVOK 18/M05 Q1022 NOSIG
ZBAD,2020-10-20 07:30,116.4106,39.5092,64.40,46.40,51.98,210.00,5.83,0.00,30.06,M,2.17,M,NSC,M,M,M,M,M,M,M,HZ,M,M,M,M,M,M,M,ZBAD 200730Z 21003MPS 3500 HZ NSC 18/08 Q1018 NOSIG
ZGHA,2020-10-20 08:00,112.8667,28.2333,68.00,59.00,72.92,320.00,9.72,0.00,30.18,M,4.97,M,NSC,M,M,M,M,M,M,M,M,M,M,M,M,M,M,M,ZGHA 200800Z 32005MPS 8000 NSC 20/15 Q1022 NOSIG
ZBYN,2020-10-20 08:00,112.5500,37.7833,62.60,35.60,36.45,230.00,5.83,0.00,30.12,M,3.11,M,NSC,M,M,M,M,M,M,M,HZ,M,M,M,M,M,M,M,ZBYN 200800Z 23003MPS 200V270 5000 HZ NSC 17/02 Q1020 NOSIG
ZGGG,2020-10-20 08:00,113.3008,23.3964,78.80,57.20,47.52,20.00,13.61,0.00,29.97,M,6.21,M,FEW,M,M,M,3600.00,M,M,M,M,M,M,M,M,M,M,M,ZGGG 200800Z 02007MPS 330V040 9999 FEW036 26/14 Q1015 NOSIG
ZGKL,2020-10-20 08:00,110.3000,25.3333,69.80,55.40,60.21,30.00,5.83,0.00,30.12,M,6.21,M,SCT,OVC,M,M,4000.00,6600.00,M,M,M,M,M,M,M,M,M,M,ZGKL 200800Z 03003MPS 320V080 9999 SCT040 OVC066 21/13 Q1020 NOSIG
ZGOW,2020-10-20 08:00,116.6833,23.4000,86.00,66.20,51.72,350.00,3.89,0.00,29.88,M,6.21,M,FEW,M,M,M,5000.00,M,M,M,M,M,M,M,M,M,M,88.39,ZGOW 200800Z 35002MPS 280V040 9999 FEW050 30/19 Q1012 NOSIG
ZHHH,2020-10-20 08:00,114.1300,30.6200,64.40,55.40,72.56,300.00,3.89,0.00,30.18,M,3.11,M,NSC,M,M,M,M,M,M,M,-RA BR,M,M,M,M,M,M,M,ZHHH 200800Z 30002MPS 230V360 5000 -RA BR NSC 18/13 Q1022 NOSIG
ZJHK,2020-10-20 08:00,110.4590,19.9349,78.80,69.80,73.95,60.00,13.61,0.00,29.91,M,6.21,M,FEW,M,M,M,2600.00,M,M,M,M,M,M,M,M,M,M,M,ZJHK 200800Z 06007MPS 9999 FEW026 26/21 Q1013 NOSIG
ZJSY,2020-10-20 08:00,109.4123,18.3029,82.40,73.40,74.28,80.00,11.66,0.00,29.83,M,6.21,M,SCT,M,M,M,2100.00,M,M,M,M,M,M,M,M,M,M,88.26,ZJSY 200800Z 08006MPS 9999 SCT021 28/23 Q1010 NOSIG
ZUGY,2020-10-20 08:00,106.7333,26.5833,50.00,50.00,100.00,40.00,5.83,0.00,30.27,M,6.21,M,SCT,BKN,OVC,M,500.00,1500.00,3600.00,M,-RA,M,M,M,M,M,M,M,ZUGY 200800Z 04003MPS 9999 -RA SCT005 BKN015 OVC036 10/10 Q1025 NOSIG
ZGSZ,2020-10-20 08:00,114.1000,22.5500,82.40,64.40,54.55,350.00,9.72,0.00,29.94,M,6.21,M,M,M,M,M,M,M,M,M,M,M,M,M,M,M,M,83.98,ZGSZ 200800Z 35005MPS CAVOK 28/18 Q1014 NOSIG
ZHCC,2020-10-20 08:00,113.6500,34.7167,64.40,50.00,59.50,190.00,3.89,0.00,30.18,M,3.11,M,NSC,M,M,M,M,M,M,M,HZ,M,M,M,M,M,M,M,ZHCC 200800Z 19002MPS 140V240 5000 HZ NSC 18/10 Q1022 NOSIG
ZGNN,2020-10-20 08:00,108.2167,22.6333,73.40,57.20,56.88,340.00,5.83,0.00,30.03,M,6.21,M,M,M,M,M,M,M,M,M,M,M,M,M,M,M,M,M,ZGNN 200800Z 34003MPS 310V020 CAVOK 23/14 Q1017 NOSIG
ZBAA,2020-10-20 08:00,116.5870,40.0741,60.80,48.20,63.15,140.00,1.94,0.00,30.06,M,1.74,M,NSC,M,M,M,M,M,M,M,HZ,M,M,M,M,M,M,M,ZBAA 200800Z 14001MPS 2800 HZ NSC 16/09 Q1018 BECMG TL0930 3000
ZBHH,2020-10-20 08:00,111.6833,40.8167,60.80,19.40,19.94,250.00,21.38,0.00,29.97,M,3.11,36.93,NSC,M,M,M,M,M,M,M,SA,M,M,M,M,M,M,M,ZBHH 200800Z 25011G19MPS 5000 SA NSC 16/M07 Q1015 NOSIG
ZBSJ,2020-10-20 08:00,114.6973,38.2807,68.00,48.20,49.10,M,1.94,0.00,30.03,M,2.80,M,NSC,M,M,M,M,M,M,M,HZ,M,M,M,M,M,M,M,ZBSJ 200800Z VRB01MPS 4500 HZ NSC 20/09 Q1017 NOSIG
ZBTJ,2020-10-20 08:00,117.3462,39.1243,68.00,42.80,40.00,180.00,7.78,0.00,30.06,M,3.73,M,NSC,M,M,M,M,M,M,M,M,M,M,M,M,M,M,M,ZBTJ 200800Z 18004MPS 6000 NSC 20/06 Q1018 NOSIG
ZYTL,2020-10-20 08:00,121.6333,38.9000,66.20,46.40,48.83,190.00,7.78,0.00,30.18,M,6.21,M,M,M,M,M,M,M,M,M,M,M,M,M,M,M,M,M,ZYTL 200800Z 19004MPS 140V250 CAVOK 19/08 Q1022 NOSIG
ZYTX,2020-10-20 08:00,123.4000,41.8000,68.00,39.20,34.80,210.00,7.78,0.00,30.09,M,4.97,M,NSC,M,M,M,M,M,M,M,M,M,M,M,M,M,M,M,ZYTX 200800Z 21004MPS 8000 NSC 20/04 Q1019 NOSIG
ZLLL,2020-10-20 08:00,103.7500,36.0200,53.60,15.80,22.13,M,1.94,0.00,30.33,M,6.21,M,M,M,M,M,M,M,M,M,M,M,M,M,M,M,M,M,ZLLL 200800Z VRB01MPS CAVOK 12/M09 Q1027 NOSIG
ZLXY,2020-10-20 08:00,108.7516,34.4471,68.00,50.00,52.51,230.00,7.78,0.00,30.18,M,6.21,M,M,M,M,M,M,M,M,M,M,M,M,M,M,M,M,M,ZLXY 200800Z 23004MPS CAVOK 20/10 Q1022 NOSIG
ZSAM,2020-10-20 08:00,118.0833,24.4833,78.80,62.60,57.60,50.00,17.49,0.00,29.94,M,6.21,M,FEW,M,M,M,4600.00,M,M,M,M,M,M,M,M,M,M,M,ZSAM 200800Z 05009MPS 9999 FEW046 26/17 Q1014 NOSIG
ZPPP,2020-10-20 08:00,102.6833,25.0167,51.80,51.80,100.00,30.00,7.78,0.00,30.27,M,2.49,M,SCT,SCT,OVC,M,300.00,1600.00,3000.00,M,-RA BR,M,M,M,M,M,M,M,ZPPP 200800Z 03004MPS 4000 -RA BR SCT003 SCT016 OVC030 11/11 Q1025 NOSIG
ZSFZ,2020-10-20 08:00,119.2833,26.0833,73.40,60.80,64.69,30.00,21.38,0.00,30.03,M,6.21,31.10,FEW,BKN,M,M,3000.00,5000.00,M,M,M,M,M,M,M,M,M,M,ZSFZ 200800Z 03011G16MPS 9999 FEW030 BKN050 23/16 Q1017 NOSIG
ZSHC,2020-10-20 08:00,120.1667,30.2333,71.60,51.80,49.64,80.00,7.78,0.00,30.15,M,6.21,M,M,M,M,M,M,M,M,M,M,M,M,M,M,M,M,M,ZSHC 200800Z 08004MPS CAVOK 22/11 Q1021 NOSIG
ZSNB,2020-10-20 08:00,121.4619,29.8267,71.60,57.20,60.44,30.00,7.78,0.00,30.12,M,6.21,M,M,M,M,M,M,M,M,M,M,M,M,M,M,M,M,M,ZSNB 200800Z 03004MPS CAVOK 22/14 Q1020 NOSIG
ZSOF,2020-10-20 08:00,117.2984,31.7800,64.40,48.20,55.63,100.00,3.89,0.00,30.18,M,6.21,M,M,M,M,M,M,M,M,M,M,M,M,M,M,M,M,M,ZSOF 200800Z 10002MPS CAVOK 18/09 Q1022 NOSIG
ZSQD,2020-10-20 08:00,120.3333,36.0667,66.20,50.00,55.88,170.00,11.66,0.00,30.21,M,6.21,M,M,M,M,M,M,M,M,M,M,M,M,M,M,M,M,M,ZSQD 200800Z 17006MPS CAVOK 19/10 Q1023 NOSIG
ZSSS,2020-10-20 08:00,121.3363,31.1979,71.60,51.80,49.64,80.00,7.78,0.00,30.18,M,6.21,M,M,M,M,M,M,M,M,M,M,M,M,M,M,M,M,M,ZSSS 200800Z 08004MPS CAVOK 22/11 Q1022 NOSIG
ZUCK,2020-10-20 08:00,106.4800,29.5200,62.60,53.60,72.38,210.00,3.89,0.00,30.27,M,6.21,M,SCT,M,M,M,2600.00,M,M,M,M,M,M,M,M,M,M,M,ZUCK 200800Z 21002MPS 160V250 9999 SCT026 17/12 Q1025 NOSIG
ZSNJ,2020-10-20 08:00,118.8667,31.7333,68.00,51.80,56.13,60.00,7.78,0.00,30.18,M,6.21,M,M,M,M,M,M,M,M,M,M,M,M,M,M,M,M,M,ZSNJ 200800Z 06004MPS CAVOK 20/11 Q1022 NOSIG
ZSPD,2020-10-20 08:00,121.7667,31.1167,69.80,53.60,56.38,100.00,11.66,0.00,30.18,M,6.21,M,FEW,M,M,M,4000.00,M,M,M,M,M,M,M,M,M,M,M,ZSPD 200800Z 10006MPS 050V120 9999 FEW040 21/12 Q1022 NOSIG
ZUUU,2020-10-20 08:00,104.0167,30.6667,60.80,55.40,82.37,M,1.94,0.00,30.33,M,6.21,M,FEW,SCT,M,M,2300.00,5000.00,M,M,-RA,M,M,M,M,M,M,M,ZUUU 200800Z VRB01MPS 9999 -RA FEW023 SCT050 16/13 Q1027 NOSIG
ZWWW,2020-10-20 08:00,87.4742,43.9071,66.20,21.20,17.81,340.00,5.83,0.00,30.18,M,6.21,M,M,M,M,M,M,M,M,M,M,M,M,M,M,M,M,M,ZWWW 200800Z 34003MPS CAVOK 19/M06 Q1022 NOSIG
ZYCC,2020-10-20 08:00,125.2167,43.9000,66.20,37.40,34.51,220.00,13.61,0.00,30.03,M,3.73,M,NSC,M,M,M,M,M,M,M,M,M,M,M,M,M,M,M,ZYCC 200800Z 22007MPS 6000 NSC 19/03 Q1017 NOSIG
ZYHB,2020-10-20 08:00,126.5800,46.0200,62.60,44.60,51.72,180.00,9.72,0.00,29.94,M,3.73,M,NSC,M,M,M,M,M,M,M,M,M,M,M,M,M,M,M,ZYHB 200800Z 18005MPS 6000 NSC 17/07 Q1014 NOSIG
ZWSH,2020-10-20 08:00,75.9833,39.4667,68.00,14.00,12.27,110.00,5.83,0.00,30.30,M,6.21,M,M,M,M,M,M,M,M,M,M,M,M,M,M,M,M,M,ZWSH 200800Z 11003MPS 070V140 CAVOK 20/M10 Q1026 NOSIG
ZBAD,2020-10-20 08:00,116.4106,39.5092,64.40,48.20,55.63,190.00,5.83,0.00,30.06,M,2.17,M,NSC,M,M,M,M,M,M,M,HZ,M,M,M,M,M,M,M,ZBAD 200800Z 19003MPS 3500 HZ NSC 18/09 Q1018 NOSIG
ZMUB,2020-10-20 08:00,106.7666,47.8431,24.80,10.40,53.75,350.00,19.44,0.00,30.03,M,6.21,M,BKN,M,M,M,3000.00,M,M,M,-SN BLSN,M,M,M,M,M,M,9.76,ZMUB 200800Z 35010MPS 9999 -SN BLSN BKN030 M04/M12 Q1017 NOSIG RMK QFE655.3 50 MOP
ZMUB,2020-10-20 08:30,106.7666,47.8431,23.00,10.40,57.96,330.00,19.44,0.00,30.03,M,6.21,M,BKN,M,M,M,3000.00,M,M,M,-SN BLSN,M,M,M,M,M,M,7.38,ZMUB 200830Z 33010MPS 9999 -SN BLSN BKN030 M05/M12 Q1017 NOSIG RMK QFE655.7 53 MOP
ZBYN,2020-10-20 08:30,112.5500,37.7833,60.80,35.60,38.85,220.00,3.89,0.00,30.09,M,3.11,M,NSC,M,M,M,M,M,M,M,HZ,M,M,M,M,M,M,M,ZBYN 200830Z 22002MPS 180V270 5000 HZ NSC 16/02 Q1019 NOSIG
ZGGG,2020-10-20 08:30,113.3008,23.3964,78.80,57.20,47.52,20.00,15.55,0.00,29.97,M,6.21,M,FEW,M,M,M,4000.00,M,M,M,M,M,M,M,M,M,M,M,ZGGG 200830Z 02008MPS 350V050 9999 FEW040 26/14 Q1015 NOSIG
ZBAA,2020-10-20 08:30,116.5870,40.0741,59.00,50.00,72.01,160.00,1.94,0.00,30.06,M,1.55,M,NSC,M,M,M,M,M,M,M,HZ,M,M,M,M,M,M,M,ZBAA 200830Z 16001MPS 2500 HZ NSC 15/10 Q1018 NOSIG
ZBTJ,2020-10-20 08:30,117.3462,39.1243,68.00,42.80,40.00,190.00,5.83,0.00,30.06,M,3.73,M,NSC,M,M,M,M,M,M,M,M,M,M,M,M,M,M,M,ZBTJ 200830Z 19003MPS 6000 NSC 20/06 Q1018 NOSIG
ZYTL,2020-10-20 08:30,121.6333,38.9000,64.40,50.00,59.50,160.00,5.83,0.00,30.18,M,4.35,M,NSC,M,M,M,M,M,M,M,M,M,M,M,M,M,M,M,ZYTL 200830Z 16003MPS 130V220 7000 NSC 18/10 Q1022 NOSIG
ZYTX,2020-10-20 08:30,123.4000,41.8000,66.20,42.80,42.57,210.00,7.78,0.00,30.09,M,4.97,M,NSC,M,M,M,M,M,M,M,M,M,M,M,M,M,M,M,ZYTX 200830Z 21004MPS 8000 NSC 19/06 Q1019 NOSIG
ZSHC,2020-10-20 08:30,120.1667,30.2333,69.80,53.60,56.38,90.00,7.78,0.00,30.15,M,6.21,M,M,M,M,M,M,M,M,M,M,M,M,M,M,M,M,M,ZSHC 200830Z 09004MPS CAVOK 21/12 Q1021 NOSIG
ZSSS,2020-10-20 08:30,121.3363,31.1979,69.80,51.80,52.77,100.00,5.83,0.00,30.18,M,6.21,M,M,M,M,M,M,M,M,M,M,M,M,M,M,M,M,M,ZSSS 200830Z 10003MPS CAVOK 21/11 Q1022 NOSIG
ZSPD,2020-10-20 08:30,121.7667,31.1167,69.80,53.60,56.38,80.00,7.78,0.00,30.18,M,6.21,M,FEW,M,M,M,4000.00,M,M,M,M,M,M,M,M,M,M,M,ZSPD 200830Z 08004MPS 020V110 9999 FEW040 21/12 Q1022 NOSIG
ZWWW,2020-10-20 08:30,87.4742,43.9071,66.20,19.40,16.50,360.00,7.78,0.00,30.15,M,6.21,M,M,M,M,M,M,M,M,M,M,M,M,M,M,M,M,M,ZWWW 200830Z 36004MPS 330V040 CAVOK 19/M07 Q1021 NOSIG
ZBAD,2020-10-20 08:30,116.4106,39.5092,62.60,48.20,59.26,240.00,3.89,0.00,30.06,M,2.17,M,NSC,M,M,M,M,M,M,M,HZ,M,M,M,M,M,M,M,ZBAD 200830Z 24002MPS 3500 HZ NSC 17/09 Q1018 NOSIG
ZMUB,2020-10-20 09:00,106.7666,47.8431,23.00,6.80,49.29,340.00,19.44,0.00,30.06,M,6.21,M,BKN,M,M,M,3300.00,M,M,M,M,M,M,M,M,M,M,7.38,ZMUB 200900Z 34010MPS 9999 BKN033 M05/M14 Q1018 NOSIG RMK QFE655.8 45 MOP
ZGHA,2020-10-20 09:00,112.8667,28.2333,66.20,57.20,72.74,340.00,9.72,0.00,30.18,M,4.35,M,FEW,M,M,M,4000.00,M,M,M,M,M,M,M,M,M,M,M,ZGHA 200900Z 34005MPS 7000 FEW040 19/14 Q1022 NOSIG
ZBYN,2020-10-20 09:00,112.5500,37.7833,60.80,35.60,38.85,M,1.94,0.00,30.09,M,3.11,M,NSC,M,M,M,M,M,M,M,HZ,M,M,M,M,M,M,M,ZBYN 200900Z VRB01MPS 5000 HZ NSC 16/02 Q1019 NOSIG
ZGGG,2020-10-20 09:00,113.3008,23.3964,77.00,57.20,50.43,30.00,15.55,0.00,29.97,M,6.21,M,BKN,M,M,M,4000.00,M,M,M,M,M,M,M,M,M,M,M,ZGGG 200900Z 03008MPS 9999 BKN040 25/14 Q1015 NOSIG
ZGKL,2020-10-20 09:00,110.3000,25.3333,68.00,57.20,68.35,60.00,7.78,0.00,30.12,M,6.21,M,BKN,OVC,M,M,3600.00,6600.00,M,M,M,M,M,M,M,M,M,M,ZGKL 200900Z 06004MPS 030V090 9999 BKN036 OVC066 20/14 Q1020 NOSIG
ZGOW,2020-10-20 09:00,116.6833,23.4000,84.20,66.20,54.80,360.00,7.78,0.00,29.88,M,6.21,M,FEW,M,M,M,5000.00,M,M,M,M,M,M,M,M,M,M,86.50,ZGOW 200900Z 36004MPS 9999 FEW050 29/19 Q1012 NOSIG
ZHHH,2020-10-20 09:00,114.1300,30.6200,64.40,57.20,77.45,280.00,3.89,0.00,30.18,M,3.11,M,NSC,M,M,M,M,M,M,M,BR,M,M,M,M,M,M,M,ZHHH 200900Z 28002MPS 230V330 5000 BR NSC 18/14 Q1022 NOSIG
ZJHK,2020-10-20 09:00,110.4590,19.9349,77.00,69.80,78.48,60.00,11.66,0.00,29.91,M,6.21,M,SCT,OVC,M,M,2000.00,3000.00,M,M,M,M,M,M,M,M,M,M,ZJHK 200900Z 06006MPS 9999 SCT020 OVC030 25/21 Q1013 NOSIG
ZJSY,2020-10-20 09:00,109.4123,18.3029,82.40,71.60,69.90,50.00,9.72,0.00,29.83,M,6.21,M,FEW,M,M,M,2000.00,M,M,M,M,M,M,M,M,M,M,87.18,ZJSY 200900Z 05005MPS 030V090 9999 FEW020 28/22 Q1010 NOSIG
ZUGY,2020-10-20 09:00,106.7333,26.5833,50.00,48.20,93.50,40.00,7.78,0.00,30.27,M,6.21,M,SCT,BKN,OVC,M,500.00,1500.00,3600.00,M,-RA,M,M,M,M,M,M,M,ZUGY 200900Z 04004MPS 9999 -RA SCT005 BKN015 OVC036 10/09 Q1025 NOSIG
ZGSZ,2020-10-20 09:00,114.1000,22.5500,80.60,62.60,54.30,340.00,11.66,0.00,29.94,M,6.21,M,FEW,M,M,M,4300.00,M,M,M,M,M,M,M,M,M,M,81.84,ZGSZ 200900Z 34006MPS 9999 FEW043 27/17 Q1014 NOSIG
ZHCC,2020-10-20 09:00,113.6500,34.7167,62.60,48.20,59.26,170.00,3.89,0.00,30.15,M,3.11,M,NSC,M,M,M,M,M,M,M,HZ,M,M,M,M,M,M,M,ZHCC 200900Z 17002MPS 110V210 5000 HZ NSC 17/09 Q1021 NOSIG
ZGNN,2020-10-20 09:00,108.2167,22.6333,73.40,59.00,60.67,10.00,5.83,0.00,30.03,M,6.21,M,M,M,M,M,M,M,M,M,M,M,M,M,M,M,M,M,ZGNN 200900Z 01003MPS CAVOK 23/15 Q1017 NOSIG
ZBAA,2020-10-20 09:00,116.5870,40.0741,59.00,50.00,72.01,0.00,0.00,0.00,30.06,M,1.68,M,NSC,M,M,M,M,M,M,M,HZ,M,M,M,M,M,M,M,ZBAA 200900Z 00000MPS 2700 HZ NSC 15/10 Q1018 BECMG TL0930 3000
ZBHH,2020-10-20 09:00,111.6833,40.8167,59.00,14.00,16.83,250.00,29.16,0.00,29.97,M,0.81,44.71,NSC,M,M,M,M,M,M,M,BLSA,M,M,M,M,M,M,M,ZBHH 200900Z 25015G23MPS 1300 R26/P2000U BLSA NSC 15/M10 Q1015 BECMG TL1030 33008MPS 6000 NSW
ZBSJ,2020-10-20 09:00,114.6973,38.2807,66.20,46.40,48.83,160.00,3.89,0.00,30.00,M,2.80,M,NSC,M,M,M,M,M,M,M,HZ,M,M,M,M,M,M,M,ZBSJ 200900Z 16002MPS 4500 HZ NSC 19/08 Q1016 NOSIG
ZBTJ,2020-10-20 09:00,117.3462,39.1243,66.20,42.80,42.57,190.00,5.83,0.00,30.06,M,3.73,M,NSC,M,M,M,M,M,M,M,M,M,M,M,M,M,M,M,ZBTJ 200900Z 19003MPS 6000 NSC 19/06 Q1018 NOSIG
ZYTL,2020-10-20 09:00,121.6333,38.9000,62.60,50.00,63.38,160.00,3.89,0.00,30.18,M,4.35,M,NSC,M,M,M,M,M,M,M,M,M,M,M,M,M,M,M,ZYTL 200900Z 16002MPS 120V220 7000 NSC 17/10 Q1022 NOSIG
ZYTX,2020-10-20 09:00,123.4000,41.8000,64.40,42.80,45.32,210.00,7.78,0.00,30.09,M,4.35,M,NSC,M,M,M,M,M,M,M,M,M,M,M,M,M,M,M,ZYTX 200900Z 21004MPS 7000 NSC 18/06 Q1019 NOSIG
ZLLL,2020-10-20 09:00,103.7500,36.0200,53.60,14.00,20.46,M,1.94,0.00,30.36,M,6.21,M,M,M,M,M,M,M,M,M,M,M,M,M,M,M,M,M,ZLLL 200900Z VRB01MPS CAVOK 12/M10 Q1028 NOSIG
ZLXY,2020-10-20 09:00,108.7516,34.4471,66.20,50.00,55.88,220.00,5.83,0.00,30.18,M,6.21,M,M,M,M,M,M,M,M,M,M,M,M,M,M,M,M,M,ZLXY 200900Z 22003MPS CAVOK 19/10 Q1022 NOSIG
ZSAM,2020-10-20 09:00,118.0833,24.4833,77.00,62.60,61.13,40.00,13.61,0.00,29.94,M,6.21,M,BKN,M,M,M,5000.00,M,M,M,M,M,M,M,M,M,M,M,ZSAM 200900Z 04007MPS 9999 BKN050 25/17 Q1014 NOSIG
ZPPP,2020-10-20 09:00,102.6833,25.0167,51.80,51.80,100.00,30.00,7.78,0.00,30.27,M,3.11,M,SCT,SCT,OVC,M,300.00,1600.00,3000.00,M,-RA BR,M,M,M,M,M,M,M,ZPPP 200900Z 03004MPS 5000 -RA BR SCT003 SCT016 OVC030 11/11 Q1025 NOSIG
ZSFZ,2020-10-20 09:00,119.2833,26.0833,71.60,62.60,73.27,30.00,19.44,0.00,30.03,M,6.21,M,BKN,M,M,M,5000.00,M,M,M,M,M,M,M,M,M,M,M,ZSFZ 200900Z 03010MPS 9999 BKN050 22/17 Q1017 NOSIG
ZSHC,2020-10-20 09:00,120.1667,30.2333,68.00,53.60,59.97,80.00,7.78,0.00,30.15,M,6.21,M,M,M,M,M,M,M,M,M,M,M,M,M,M,M,M,M,ZSHC 200900Z 08004MPS CAVOK 20/12 Q1021 NOSIG
ZSNB,2020-10-20 09:00,121.4619,29.8267,69.80,57.20,64.26,10.00,7.78,0.00,30.15,M,6.21,M,M,M,M,M,M,M,M,M,M,M,M,M,M,M,M,M,ZSNB 200900Z 01004MPS CAVOK 21/14 Q1021 NOSIG
ZSOF,2020-10-20 09:00,117.2984,31.7800,64.40,51.80,63.60,M,1.94,0.00,30.18,M,6.21,M,M,M,M,M,M,M,M,M,M,M,M,M,M,M,M,M,ZSOF 200900Z VRB01MPS CAVOK 18/11 Q1022 NOSIG
ZSQD,2020-10-20 09:00,120.3333,36.0667,64.40,50.00,59.50,180.00,7.78,0.00,30.21,M,6.21,M,FEW,M,M,M,4000.00,M,M,M,M,M,M,M,M,M,M,M,ZSQD 200900Z 18004MPS 9999 FEW040 18/10 Q1023 NOSIG
ZSSS,2020-10-20 09:00,121.3363,31.1979,69.80,51.80,52.77,90.00,5.83,0.00,30.18,M,6.21,M,M,M,M,M,M,M,M,M,M,M,M,M,M,M,M,M,ZSSS 200900Z 09003MPS 060V130 CAVOK 21/11 Q1022 NOSIG
ZUCK,2020-10-20 09:00,106.4800,29.5200,62.60,51.80,67.75,270.00,3.89,0.00,30.27,M,6.21,M,SCT,M,M,M,3000.00,M,M,M,M,M,M,M,M,M,M,M,ZUCK 200900Z 27002MPS 250V330 9999 SCT030 17/11 Q1025 NOSIG
ZSNJ,2020-10-20 09:00,118.8667,31.7333,66.20,53.60,63.82,40.00,3.89,0.00,30.18,M,6.21,M,M,M,M,M,M,M,M,M,M,M,M,M,M,M,M,M,ZSNJ 200900Z 04002MPS CAVOK 19/12 Q1022 NOSIG
ZSPD,2020-10-20 09:00,121.7667,31.1167,68.00,53.60,59.97,100.00,7.78,0.00,30.18,M,6.21,M,M,M,M,M,M,M,M,M,M,M,M,M,M,M,M,M,ZSPD 200900Z 10004MPS 060V120 CAVOK 20/12 Q1022 NOSIG
ZUUU,2020-10-20 09:00,104.0167,30.6667,60.80,53.60,77.14,270.00,1.94,0.00,30.30,M,6.21,M,FEW,SCT,M,M,2300.00,5000.00,M,M,M,M,M,M,M,M,M,M,ZUUU 200900Z 27001MPS 9999 FEW023 SCT050 16/12 Q1026 NOSIG
ZWWW,2020-10-20 09:00,87.4742,43.9071,66.20,19.40,16.50,350.00,7.78,0.00,30.15,M,6.21,M,M,M,M,M,M,M,M,M,M,M,M,M,M,M,M,M,ZWWW 200900Z 35004MPS CAVOK 19/M07 Q1021 NOSIG
ZYCC,2020-10-20 09:00,125.2167,43.9000,62.60,35.60,36.45,200.00,9.72,0.00,30.00,M,3.73,M,NSC,M,M,M,M,M,M,M,M,M,M,M,M,M,M,M,ZYCC 200900Z 20005MPS 6000 NSC 17/02 Q1016 NOSIG
ZYHB,2020-10-20 09:00,126.5800,46.0200,60.80,44.60,55.12,180.00,9.72,0.00,29.94,M,3.73,M,NSC,M,M,M,M,M,M,M,M,M,M,M,M,M,M,M,ZYHB 200900Z 18005MPS 6000 NSC 16/07 Q1014 NOSIG
ZWSH,2020-10-20 09:00,75.9833,39.4667,68.00,14.00,12.27,110.00,5.83,0.00,30.27,M,6.21,M,M,M,M,M,M,M,M,M,M,M,M,M,M,M,M,M,ZWSH 200900Z 11003MPS 030V190 CAVOK 20/M10 Q1025 NOSIG
ZBAD,2020-10-20 09:00,116.4106,39.5092,60.80,48.20,63.15,0.00,0.00,0.00,30.06,M,2.17,M,NSC,M,M,M,M,M,M,M,HZ,M,M,M,M,M,M,M,ZBAD 200900Z 00000MPS 3500 HZ NSC 16/09 Q1018 NOSIG
ZSHC,2020-10-20 09:30,120.1667,30.2333,66.20,53.60,63.82,80.00,5.83,0.00,30.15,M,6.21,M,M,M,M,M,M,M,M,M,M,M,M,M,M,M,M,M,ZSHC 200930Z 08003MPS CAVOK 19/12 Q1021 NOSIG
ZSSS,2020-10-20 09:30,121.3363,31.1979,69.80,51.80,52.77,90.00,5.83,0.00,30.18,M,6.21,M,M,M,M,M,M,M,M,M,M,M,M,M,M,M,M,M,ZSSS 200930Z 09003MPS CAVOK 21/11 Q1022 NOSIG
ZSPD,2020-10-20 09:30,121.7667,31.1167,68.00,55.40,64.04,70.00,7.78,0.00,30.18,M,6.21,M,M,M,M,M,M,M,M,M,M,M,M,M,M,M,M,M,ZSPD 200930Z 07004MPS 030V110 CAVOK 20/13 Q1022 NOSIG
ZWWW,2020-10-20 09:30,87.4742,43.9071,66.20,19.40,16.50,360.00,7.78,0.00,30.15,M,6.21,M,M,M,M,M,M,M,M,M,M,M,M,M,M,M,M,M,ZWWW 200930Z 36004MPS CAVOK 19/M07 Q1021 NOSIG
ZBAD,2020-10-20 09:30,116.4106,39.5092,59.00,48.20,67.33,M,1.94,0.00,30.03,M,2.17,M,NSC,M,M,M,M,M,M,M,HZ,M,M,M,M,M,M,M,ZBAD 200930Z VRB01MPS 3500 HZ NSC 15/09 Q1017 NOSIG
ZMUB,2020-10-20 09:30,106.7666,47.8431,23.00,8.60,53.47,340.00,17.49,0.00,30.06,M,6.21,M,BKN,M,M,M,3300.00,M,M,M,M,M,M,M,M,M,M,8.09,ZMUB 200930Z 34009MPS 9999 BKN033 M05/M13 Q1018 NOSIG RMK QFE656.1 48 MOP
ZBYN,2020-10-20 09:30,112.5500,37.7833,57.20,37.40,47.44,140.00,1.94,0.00,30.09,M,3.11,M,NSC,M,M,M,M,M,M,M,HZ,M,M,M,M,M,M,M,ZBYN 200930Z 14001MPS 5000 HZ NSC 14/03 Q1019 NOSIG
ZGGG,2020-10-20 09:30,113.3008,23.3964,77.00,57.20,50.43,20.00,11.66,0.00,29.97,M,6.21,M,BKN,M,M,M,4000.00,M,M,M,M,M,M,M,M,M,M,M,ZGGG 200930Z 02006MPS 9999 BKN040 25/14 Q1015 NOSIG
ZBAA,2020-10-20 09:30,116.5870,40.0741,55.40,50.00,81.99,0.00,0.00,0.00,30.03,M,1.93,M,NSC,M,M,M,M,M,M,M,BR,M,M,M,M,M,M,M,ZBAA 200930Z 00000MPS 3100 BR NSC 13/10 Q1017 NOSIG
ZBTJ,2020-10-20 09:30,117.3462,39.1243,66.20,41.00,39.72,210.00,3.89,0.00,30.06,M,3.73,M,NSC,M,M,M,M,M,M,M,M,M,M,M,M,M,M,M,ZBTJ 200930Z 21002MPS 6000 NSC 19/05 Q1018 NOSIG
ZYTL,2020-10-20 09:30,121.6333,38.9000,62.60,51.80,67.75,M,3.89,0.00,30.18,M,4.35,M,NSC,M,M,M,M,M,M,M,M,M,M,M,M,M,M,M,ZYTL 200930Z VRB02MPS 7000 NSC 17/11 Q1022 NOSIG
ZYTX,2020-10-20 09:30,123.4000,41.8000,60.80,42.80,51.45,220.00,5.83,0.00,30.09,M,4.35,M,NSC,M,M,M,M,M,M,M,M,M,M,M,M,M,M,M,ZYTX 200930Z 22003MPS 7000 NSC 16/06 Q1019 NOSIG
ZMUB,2020-10-20 10:00,106.7666,47.8431,23.00,10.40,57.96,320.00,15.55,0.00,30.06,M,6.21,M,BKN,M,M,M,3300.00,M,M,M,M,M,M,M,M,M,M,8.88,ZMUB 201000Z 32008MPS 9999 BKN033 M05/M12 Q1018 NOSIG RMK QFE656.4 62 MOP
ZLLL,2020-10-20 10:00,103.7500,36.0200,51.80,15.80,23.65,M,1.94,0.00,30.33,M,6.21,M,M,M,M,M,M,M,M,M,M,M,M,M,M,M,M,M,ZLLL 201000Z VRB01MPS CAVOK 11/M09 Q1027 NOSIG
ZLXY,2020-10-20 10:00,108.7516,34.4471,62.60,51.80,67.75,220.00,3.89,0.00,30.18,M,6.21,M,M,M,M,M,M,M,M,M,M,M,M,M,M,M,M,M,ZLXY 201000Z 22002MPS CAVOK 17/11 Q1022 NOSIG
ZSAM,2020-10-20 10:00,118.0833,24.4833,75.20,62.60,64.91,40.00,9.72,0.00,29.94,M,6.21,M,SCT,M,M,M,5000.00,M,M,M,M,M,M,M,M,M,M,M,ZSAM 201000Z 04005MPS 9999 SCT050 24/17 Q1014 NOSIG
ZPPP,2020-10-20 10:00,102.6833,25.0167,51.80,51.80,100.00,40.00,5.83,0.00,30.30,M,2.17,M,SCT,SCT,OVC,M,300.00,1600.00,3000.00,M,-RA BR,M,M,M,M,M,M,M,ZPPP 201000Z 04003MPS 3500 -RA BR SCT003 SCT016 OVC030 11/11 Q1026 NOSIG
ZSFZ,2020-10-20 10:00,119.2833,26.0833,71.60,60.80,68.75,30.00,17.49,0.00,30.03,M,6.21,M,BKN,M,M,M,5000.00,M,M,M,M,M,M,M,M,M,M,M,ZSFZ 201000Z 03009MPS 9999 BKN050 22/16 Q1017 NOSIG
ZSHC,2020-10-20 10:00,120.1667,30.2333,66.20,53.60,63.82,80.00,3.89,0.00,30.15,M,6.21,M,M,M,M,M,M,M,M,M,M,M,M,M,M,M,M,M,ZSHC 201000Z 08002MPS CAVOK 19/12 Q1021 NOSIG
ZSNB,2020-10-20 10:00,121.4619,29.8267,68.00,57.20,68.35,10.00,3.89,0.00,30.15,M,6.21,M,M,M,M,M,M,M,M,M,M,M,M,M,M,M,M,M,ZSNB 201000Z 01002MPS 330V050 CAVOK 20/14 Q1021 NOSIG
ZSOF,2020-10-20 10:00,117.2984,31.7800,62.60,51.80,67.75,140.00,3.89,0.00,30.15,M,6.21,M,M,M,M,M,M,M,M,M,M,M,M,M,M,M,M,M,ZSOF 201000Z 14002MPS CAVOK 17/11 Q1021 NOSIG
ZSQD,2020-10-20 10:00,120.3333,36.0667,62.60,50.00,63.38,180.00,5.83,0.00,30.18,M,6.21,M,M,M,M,M,M,M,M,M,M,M,M,M,M,M,M,M,ZSQD 201000Z 18003MPS CAVOK 17/10 Q1022 NOSIG
ZSSS,2020-10-20 10:00,121.3363,31.1979,68.00,53.60,59.97,80.00,5.83,0.00,30.15,M,6.21,M,M,M,M,M,M,M,M,M,M,M,M,M,M,M,M,M,ZSSS 201000Z 08003MPS CAVOK 20/12 Q1021 NOSIG
ZUCK,2020-10-20 10:00,106.4800,29.5200,60.80,53.60,77.14,270.00,5.83,0.00,30.27,M,6.21,M,SCT,M,M,M,3000.00,M,M,M,M,M,M,M,M,M,M,M,ZUCK 201000Z 27003MPS 9999 SCT030 16/12 Q1025 NOSIG
ZSNJ,2020-10-20 10:00,118.8667,31.7333,64.40,55.40,72.56,40.00,3.89,0.00,30.18,M,6.21,M,M,M,M,M,M,M,M,M,M,M,M,M,M,M,M,M,ZSNJ 201000Z 04002MPS CAVOK 18/13 Q1022 NOSIG
ZSPD,2020-10-20 10:00,121.7667,31.1167,66.20,55.40,68.15,40.00,5.83,0.00,30.18,M,6.21,M,M,M,M,M,M,M,M,M,M,M,M,M,M,M,M,M,ZSPD 201000Z 04003MPS CAVOK 19/13 Q1022 NOSIG
ZUUU,2020-10-20 10:00,104.0167,30.6667,60.80,55.40,82.37,240.00,5.83,0.00,30.33,M,6.21,M,SCT,M,M,M,5000.00,M,M,M,M,M,M,M,M,M,M,M,ZUUU 201000Z 24003MPS 9999 SCT050 16/13 Q1027 NOSIG
ZWWW,2020-10-20 10:00,87.4742,43.9071,64.40,19.40,17.56,360.00,7.78,0.00,30.15,M,6.21,M,M,M,M,M,M,M,M,M,M,M,M,M,M,M,M,M,ZWWW 201000Z 36004MPS CAVOK 18/M07 Q1021 NOSIG
ZYCC,2020-10-20 10:00,125.2167,43.9000,60.80,35.60,38.85,210.00,9.72,0.00,30.00,M,3.73,M,NSC,M,M,M,M,M,M,M,M,M,M,M,M,M,M,M,ZYCC 201000Z 21005MPS 6000 NSC 16/02 Q1016 NOSIG
ZYHB,2020-10-20 10:00,126.5800,46.0200,59.00,42.80,54.86,180.00,9.72,0.00,29.94,M,4.97,M,NSC,M,M,M,M,M,M,M,M,M,M,M,M,M,M,M,ZYHB 201000Z 18005MPS 8000 NSC 15/06 Q1014 NOSIG
ZWSH,2020-10-20 10:00,75.9833,39.4667,68.00,12.20,11.34,140.00,3.89,0.00,30.27,M,6.21,M,M,M,M,M,M,M,M,M,M,M,M,M,M,M,M,M,ZWSH 201000Z 14002MPS 080V180 CAVOK 20/M11 Q1025 NOSIG
ZGHA,2020-10-20 10:00,112.8667,28.2333,64.40,57.20,77.45,340.00,11.66,0.00,30.18,M,3.73,M,OVC,M,M,M,4000.00,M,M,M,M,M,M,M,M,M,M,M,ZGHA 201000Z 34006MPS 6000 OVC040 18/14 Q1022 NOSIG
ZBYN,2020-10-20 10:00,112.5500,37.7833,57.20,37.40,47.44,M,1.94,0.00,30.09,M,3.73,M,NSC,M,M,M,M,M,M,M,M,M,M,M,M,M,M,M,ZBYN 201000Z VRB01MPS 6000 NSC 14/03 Q1019 NOSIG
ZGGG,2020-10-20 10:00,113.3008,23.3964,75.20,57.20,53.55,30.00,11.66,0.00,29.97,M,6.21,M,SCT,M,M,M,4000.00,M,M,M,M,M,M,M,M,M,M,M,ZGGG 201000Z 03006MPS 9999 SCT040 24/14 Q1015 NOSIG
ZGKL,2020-10-20 10:00,110.3000,25.3333,66.20,55.40,68.15,50.00,11.66,0.00,30.12,M,6.21,M,BKN,OVC,M,M,3600.00,6600.00,M,M,M,M,M,M,M,M,M,M,ZGKL 201000Z 05006MPS 9999 BKN036 OVC066 19/13 Q1020 NOSIG
ZGOW,2020-10-20 10:00,116.6833,23.4000,78.80,68.00,69.52,220.00,5.83,0.00,29.91,M,6.21,M,BKN,M,M,M,5000.00,M,M,M,M,M,M,M,M,M,M,M,ZGOW 201000Z 22003MPS 9999 BKN050 26/20 Q1013 NOSIG
ZHHH,2020-10-20 10:00,114.1300,30.6200,62.60,55.40,77.29,300.00,3.89,0.00,30.18,M,3.11,M,NSC,M,M,M,M,M,M,M,BR,M,M,M,M,M,M,M,ZHHH 201000Z 30002MPS 220V010 5000 BR NSC 17/13 Q1022 NOSIG
ZJHK,2020-10-20 10:00,110.4590,19.9349,77.00,69.80,78.48,40.00,11.66,0.00,29.91,M,6.21,M,FEW,SCT,M,M,2300.00,3000.00,M,M,M,M,M,M,M,M,M,M,ZJHK 201000Z 04006MPS 9999 FEW023 SCT030 25/21 Q1013 NOSIG
ZJSY,2020-10-20 10:00,109.4123,18.3029,80.60,71.60,74.11,60.00,9.72,0.00,29.85,M,6.21,M,FEW,M,M,M,2000.00,M,M,M,M,M,M,M,M,M,M,84.57,ZJSY 201000Z 06005MPS 9999 FEW020 27/22 Q1011 NOSIG
ZUGY,2020-10-20 10:00,106.7333,26.5833,50.00,48.20,93.50,30.00,5.83,0.00,30.27,M,6.21,M,FEW,BKN,OVC,M,700.00,1500.00,3600.00,M,M,M,M,M,M,M,M,M,ZUGY 201000Z 03003MPS 9999 FEW007 BKN015 OVC036 10/09 Q1025 NOSIG
ZGSZ,2020-10-20 10:00,114.1000,22.5500,78.80,64.40,61.36,340.00,11.66,0.00,29.94,M,6.21,M,BKN,M,M,M,4300.00,M,M,M,M,M,M,M,M,M,M,M,ZGSZ 201000Z 34006MPS 9999 BKN043 26/18 Q1014 NOSIG
ZHCC,2020-10-20 10:00,113.6500,34.7167,60.80,50.00,67.54,190.00,3.89,0.00,30.15,M,3.11,M,NSC,M,M,M,M,M,M,M,HZ,M,M,M,M,M,M,M,ZHCC 201000Z 19002MPS 150V230 5000 HZ NSC 16/10 Q1021 NOSIG
ZGNN,2020-10-20 10:00,108.2167,22.6333,71.60,59.00,64.48,360.00,5.83,0.00,30.03,M,6.21,M,FEW,M,M,M,4300.00,M,M,M,M,M,M,M,M,M,M,M,ZGNN 201000Z 36003MPS 9999 FEW043 22/15 Q1017 NOSIG
ZBAA,2020-10-20 10:00,116.5870,40.0741,53.60,48.20,81.87,M,1.94,0.00,30.03,M,2.17,M,NSC,M,M,M,M,M,M,M,BR,M,M,M,M,M,M,M,ZBAA 201000Z VRB01MPS 3500 BR NSC 12/09 Q1017 BECMG TL1140 2800
ZBHH,2020-10-20 10:00,111.6833,40.8167,57.20,14.00,17.95,240.00,21.38,0.00,29.97,M,1.55,31.10,FEW,M,M,M,4000.00,M,M,M,BLSA,M,M,M,M,M,M,M,ZBHH 201000Z 24011G16MPS 2500 BLSA FEW040 14/M10 Q1015 BECMG TL1130 33006G11MPS 6000 NSW
ZBSJ,2020-10-20 10:00,114.6973,38.2807,60.80,48.20,63.15,M,1.94,0.00,30.00,M,2.80,M,NSC,M,M,M,M,M,M,M,HZ,M,M,M,M,M,M,M,ZBSJ 201000Z VRB01MPS 4500 HZ NSC 16/09 Q1016 NOSIG
ZBTJ,2020-10-20 10:00,117.3462,39.1243,64.40,42.80,45.32,170.00,3.89,0.00,30.06,M,3.73,M,NSC,M,M,M,M,M,M,M,M,M,M,M,M,M,M,M,ZBTJ 201000Z 17002MPS 6000 NSC 18/06 Q1018 NOSIG
ZYTL,2020-10-20 10:00,121.6333,38.9000,62.60,51.80,67.75,150.00,3.89,0.00,30.15,M,4.35,M,NSC,M,M,M,M,M,M,M,M,M,M,M,M,M,M,M,ZYTL 201000Z 15002MPS 110V190 7000 NSC 17/11 Q1021 NOSIG
ZYTX,2020-10-20 10:00,123.4000,41.8000,62.60,42.80,48.28,210.00,7.78,0.00,30.09,M,4.35,M,NSC,M,M,M,M,M,M,M,M,M,M,M,M,M,M,M,ZYTX 201000Z 21004MPS 7000 NSC 17/06 Q1019 NOSIG
ZBAD,2020-10-20 10:00,116.4106,39.5092,57.20,50.00,76.82,310.00,1.94,0.00,30.03,M,2.17,M,NSC,M,M,M,M,M,M,M,BR,M,M,M,M,M,M,M,ZBAD 201000Z 31001MPS 3500 BR NSC 14/10 Q1017 NOSIG
ZMUB,2020-10-20 10:30,106.7666,47.8431,23.00,10.40,57.96,330.00,13.61,0.00,30.09,M,6.21,M,SCT,M,M,M,3300.00,M,M,M,M,M,M,M,M,M,M,9.75,ZMUB 201030Z 33007MPS 9999 SCT033 M05/M12 Q1019 NOSIG RMK QFE656.5 54 MOP
ZBYN,2020-10-20 10:30,112.5500,37.7833,55.40,37.40,50.64,M,1.94,0.00,30.12,M,3.73,M,NSC,M,M,M,M,M,M,M,M,M,M,M,M,M,M,M,ZBYN 201030Z VRB01MPS 6000 NSC 13/03 Q1020 NOSIG
ZGGG,2020-10-20 10:30,113.3008,23.3964,75.20,59.00,57.12,20.00,9.72,0.00,29.97,M,6.21,M,FEW,M,M,M,4000.00,M,M,M,M,M,M,M,M,M,M,M,ZGGG 201030Z 02005MPS 9999 FEW040 24/15 Q1015 NOSIG
ZBAA,2020-10-20 10:30,116.5870,40.0741,53.60,48.20,81.87,360.00,3.89,0.00,30.03,M,2.17,M,NSC,M,M,M,M,M,M,M,BR,M,M,M,M,M,M,M,ZBAA 201030Z 36002MPS 340V040 3500 BR NSC 12/09 Q1017 NOSIG
ZBTJ,2020-10-20 10:30,117.3462,39.1243,62.60,42.80,48.28,170.00,5.83,0.00,30.06,M,3.73,M,NSC,M,M,M,M,M,M,M,M,M,M,M,M,M,M,M,ZBTJ 201030Z 17003MPS 6000 NSC 17/06 Q1018 NOSIG
ZYTL,2020-10-20 10:30,121.6333,38.9000,62.60,51.80,67.75,140.00,3.89,0.00,30.15,M,4.35,M,NSC,M,M,M,M,M,M,M,M,M,M,M,M,M,M,M,ZYTL 201030Z 14002MPS 100V190 7000 NSC 17/11 Q1021 NOSIG
ZYTX,2020-10-20 10:30,123.4000,41.8000,60.80,42.80,51.45,200.00,5.83,0.00,30.09,M,3.11,M,NSC,M,M,M,M,M,M,M,HZ,M,M,M,M,M,M,M,ZYTX 201030Z 20003MPS 5000 HZ NSC 16/06 Q1019 NOSIG
ZSHC,2020-10-20 10:30,120.1667,30.2333,66.20,51.80,59.74,50.00,7.78,0.00,30.15,M,6.21,M,M,M,M,M,M,M,M,M,M,M,M,M,M,M,M,M,ZSHC 201030Z 05004MPS CAVOK 19/11 Q1021 NOSIG
ZSSS,2020-10-20 10:30,121.3363,31.1979,68.00,51.80,56.13,100.00,5.83,0.00,30.15,M,6.21,M,M,M,M,M,M,M,M,M,M,M,M,M,M,M,M,M,ZSSS 201030Z 10003MPS CAVOK 20/11 Q1021 NOSIG
ZSPD,2020-10-20 10:30,121.7667,31.1167,68.00,55.40,64.04,50.00,7.78,0.00,30.15,M,6.21,M,M,M,M,M,M,M,M,M,M,M,M,M,M,M,M,M,ZSPD 201030Z 05004MPS 010V070 CAVOK 20/13 Q1021 NOSIG
ZWWW,2020-10-20 10:30,87.4742,43.9071,64.40,19.40,17.56,340.00,5.83,0.00,30.15,M,6.21,M,M,M,M,M,M,M,M,M,M,M,M,M,M,M,M,M,ZWWW 201030Z 34003MPS CAVOK 18/M07 Q1021 NOSIG
ZBAD,2020-10-20 10:30,116.4106,39.5092,57.20,50.00,76.82,M,1.94,0.00,30.03,M,2.17,M,NSC,M,M,M,M,M,M,M,BR,M,M,M,M,M,M,M,ZBAD 201030Z VRB01MPS 3500 BR NSC 14/10 Q1017 NOSIG
ZMUB,2020-10-20 11:00,106.7666,47.8431,21.20,8.60,57.69,320.00,11.66,0.00,30.09,M,6.21,M,SCT,M,M,M,3300.00,M,M,M,M,M,M,M,M,M,M,8.44,ZMUB 201100Z 32006MPS 9999 SCT033 M06/M13 Q1019 NOSIG RMK QFE656.6 53 NT
ZGHA,2020-10-20 11:00,112.8667,28.2333,62.60,59.00,88.00,320.00,5.83,0.00,30.21,M,3.11,M,SCT,M,M,M,4000.00,M,M,M,BR,M,M,M,M,M,M,M,ZGHA 201100Z 32003MPS 5000 BR SCT040 17/15 Q1023 NOSIG
ZBYN,2020-10-20 11:00,112.5500,37.7833,57.20,35.60,44.19,M,1.94,0.00,30.09,M,3.73,M,NSC,M,M,M,M,M,M,M,M,M,M,M,M,M,M,M,ZBYN 201100Z VRB01MPS 6000 NSC 14/02 Q1019 NOSIG
ZGGG,2020-10-20 11:00,113.3008,23.3964,75.20,59.00,57.12,20.00,9.72,0.00,30.00,M,6.21,M,M,M,M,M,M,M,M,M,M,M,M,M,M,M,M,M,ZGGG 201100Z 02005MPS CAVOK 24/15 Q1016 NOSIG
ZGKL,2020-10-20 11:00,110.3000,25.3333,66.20,55.40,68.15,50.00,9.72,0.00,30.15,M,6.21,M,BKN,OVC,M,M,4600.00,6600.00,M,M,M,M,M,M,M,M,M,M,ZGKL 201100Z 05005MPS 9999 BKN046 OVC066 19/13 Q1021 NOSIG
ZGOW,2020-10-20 11:00,116.6833,23.4000,78.80,68.00,69.52,200.00,3.89,0.00,29.91,M,6.21,M,BKN,M,M,M,5000.00,M,M,M,M,M,M,M,M,M,M,M,ZGOW 201100Z 20002MPS 160V240 9999 BKN050 26/20 Q1013 BECMG 36005MPS
ZHHH,2020-10-20 11:00,114.1300,30.6200,62.60,55.40,77.29,M,1.94,0.00,30.18,M,3.73,M,NSC,M,M,M,M,M,M,M,M,M,M,M,M,M,M,M,ZHHH 201100Z VRB01MPS 6000 NSC 17/13 Q1022 NOSIG
ZJHK,2020-10-20 11:00,110.4590,19.9349,75.20,69.80,83.32,50.00,9.72,0.00,29.94,M,6.21,M,FEW,SCT,M,M,2300.00,3000.00,M,M,M,M,M,M,M,M,M,M,ZJHK 201100Z 05005MPS 9999 FEW023 SCT030 24/21 Q1014 NOSIG
ZJSY,2020-10-20 11:00,109.4123,18.3029,80.60,71.60,74.11,70.00,9.72,0.00,29.85,M,6.21,M,FEW,M,M,M,2000.00,M,M,M,M,M,M,M,M,M,M,84.57,ZJSY 201100Z 07005MPS 9999 FEW020 27/22 Q1011 NOSIG
ZUGY,2020-10-20 11:00,106.7333,26.5833,50.00,48.20,93.50,30.00,5.83,0.00,30.27,M,4.97,M,SCT,BKN,OVC,M,600.00,1500.00,3600.00,M,-RA,M,M,M,M,M,M,M,ZUGY 201100Z 03003MPS 8000 -RA SCT006 BKN015 OVC036 10/09 Q1025 NOSIG
ZGSZ,2020-10-20 11:00,114.1000,22.5500,77.00,62.60,61.13,340.00,15.55,0.00,29.94,M,6.21,M,SCT,M,M,M,4300.00,M,M,M,M,M,M,M,M,M,M,M,ZGSZ 201100Z 34008MPS 9999 SCT043 25/17 Q1014 NOSIG
ZHCC,2020-10-20 11:00,113.6500,34.7167,60.80,50.00,67.54,190.00,3.89,0.00,30.15,M,3.11,M,NSC,M,M,M,M,M,M,M,HZ,M,M,M,M,M,M,M,ZHCC 201100Z 19002MPS 120V230 5000 HZ NSC 16/10 Q1021 NOSIG
ZGNN,2020-10-20 11:00,108.2167,22.6333,69.80,59.00,68.55,340.00,7.78,0.00,30.06,M,6.21,M,M,M,M,M,M,M,M,M,M,M,M,M,M,M,M,M,ZGNN 201100Z 34004MPS 320V020 CAVOK 21/15 Q1018 NOSIG
ZBAA,2020-10-20 11:00,116.5870,40.0741,53.60,50.00,87.56,120.00,3.89,0.00,30.03,M,2.17,M,NSC,M,M,M,M,M,M,M,BR,M,M,M,M,M,M,M,ZBAA 201100Z 12002MPS 3500 BR NSC 12/10 Q1017 BECMG TL1140 2800
ZBHH,2020-10-20 11:00,111.6833,40.8167,48.20,3.20,15.37,310.00,23.33,0.00,30.06,M,2.17,34.99,FEW,M,M,M,4000.00,M,M,M,SA,M,M,M,M,M,M,40.03,ZBHH 201100Z 31012G18MPS 3500 SA FEW040 09/M16 Q1018 BECMG TL1230 33007MPS
ZBSJ,2020-10-20 11:00,114.6973,38.2807,60.80,48.20,63.15,M,1.94,0.00,30.03,M,2.80,M,NSC,M,M,M,M,M,M,M,HZ,M,M,M,M,M,M,M,ZBSJ 201100Z VRB01MPS 4500 HZ NSC 16/09 Q1017 NOSIG
ZBTJ,2020-10-20 11:00,117.3462,39.1243,64.40,42.80,45.32,170.00,9.72,0.00,30.03,M,3.73,M,NSC,M,M,M,M,M,M,M,M,M,M,M,M,M,M,M,ZBTJ 201100Z 17005MPS 6000 NSC 18/06 Q1017 NOSIG
ZYTL,2020-10-20 11:00,121.6333,38.9000,62.60,53.60,72.38,130.00,5.83,0.00,30.15,M,4.35,M,NSC,M,M,M,M,M,M,M,M,M,M,M,M,M,M,M,ZYTL 201100Z 13003MPS 100V180 7000 NSC 17/12 Q1021 NOSIG
ZYTX,2020-10-20 11:00,123.4000,41.8000,59.00,42.80,54.86,220.00,5.83,0.00,30.09,M,3.11,M,NSC,M,M,M,M,M,M,M,HZ,M,M,M,M,M,M,M,ZYTX 201100Z 22003MPS 5000 HZ NSC 15/06 Q1019 NOSIG
ZLLL,2020-10-20 11:00,103.7500,36.0200,46.40,21.20,36.48,90.00,5.83,0.00,30.36,M,6.21,M,M,M,M,M,M,M,M,M,M,M,M,M,M,M,M,42.97,ZLLL 201100Z 09003MPS 060V120 CAVOK 08/M06 Q1028 NOSIG
ZLXY,2020-10-20 11:00,108.7516,34.4471,59.00,51.80,76.98,230.00,3.89,0.00,30.18,M,6.21,M,M,M,M,M,M,M,M,M,M,M,M,M,M,M,M,M,ZLXY 201100Z 23002MPS CAVOK 15/11 Q1022 NOSIG
ZSAM,2020-10-20 11:00,118.0833,24.4833,75.20,62.60,64.91,40.00,9.72,0.00,29.97,M,6.21,M,BKN,M,M,M,5000.00,M,M,M,M,M,M,M,M,M,M,M,ZSAM 201100Z 04005MPS 9999 BKN050 24/17 Q1015 NOSIG
ZPPP,2020-10-20 11:00,102.6833,25.0167,51.80,51.80,100.00,30.00,7.78,0.00,30.30,M,3.11,M,SCT,SCT,OVC,M,300.00,1600.00,3000.00,M,-RA BR,M,M,M,M,M,M,M,ZPPP 201100Z 03004MPS 5000 -RA BR SCT003 SCT016 OVC030 11/11 Q1026 NOSIG
ZSFZ,2020-10-20 11:00,119.2833,26.0833,71.60,60.80,68.75,30.00,21.38,0.00,30.03,M,6.21,M,BKN,M,M,M,5000.00,M,M,M,M,M,M,M,M,M,M,M,ZSFZ 201100Z 03011MPS 9999 BKN050 22/16 Q1017 NOSIG
ZSHC,2020-10-20 11:00,120.1667,30.2333,64.40,53.60,67.95,70.00,5.83,0.00,30.15,M,6.21,M,M,M,M,M,M,M,M,M,M,M,M,M,M,M,M,M,ZSHC 201100Z 07003MPS CAVOK 18/12 Q1021 NOSIG
ZSNB,2020-10-20 11:00,121.4619,29.8267,68.00,57.20,68.35,10.00,3.89,0.00,30.15,M,6.21,M,M,M,M,M,M,M,M,M,M,M,M,M,M,M,M,M,ZSNB 201100Z 01002MPS 340V050 CAVOK 20/14 Q1021 NOSIG
ZSOF,2020-10-20 11:00,117.2984,31.7800,60.80,53.60,77.14,340.00,3.89,0.00,30.18,M,6.21,M,M,M,M,M,M,M,M,M,M,M,M,M,M,M,M,M,ZSOF 201100Z 34002MPS CAVOK 16/12 Q1022 NOSIG
ZSQD,2020-10-20 11:00,120.3333,36.0667,62.60,51.80,67.75,160.00,5.83,0.00,30.18,M,6.21,M,M,M,M,M,M,M,M,M,M,M,M,M,M,M,M,M,ZSQD 201100Z 16003MPS CAVOK 17/11 Q1022 NOSIG
ZSSS,2020-10-20 11:00,121.3363,31.1979,68.00,51.80,56.13,100.00,3.89,0.00,30.18,M,6.21,M,M,M,M,M,M,M,M,M,M,M,M,M,M,M,M,M,ZSSS 201100Z 10002MPS CAVOK 20/11 Q1022 NOSIG
ZUCK,2020-10-20 11:00,106.4800,29.5200,60.80,51.80,72.20,300.00,5.83,0.00,30.30,M,6.21,M,SCT,M,M,M,3000.00,M,M,M,M,M,M,M,M,M,M,M,ZUCK 201100Z 30003MPS 9999 SCT030 16/11 Q1026 NOSIG
ZSNJ,2020-10-20 11:00,118.8667,31.7333,64.40,53.60,67.95,60.00,3.89,0.00,30.18,M,6.21,M,M,M,M,M,M,M,M,M,M,M,M,M,M,M,M,M,ZSNJ 201100Z 06002MPS CAVOK 18/12 Q1022 NOSIG
ZSPD,2020-10-20 11:00,121.7667,31.1167,66.20,55.40,68.15,40.00,5.83,0.00,30.15,M,6.21,M,M,M,M,M,M,M,M,M,M,M,M,M,M,M,M,M,ZSPD 201100Z 04003MPS 010V070 CAVOK 19/13 Q1021 NOSIG
ZUUU,2020-10-20 11:00,104.0167,30.6667,59.00,55.40,87.83,250.00,3.89,0.00,30.33,M,6.21,M,M,M,M,M,M,M,M,M,M,M,M,M,M,M,M,M,ZUUU 201100Z 25002MPS 210V270 CAVOK 15/13 Q1027 NOSIG
ZWWW,2020-10-20 11:00,87.4742,43.9071,62.60,21.20,20.20,330.00,5.83,0.00,30.15,M,6.21,M,M,M,M,M,M,M,M,M,M,M,M,M,M,M,M,M,ZWWW 201100Z 33003MPS CAVOK 17/M06 Q1021 NOSIG
ZYCC,2020-10-20 11:00,125.2167,43.9000,60.80,35.60,38.85,200.00,11.66,0.00,30.00,M,4.35,M,NSC,M,M,M,M,M,M,M,M,M,M,M,M,M,M,M,ZYCC 201100Z 20006MPS 7000 NSC 16/02 Q1016 NOSIG
ZYHB,2020-10-20 11:00,126.5800,46.0200,57.20,42.80,58.52,170.00,9.72,0.00,29.94,M,4.35,M,NSC,M,M,M,M,M,M,M,M,M,M,M,M,M,M,M,ZYHB 201100Z 17005MPS 7000 NSC 14/06 Q1014 NOSIG
ZWSH,2020-10-20 11:00,75.9833,39.4667,66.20,10.40,11.14,160.00,3.89,0.00,30.27,M,6.21,M,M,M,M,M,M,M,M,M,M,M,M,M,M,M,M,M,ZWSH 201100Z 16002MPS 100V200 CAVOK 19/M12 Q1025 NOSIG
ZBAD,2020-10-20 11:00,116.4106,39.5092,55.40,50.00,81.99,320.00,5.83,0.00,30.03,M,2.17,M,NSC,M,M,M,M,M,M,M,BR,M,M,M,M,M,M,M,ZBAD 201100Z 32003MPS 3500 BR NSC 13/10 Q1017 NOSIG
ZBYN,2020-10-20 11:30,112.5500,37.7833,57.20,37.40,47.44,M,1.94,0.00,30.12,M,3.73,M,NSC,M,M,M,M,M,M,M,M,M,M,M,M,M,M,M,ZBYN 201130Z VRB01MPS 6000 NSC 14/03 Q1020 NOSIG
ZGGG,2020-10-20 11:30,113.3008,23.3964,73.40,57.20,56.88,20.00,9.72,0.00,30.00,M,6.21,M,M,M,M,M,M,M,M,M,M,M,M,M,M,M,M,M,ZGGG 201130Z 02005MPS CAVOK 23/14 Q1016 NOSIG
ZBAA,2020-10-20 11:30,116.5870,40.0741,53.60,48.20,81.87,10.00,1.94,0.00,30.03,M,2.17,M,NSC,M,M,M,M,M,M,M,BR,M,M,M,M,M,M,M,ZBAA 201130Z 01001MPS 3500 BR NSC 12/09 Q1017 NOSIG
ZBTJ,2020-10-20 11:30,117.3462,39.1243,64.40,41.00,42.28,180.00,9.72,0.00,30.03,M,3.11,M,NSC,M,M,M,M,M,M,M,HZ,M,M,M,M,M,M,M,ZBTJ 201130Z 18005MPS 5000 HZ NSC 18/05 Q1017 NOSIG
ZYTL,2020-10-20 11:30,121.6333,38.9000,62.60,53.60,72.38,150.00,3.89,0.00,30.15,M,4.35,M,NSC,M,M,M,M,M,M,M,M,M,M,M,M,M,M,M,ZYTL 201130Z 15002MPS 090V180 7000 NSC 17/12 Q1021 NOSIG
ZYTX,2020-10-20 11:30,123.4000,41.8000,59.00,42.80,54.86,220.00,5.83,0.00,30.09,M,3.11,M,NSC,M,M,M,M,M,M,M,HZ,M,M,M,M,M,M,M,ZYTX 201130Z 22003MPS 5000 HZ NSC 15/06 Q1019 NOSIG
ZSHC,2020-10-20 11:30,120.1667,30.2333,62.60,53.60,72.38,70.00,5.83,0.00,30.15,M,6.21,M,M,M,M,M,M,M,M,M,M,M,M,M,M,M,M,M,ZSHC 201130Z 07003MPS CAVOK 17/12 Q1021 NOSIG
ZSSS,2020-10-20 11:30,121.3363,31.1979,68.00,51.80,56.13,80.00,1.94,0.00,30.18,M,6.21,M,M,M,M,M,M,M,M,M,M,M,M,M,M,M,M,M,ZSSS 201130Z 08001MPS CAVOK 20/11 Q1022 NOSIG
ZSPD,2020-10-20 11:30,121.7667,31.1167,66.20,55.40,68.15,10.00,5.83,0.00,30.15,M,6.21,M,M,M,M,M,M,M,M,M,M,M,M,M,M,M,M,M,ZSPD 201130Z 01003MPS CAVOK 19/13 Q1021 NOSIG
ZWWW,2020-10-20 11:30,87.4742,43.9071,60.80,21.20,21.53,310.00,5.83,0.00,30.15,M,6.21,M,M,M,M,M,M,M,M,M,M,M,M,M,M,M,M,M,ZWWW 201130Z 31003MPS CAVOK 16/M06 Q1021 NOSIG
ZBAD,2020-10-20 11:30,116.4106,39.5092,55.40,50.00,81.99,M,1.94,0.00,30.03,M,2.17,M,NSC,M,M,M,M,M,M,M,BR,M,M,M,M,M,M,M,ZBAD 201130Z VRB01MPS 3500 BR NSC 13/10 Q1017 NOSIG
ZMUB,2020-10-20 11:30,106.7666,47.8431,17.60,8.60,67.28,290.00,5.83,0.00,30.09,M,6.21,M,FEW,M,M,M,3300.00,M,M,M,M,M,M,M,M,M,M,8.36,ZMUB 201130Z 29003MPS 9999 FEW033 M08/M13 Q1019 NOSIG RMK QFE656.6 65 NT
ZMUB,2020-10-20 12:00,106.7666,47.8431,17.60,10.40,72.93,280.00,5.83,0.00,30.09,M,6.21,M,M,M,M,M,M,M,M,M,M,M,M,M,M,M,M,8.36,ZMUB 201200Z 28003MPS CAVOK M08/M12 Q1019 NOSIG RMK QFE656.9 70
ZGHA,2020-10-20 12:00,112.8667,28.2333,62.60,57.20,82.50,340.00,7.78,0.00,30.21,M,3.11,M,BKN,M,M,M,2000.00,M,M,M,BR,M,M,M,M,M,M,M,ZGHA 201200Z 34004MPS 5000 BR BKN020 17/14 Q1023 NOSIG
ZBYN,2020-10-20 12:00,112.5500,37.7833,55.40,37.40,50.64,190.00,3.89,0.00,30.12,M,3.73,M,NSC,M,M,M,M,M,M,M,M,M,M,M,M,M,M,M,ZBYN 201200Z 19002MPS 140V270 6000 NSC 13/03 Q1020 NOSIG
ZGGG,2020-10-20 12:00,113.3008,23.3964,73.40,57.20,56.88,10.00,9.72,0.00,30.00,M,6.21,M,M,M,M,M,M,M,M,M,M,M,M,M,M,M,M,M,ZGGG 201200Z 01005MPS CAVOK 23/14 Q1016 NOSIG
ZGKL,2020-10-20 12:00,110.3000,25.3333,64.40,57.20,77.45,40.00,5.83,0.00,30.18,M,6.21,M,SCT,OVC,M,M,4000.00,6000.00,M,M,M,M,M,M,M,M,M,M,ZGKL 201200Z 04003MPS 9999 SCT040 OVC060 18/14 Q1022 NOSIG
ZGOW,2020-10-20 12:00,116.6833,23.4000,78.80,69.80,73.95,190.00,3.89,0.00,29.94,M,6.21,M,BKN,M,M,M,4300.00,M,M,M,M,M,M,M,M,M,M,M,ZGOW 201200Z 19002MPS 110V280 9999 BKN043 26/21 Q1014 BECMG 36005MPS
ZHHH,2020-10-20 12:00,114.1300,30.6200,62.60,57.20,82.50,280.00,3.89,0.00,30.18,M,3.73,M,NSC,M,M,M,M,M,M,M,M,M,M,M,M,M,M,M,ZHHH 201200Z 28002MPS 240V310 6000 NSC 17/14 Q1022 NOSIG
ZJHK,2020-10-20 12:00,110.4590,19.9349,77.00,69.80,78.48,50.00,9.72,0.00,29.97,M,6.21,M,FEW,SCT,M,M,2300.00,3000.00,M,M,M,M,M,M,M,M,M,M,ZJHK 201200Z 05005MPS 9999 FEW023 SCT030 25/21 Q1015 NOSIG
ZJSY,2020-10-20 12:00,109.4123,18.3029,78.80,71.60,78.62,80.00,5.83,0.00,29.88,M,6.21,M,M,M,M,M,M,M,M,M,M,M,M,M,M,M,M,M,ZJSY 201200Z 08003MPS CAVOK 26/22 Q1012 NOSIG
ZUGY,2020-10-20 12:00,106.7333,26.5833,50.00,48.20,93.50,30.00,5.83,0.00,30.30,M,4.97,M,SCT,BKN,OVC,M,600.00,1500.00,3300.00,M,M,M,M,M,M,M,M,M,ZUGY 201200Z 03003MPS 8000 SCT006 BKN015 OVC033 10/09 Q1026 NOSIG
ZGSZ,2020-10-20 12:00,114.1000,22.5500,77.00,62.60,61.13,350.00,11.66,0.00,29.97,M,6.21,M,SCT,M,M,M,4300.00,M,M,M,M,M,M,M,M,M,M,M,ZGSZ 201200Z 35006MPS 9999 SCT043 25/17 Q1015 NOSIG
ZHCC,2020-10-20 12:00,113.6500,34.7167,60.80,50.00,67.54,200.00,3.89,0.00,30.15,M,3.11,M,NSC,M,M,M,M,M,M,M,HZ,M,M,M,M,M,M,M,ZHCC 201200Z 20002MPS 140V250 5000 HZ NSC 16/10 Q1021 NOSIG
ZGNN,2020-10-20 12:00,108.2167,22.6333,69.80,57.20,64.26,340.00,7.78,0.00,30.06,M,6.21,M,M,M,M,M,M,M,M,M,M,M,M,M,M,M,M,M,ZGNN 201200Z 34004MPS 320V020 CAVOK 21/14 Q1018 NOSIG
ZBAA,2020-10-20 12:00,116.5870,40.0741,51.80,50.00,93.55,M,1.94,0.00,30.03,M,1.80,M,NSC,M,M,M,M,M,M,M,BR,M,M,M,M,M,M,M,ZBAA 201200Z VRB01MPS 2900 BR NSC 11/10 Q1017 BECMG TL1220 3500
ZBHH,2020-10-20 12:00,111.6833,40.8167,44.60,-0.40,14.89,310.00,17.49,0.00,30.12,M,3.73,29.16,NSC,M,M,M,M,M,M,M,M,M,M,M,M,M,M,36.46,ZBHH 201200Z 31009G15MPS 280V340 6000 NSC 07/M18 Q1020 BECMG TL1330 33004MPS
ZBSJ,2020-10-20 12:00,114.6973,38.2807,60.80,48.20,63.15,180.00,3.89,0.00,30.00,M,3.73,M,NSC,M,M,M,M,M,M,M,M,M,M,M,M,M,M,M,ZBSJ 201200Z 18002MPS 6000 NSC 16/09 Q1016 NOSIG
ZBTJ,2020-10-20 12:00,117.3462,39.1243,64.40,41.00,42.28,190.00,7.78,0.00,30.03,M,3.11,M,NSC,M,M,M,M,M,M,M,HZ,M,M,M,M,M,M,M,ZBTJ 201200Z 19004MPS 5000 HZ NSC 18/05 Q1017 NOSIG
ZYTL,2020-10-20 12:00,121.6333,38.9000,64.40,51.80,63.60,170.00,7.78,0.00,30.15,M,6.21,17.49,M,M,M,M,M,M,M,M,M,M,M,M,M,M,M,M,ZYTL 201200Z 17004G09MPS 130V210 CAVOK 18/11 Q1021 NOSIG
ZYTX,2020-10-20 12:00,123.4000,41.8000,59.00,42.80,54.86,200.00,5.83,0.00,30.09,M,3.11,M,NSC,M,M,M,M,M,M,M,HZ,M,M,M,M,M,M,M,ZYTX 201200Z 20003MPS 5000 HZ NSC 15/06 Q1019 NOSIG
ZLLL,2020-10-20 12:00,103.7500,36.0200,46.40,19.40,33.79,M,1.94,0.00,30.39,M,6.21,M,M,M,M,M,M,M,M,M,M,M,M,M,M,M,M,M,ZLLL 201200Z VRB01MPS CAVOK 08/M07 Q1029 NOSIG
ZLXY,2020-10-20 12:00,108.7516,34.4471,55.40,51.80,87.65,240.00,3.89,0.00,30.21,M,6.21,M,M,M,M,M,M,M,M,M,M,M,M,M,M,M,M,M,ZLXY 201200Z 24002MPS 220V280 CAVOK 13/11 Q1023 NOSIG
ZSAM,2020-10-20 12:00,118.0833,24.4833,75.20,62.60,64.91,50.00,7.78,0.00,29.97,M,6.21,M,BKN,M,M,M,5000.00,M,M,M,M,M,M,M,M,M,M,M,ZSAM 201200Z 05004MPS 9999 BKN050 24/17 Q1015 NOSIG
ZPPP,2020-10-20 12:00,102.6833,25.0167,51.80,51.80,100.00,40.00,7.78,0.00,30.33,M,3.11,M,SCT,SCT,OVC,M,300.00,1600.00,3000.00,M,-RA BR,M,M,M,M,M,M,M,ZPPP 201200Z 04004MPS 5000 -RA BR SCT003 SCT016 OVC030 11/11 Q1027 NOSIG
ZSFZ,2020-10-20 12:00,119.2833,26.0833,71.60,60.80,68.75,30.00,17.49,0.00,30.06,M,6.21,M,BKN,M,M,M,5000.00,M,M,M,M,M,M,M,M,M,M,M,ZSFZ 201200Z 03009MPS 9999 BKN050 22/16 Q1018 NOSIG
ZSHC,2020-10-20 12:00,120.1667,30.2333,62.60,55.40,77.29,60.00,3.89,0.00,30.15,M,6.21,M,M,M,M,M,M,M,M,M,M,M,M,M,M,M,M,M,ZSHC 201200Z 06002MPS CAVOK 17/13 Q1021 NOSIG
ZSNB,2020-10-20 12:00,121.4619,29.8267,60.80,57.20,87.92,310.00,3.89,0.00,30.15,M,6.21,M,M,M,M,M,M,M,M,M,M,M,M,M,M,M,M,M,ZSNB 201200Z 31002MPS CAVOK 16/14 Q1021 NOSIG
ZSOF,2020-10-20 12:00,117.2984,31.7800,60.80,55.40,82.37,M,1.94,0.00,30.18,M,6.21,M,M,M,M,M,M,M,M,M,M,M,M,M,M,M,M,M,ZSOF 201200Z VRB01MPS CAVOK 16/13 Q1022 NOSIG
ZSQD,2020-10-20 12:00,120.3333,36.0667,62.60,51.80,67.75,180.00,5.83,0.00,30.18,M,6.21,M,M,M,M,M,M,M,M,M,M,M,M,M,M,M,M,M,ZSQD 201200Z 18003MPS CAVOK 17/11 Q1022 NOSIG
ZSSS,2020-10-20 12:00,121.3363,31.1979,68.00,53.60,59.97,M,1.94,0.00,30.18,M,6.21,M,M,M,M,M,M,M,M,M,M,M,M,M,M,M,M,M,ZSSS 201200Z VRB01MPS CAVOK 20/12 Q1022 NOSIG
ZUCK,2020-10-20 12:00,106.4800,29.5200,60.80,51.80,72.20,290.00,3.89,0.00,30.33,M,6.21,M,M,M,M,M,M,M,M,M,M,M,M,M,M,M,M,M,ZUCK 201200Z 29002MPS 260V320 CAVOK 16/11 Q1027 NOSIG
ZSNJ,2020-10-20 12:00,118.8667,31.7333,64.40,55.40,72.56,40.00,3.89,0.00,30.18,M,6.21,M,M,M,M,M,M,M,M,M,M,M,M,M,M,M,M,M,ZSNJ 201200Z 04002MPS CAVOK 18/13 Q1022 NOSIG
ZSPD,2020-10-20 12:00,121.7667,31.1167,66.20,57.20,72.74,360.00,5.83,0.00,30.15,M,6.21,M,M,M,M,M,M,M,M,M,M,M,M,M,M,M,M,M,ZSPD 201200Z 36003MPS CAVOK 19/14 Q1021 NOSIG
ZUUU,2020-10-20 12:00,104.0167,30.6667,59.00,57.20,93.74,220.00,3.89,0.00,30.33,M,6.21,M,M,M,M,M,M,M,M,M,M,M,M,M,M,M,M,M,ZUUU 201200Z 22002MPS 190V250 CAVOK 15/14 Q1027 NOSIG
ZWWW,2020-10-20 12:00,87.4742,43.9071,59.00,21.20,22.95,320.00,5.83,0.00,30.15,M,6.21,M,M,M,M,M,M,M,M,M,M,M,M,M,M,M,M,M,ZWWW 201200Z 32003MPS CAVOK 15/M06 Q1021 NOSIG
ZYCC,2020-10-20 12:00,125.2167,43.9000,59.00,37.40,44.47,190.00,11.66,0.00,30.00,M,4.35,M,NSC,M,M,M,M,M,M,M,M,M,M,M,M,M,M,M,ZYCC 201200Z 19006MPS 7000 NSC 15/03 Q1016 NOSIG
ZYHB,2020-10-20 12:00,126.5800,46.0200,59.00,42.80,54.86,180.00,11.66,0.00,29.91,M,4.35,M,NSC,M,M,M,M,M,M,M,M,M,M,M,M,M,M,M,ZYHB 201200Z 18006MPS 7000 NSC 15/06 Q1013 NOSIG
ZWSH,2020-10-20 12:00,75.9833,39.4667,64.40,14.00,13.90,150.00,3.89,0.00,30.27,M,6.21,M,M,M,M,M,M,M,M,M,M,M,M,M,M,M,M,M,ZWSH 201200Z 15002MPS 110V180 CAVOK 18/M10 Q1025 NOSIG
ZBAD,2020-10-20 12:00,116.4106,39.5092,53.60,50.00,87.56,300.00,1.94,0.00,30.03,M,2.17,M,NSC,M,M,M,M,M,M,M,BR,M,M,M,M,M,M,M,ZBAD 201200Z 30001MPS 3500 BR NSC 12/10 Q1017 NOSIG
ZSHC,2020-10-20 12:30,120.1667,30.2333,62.60,55.40,77.29,60.00,3.89,0.00,30.15,M,6.21,M,M,M,M,M,M,M,M,M,M,M,M,M,M,M,M,M,ZSHC 201230Z 06002MPS CAVOK 17/13 Q1021 NOSIG
ZSSS,2020-10-20 12:30,121.3363,31.1979,66.20,53.60,63.82,M,1.94,0.00,30.18,M,6.21,M,M,M,M,M,M,M,M,M,M,M,M,M,M,M,M,M,ZSSS 201230Z VRB01MPS CAVOK 19/12 Q1022 NOSIG
ZSPD,2020-10-20 12:30,121.7667,31.1167,62.60,57.20,82.50,330.00,5.83,0.00,30.18,M,6.21,M,M,M,M,M,M,M,M,M,M,M,M,M,M,M,M,M,ZSPD 201230Z 33003MPS CAVOK 17/14 Q1022 NOSIG
ZWWW,2020-10-20 12:30,87.4742,43.9071,57.20,19.40,22.68,310.00,3.89,0.00,30.18,M,6.21,M,M,M,M,M,M,M,M,M,M,M,M,M,M,M,M,M,ZWWW 201230Z 31002MPS CAVOK 14/M07 Q1022 NOSIG
ZBAD,2020-10-20 12:30,116.4106,39.5092,53.60,48.20,81.87,300.00,1.94,0.00,30.00,M,2.17,M,NSC,M,M,M,M,M,M,M,BR,M,M,M,M,M,M,M,ZBAD 201230Z 30001MPS 3500 BR NSC 12/09 Q1016 NOSIG
ZMUB,2020-10-20 12:30,106.7666,47.8431,17.60,10.40,72.93,M,1.94,0.00,30.09,M,6.21,M,M,M,M,M,M,M,M,M,M,M,M,M,M,M,M,M,ZMUB 201230Z VRB01MPS CAVOK M08/M12 Q1019 NOSIG RMK QFE656.9 70
ZBYN,2020-10-20 12:30,112.5500,37.7833,55.40,37.40,50.64,M,3.89,0.00,30.12,M,3.73,M,NSC,M,M,M,M,M,M,M,M,M,M,M,M,M,M,M,ZBYN 201230Z VRB02MPS 6000 NSC 13/03 Q1020 NOSIG
ZGGG,2020-10-20 12:30,113.3008,23.3964,73.40,59.00,60.67,10.00,9.72,0.00,30.03,M,6.21,M,M,M,M,M,M,M,M,M,M,M,M,M,M,M,M,M,ZGGG 201230Z 01005MPS CAVOK 23/15 Q1017 NOSIG
ZBAA,2020-10-20 12:30,116.5870,40.0741,50.00,48.20,93.50,M,1.94,0.00,30.00,M,2.17,M,NSC,M,M,M,M,M,M,M,BR,M,M,M,M,M,M,M,ZBAA 201230Z VRB01MPS 3500 BR NSC 10/09 Q1016 NOSIG
ZBTJ,2020-10-20 12:30,117.3462,39.1243,64.40,41.00,42.28,200.00,11.66,0.00,30.03,M,3.11,M,NSC,M,M,M,M,M,M,M,HZ,M,M,M,M,M,M,M,ZBTJ 201230Z 20006MPS 5000 HZ NSC 18/05 Q1017 NOSIG
ZYTL,2020-10-20 12:30,121.6333,38.9000,64.40,50.00,59.50,180.00,5.83,0.00,30.15,M,6.21,M,M,M,M,M,M,M,M,M,M,M,M,M,M,M,M,M,ZYTL 201230Z 18003MPS 150V210 CAVOK 18/10 Q1021 NOSIG
ZYTX,2020-10-20 12:30,123.4000,41.8000,59.00,42.80,54.86,200.00,5.83,0.00,30.09,M,3.73,M,NSC,M,M,M,M,M,M,M,M,M,M,M,M,M,M,M,ZYTX 201230Z 20003MPS 6000 NSC 15/06 Q1019 NOSIG
ZMUB,2020-10-20 13:00,106.7666,47.8431,15.80,8.60,72.73,300.00,3.89,0.00,30.09,M,6.21,M,M,M,M,M,M,M,M,M,M,M,M,M,M,M,M,8.67,ZMUB 201300Z 30002MPS CAVOK M09/M13 Q1019 NOSIG RMK QFE656.8 72
ZGHA,2020-10-20 13:00,112.8667,28.2333,62.60,57.20,82.50,340.00,11.66,0.00,30.21,M,3.73,M,BKN,M,M,M,4000.00,M,M,M,M,M,M,M,M,M,M,M,ZGHA 201300Z 34006MPS 6000 BKN040 17/14 Q1023 NOSIG
ZBYN,2020-10-20 13:00,112.5500,37.7833,53.60,37.40,54.07,180.00,3.89,0.00,30.12,M,3.73,M,NSC,M,M,M,M,M,M,M,M,M,M,M,M,M,M,M,ZBYN 201300Z 18002MPS 6000 NSC 12/03 Q1020 NOSIG
ZGGG,2020-10-20 13:00,113.3008,23.3964,73.40,59.00,60.67,10.00,9.72,0.00,30.03,M,6.21,M,M,M,M,M,M,M,M,M,M,M,M,M,M,M,M,M,ZGGG 201300Z 01005MPS CAVOK 23/15 Q1017 NOSIG
ZGKL,2020-10-20 13:00,110.3000,25.3333,64.40,55.40,72.56,30.00,5.83,0.00,30.18,M,4.35,M,SCT,OVC,M,M,3300.00,5000.00,M,M,M,M,M,M,M,M,M,M,ZGKL 201300Z 03003MPS 7000 SCT033 OVC050 18/13 Q1022 NOSIG
ZGOW,2020-10-20 13:00,116.6833,23.4000,77.00,64.40,65.12,20.00,5.83,0.00,29.97,M,6.21,M,BKN,M,M,M,4300.00,M,M,M,M,M,M,M,M,M,M,M,ZGOW 201300Z 02003MPS 9999 BKN043 25/18 Q1015 NOSIG
ZHHH,2020-10-20 13:00,114.1300,30.6200,62.60,55.40,77.29,270.00,5.83,0.00,30.21,M,3.73,M,NSC,M,M,M,M,M,M,M,M,M,M,M,M,M,M,M,ZHHH 201300Z 27003MPS 220V310 6000 NSC 17/13 Q1023 NOSIG
ZJHK,2020-10-20 13:00,110.4590,19.9349,77.00,69.80,78.48,60.00,9.72,0.00,29.97,M,6.21,M,FEW,SCT,M,M,2300.00,3000.00,M,M,M,M,M,M,M,M,M,M,ZJHK 201300Z 06005MPS 9999 FEW023 SCT030 25/21 Q1015 NOSIG
ZJSY,2020-10-20 13:00,109.4123,18.3029,77.00,69.80,78.48,90.00,5.83,0.00,29.91,M,6.21,M,M,M,M,M,M,M,M,M,M,M,M,M,M,M,M,M,ZJSY 201300Z 09003MPS CAVOK 25/21 Q1013 NOSIG
ZUGY,2020-10-20 13:00,106.7333,26.5833,50.00,48.20,93.50,10.00,5.83,0.00,30.33,M,4.97,M,SCT,BKN,OVC,M,600.00,1500.00,3300.00,M,M,M,M,M,M,M,M,M,ZUGY 201300Z 01003MPS 8000 SCT006 BKN015 OVC033 10/09 Q1027 NOSIG
ZGSZ,2020-10-20 13:00,114.1000,22.5500,77.00,60.80,57.36,10.00,9.72,0.00,30.00,M,6.21,M,M,M,M,M,M,M,M,M,M,M,M,M,M,M,M,M,ZGSZ 201300Z 01005MPS CAVOK 25/16 Q1016 NOSIG
ZHCC,2020-10-20 13:00,113.6500,34.7167,60.80,50.00,67.54,190.00,3.89,0.00,30.15,M,3.11,M,NSC,M,M,M,M,M,M,M,HZ,M,M,M,M,M,M,M,ZHCC 201300Z 19002MPS 160V250 5000 HZ NSC 16/10 Q1021 NOSIG
ZGNN,2020-10-20 13:00,108.2167,22.6333,68.00,57.20,68.35,350.00,5.83,0.00,30.09,M,6.21,M,M,M,M,M,M,M,M,M,M,M,M,M,M,M,M,M,ZGNN 201300Z 35003MPS CAVOK 20/14 Q1019 NOSIG
ZBAA,2020-10-20 13:00,116.5870,40.0741,50.00,48.20,93.50,M,1.94,0.00,30.00,M,2.80,M,NSC,M,M,M,M,M,M,M,BR,M,M,M,M,M,M,M,ZBAA 201300Z VRB01MPS 4500 BR NSC 10/09 Q1016 NOSIG
ZBHH,2020-10-20 13:00,111.6833,40.8167,41.00,6.80,23.85,330.00,13.61,0.00,30.18,M,3.73,M,NSC,M,M,M,M,M,M,M,M,M,M,M,M,M,M,32.89,ZBHH 201300Z 33007MPS 300V360 6000 NSC 05/M14 Q1022 NOSIG
ZBSJ,2020-10-20 13:00,114.6973,38.2807,59.00,46.40,62.92,170.00,3.89,0.00,30.00,M,3.73,M,NSC,M,M,M,M,M,M,M,M,M,M,M,M,M,M,M,ZBSJ 201300Z 17002MPS 6000 NSC 15/08 Q1016 NOSIG
ZBTJ,2020-10-20 13:00,117.3462,39.1243,64.40,42.80,45.32,200.00,9.72,0.00,30.03,M,3.11,M,NSC,M,M,M,M,M,M,M,HZ,M,M,M,M,M,M,M,ZBTJ 201300Z 20005MPS 5000 HZ NSC 18/06 Q1017 NOSIG
ZYTL,2020-10-20 13:00,121.6333,38.9000,64.40,51.80,63.60,190.00,5.83,0.00,30.15,M,6.21,M,M,M,M,M,M,M,M,M,M,M,M,M,M,M,M,M,ZYTL 201300Z 19003MPS 150V230 CAVOK 18/11 Q1021 NOSIG
ZYTX,2020-10-20 13:00,123.4000,41.8000,59.00,42.80,54.86,200.00,7.78,0.00,30.09,M,4.35,M,NSC,M,M,M,M,M,M,M,M,M,M,M,M,M,M,M,ZYTX 201300Z 20004MPS 7000 NSC 15/06 Q1019 NOSIG
ZLLL,2020-10-20 13:00,103.7500,36.0200,35.60,17.60,47.51,320.00,3.89,0.00,30.39,M,6.21,M,M,M,M,M,M,M,M,M,M,M,M,M,M,M,M,31.74,ZLLL 201300Z 32002MPS CAVOK 02/M08 Q1029 NOSIG
ZLXY,2020-10-20 13:00,108.7516,34.4471,55.40,51.80,87.65,230.00,3.89,0.00,30.24,M,6.21,M,M,M,M,M,M,M,M,M,M,M,M,M,M,M,M,M,ZLXY 201300Z 23002MPS CAVOK 13/11 Q1024 NOSIG
ZSAM,2020-10-20 13:00,118.0833,24.4833,75.20,60.80,60.90,40.00,9.72,0.00,29.97,M,6.21,M,BKN,M,M,M,4300.00,M,M,M,M,M,M,M,M,M,M,M,ZSAM 201300Z 04005MPS 9999 BKN043 24/16 Q1015 NOSIG
ZPPP,2020-10-20 13:00,102.6833,25.0167,50.00,50.00,100.00,40.00,9.72,0.00,30.36,M,3.11,M,SCT,SCT,OVC,M,300.00,1600.00,3000.00,M,-RA BR,M,M,M,M,M,M,M,ZPPP 201300Z 04005MPS 5000 -RA BR SCT003 SCT016 OVC030 10/10 Q1028 NOSIG
ZSFZ,2020-10-20 13:00,119.2833,26.0833,71.60,57.20,60.44,20.00,15.55,0.00,30.06,M,6.21,M,BKN,M,M,M,4600.00,M,M,M,M,M,M,M,M,M,M,M,ZSFZ 201300Z 02008MPS 9999 BKN046 22/14 Q1018 NOSIG
ZSHC,2020-10-20 13:00,120.1667,30.2333,62.60,55.40,77.29,70.00,1.94,0.00,30.15,M,6.21,M,M,M,M,M,M,M,M,M,M,M,M,M,M,M,M,M,ZSHC 201300Z 07001MPS CAVOK 17/13 Q1021 NOSIG
ZSNB,2020-10-20 13:00,121.4619,29.8267,60.80,57.20,87.92,320.00,3.89,0.00,30.15,M,6.21,M,M,M,M,M,M,M,M,M,M,M,M,M,M,M,M,M,ZSNB 201300Z 32002MPS CAVOK 16/14 Q1021 NOSIG
ZSOF,2020-10-20 13:00,117.2984,31.7800,59.00,53.60,82.25,0.00,0.00,0.00,30.15,M,6.21,M,M,M,M,M,M,M,M,M,M,M,M,M,M,M,M,M,ZSOF 201300Z 00000MPS CAVOK 15/12 Q1021 NOSIG
ZSQD,2020-10-20 13:00,120.3333,36.0667,62.60,51.80,67.75,180.00,5.83,0.00,30.18,M,6.21,M,M,M,M,M,M,M,M,M,M,M,M,M,M,M,M,M,ZSQD 201300Z 18003MPS CAVOK 17/11 Q1022 NOSIG
ZSSS,2020-10-20 13:00,121.3363,31.1979,66.20,53.60,63.82,60.00,1.94,0.00,30.18,M,6.21,M,M,M,M,M,M,M,M,M,M,M,M,M,M,M,M,M,ZSSS 201300Z 06001MPS CAVOK 19/12 Q1022 NOSIG
ZUCK,2020-10-20 13:00,106.4800,29.5200,59.00,53.60,82.25,280.00,3.89,0.00,30.33,M,6.21,M,M,M,M,M,M,M,M,M,M,M,M,M,M,M,M,M,ZUCK 201300Z 28002MPS 260V340 CAVOK 15/12 Q1027 NOSIG
ZSNJ,2020-10-20 13:00,118.8667,31.7333,60.80,57.20,87.92,360.00,1.94,0.00,30.18,M,5.59,M,NSC,M,M,M,M,M,M,M,M,M,M,M,M,M,M,M,ZSNJ 201300Z 36001MPS 9000 NSC 16/14 Q1022 NOSIG
ZSPD,2020-10-20 13:00,121.7667,31.1167,62.60,57.20,82.50,330.00,5.83,0.00,30.18,M,6.21,M,M,M,M,M,M,M,M,M,M,M,M,M,M,M,M,M,ZSPD 201300Z 33003MPS CAVOK 17/14 Q1022 NOSIG
ZUUU,2020-10-20 13:00,104.0167,30.6667,59.00,55.40,87.83,M,1.94,0.00,30.36,M,6.21,M,M,M,M,M,M,M,M,M,M,M,M,M,M,M,M,M,ZUUU 201300Z VRB01MPS CAVOK 15/13 Q1028 NOSIG
ZWWW,2020-10-20 13:00,87.4742,43.9071,55.40,21.20,26.13,280.00,5.83,0.00,30.18,M,6.21,M,M,M,M,M,M,M,M,M,M,M,M,M,M,M,M,M,ZWWW 201300Z 28003MPS CAVOK 13/M06 Q1022 NOSIG
ZYCC,2020-10-20 13:00,125.2167,43.9000,59.00,35.60,41.42,190.00,11.66,0.00,29.97,M,4.35,M,NSC,M,M,M,M,M,M,M,M,M,M,M,M,M,M,M,ZYCC 201300Z 19006MPS 7000 NSC 15/02 Q1015 NOSIG
ZYHB,2020-10-20 13:00,126.5800,46.0200,57.20,42.80,58.52,170.00,9.72,0.00,29.91,M,4.35,M,NSC,M,M,M,M,M,M,M,M,M,M,M,M,M,M,M,ZYHB 201300Z 17005MPS 7000 NSC 14/06 Q1013 NOSIG
ZWSH,2020-10-20 13:00,75.9833,39.4667,60.80,17.60,18.46,0.00,0.00,0.00,30.27,M,6.21,M,M,M,M,M,M,M,M,M,M,M,M,M,M,M,M,M,ZWSH 201300Z 00000MPS CAVOK 16/M08 Q1025 NOSIG
ZBAD,2020-10-20 13:00,116.4106,39.5092,55.40,50.00,81.99,M,1.94,0.00,30.00,M,2.17,M,NSC,M,M,M,M,M,M,M,BR,M,M,M,M,M,M,M,ZBAD 201300Z VRB01MPS 3500 BR NSC 13/10 Q1016 NOSIG
ZMUB,2020-10-20 13:30,106.7666,47.8431,12.20,6.80,78.51,190.00,3.89,0.00,30.09,M,6.21,M,M,M,M,M,M,M,M,M,M,M,M,M,M,M,M,4.48,ZMUB 201330Z 19002MPS CAVOK M11/M14 Q1019 NOSIG RMK QFE656.8 76
ZBYN,2020-10-20 13:30,112.5500,37.7833,51.80,39.20,61.99,170.00,3.89,0.00,30.12,M,3.11,M,NSC,M,M,M,M,M,M,M,HZ,M,M,M,M,M,M,M,ZBYN 201330Z 17002MPS 5000 HZ NSC 11/04 Q1020 NOSIG
ZGGG,2020-10-20 13:30,113.3008,23.3964,71.60,57.20,60.44,10.00,11.66,0.00,30.06,M,6.21,M,M,M,M,M,M,M,M,M,M,M,M,M,M,M,M,M,ZGGG 201330Z 01006MPS CAVOK 22/14 Q1018 NOSIG
ZBAA,2020-10-20 13:30,116.5870,40.0741,50.00,46.40,87.37,110.00,3.89,0.00,30.00,M,2.80,M,NSC,M,M,M,M,M,M,M,BR,M,M,M,M,M,M,M,ZBAA 201330Z 11002MPS 4500 BR NSC 10/08 Q1016 NOSIG
ZBTJ,2020-10-20 13:30,117.3462,39.1243,62.60,41.00,45.04,200.00,9.72,0.00,30.03,M,3.11,M,NSC,M,M,M,M,M,M,M,HZ,M,M,M,M,M,M,M,ZBTJ 201330Z 20005MPS 170V230 5000 HZ NSC 17/05 Q1017 NOSIG
ZYTL,2020-10-20 13:30,121.6333,38.9000,64.40,48.20,55.63,190.00,7.78,0.00,30.15,M,6.21,M,M,M,M,M,M,M,M,M,M,M,M,M,M,M,M,M,ZYTL 201330Z 19004MPS 150V260 CAVOK 18/09 Q1021 NOSIG
ZYTX,2020-10-20 13:30,123.4000,41.8000,60.80,42.80,51.45,180.00,7.78,0.00,30.06,M,4.35,M,NSC,M,M,M,M,M,M,M,M,M,M,M,M,M,M,M,ZYTX 201330Z 18004MPS 7000 NSC 16/06 Q1018 NOSIG
ZSHC,2020-10-20 13:30,120.1667,30.2333,60.80,55.40,82.37,80.00,1.94,0.00,30.18,M,6.21,M,M,M,M,M,M,M,M,M,M,M,M,M,M,M,M,M,ZSHC 201330Z 08001MPS CAVOK 16/13 Q1022 NOSIG
ZSSS,2020-10-20 13:30,121.3363,31.1979,66.20,53.60,63.82,0.00,0.00,0.00,30.18,M,6.21,M,M,M,M,M,M,M,M,M,M,M,M,M,M,M,M,M,ZSSS 201330Z 00000MPS CAVOK 19/12 Q1022 NOSIG
ZSPD,2020-10-20 13:30,121.7667,31.1167,62.60,57.20,82.50,330.00,3.89,0.00,30.18,M,6.21,M,M,M,M,M,M,M,M,M,M,M,M,M,M,M,M,M,ZSPD 201330Z 33002MPS CAVOK 17/14 Q1022 NOSIG
ZWWW,2020-10-20 13:30,87.4742,43.9071,51.80,23.00,32.17,260.00,5.83,0.00,30.18,M,6.21,M,M,M,M,M,M,M,M,M,M,M,M,M,M,M,M,M,ZWWW 201330Z 26003MPS CAVOK 11/M05 Q1022 NOSIG
ZBAD,2020-10-20 13:30,116.4106,39.5092,53.60,50.00,87.56,M,1.94,0.00,30.00,M,2.17,M,NSC,M,M,M,M,M,M,M,BR,M,M,M,M,M,M,M,ZBAD 201330Z VRB01MPS 3500 BR NSC 12/10 Q1016 NOSIG
ZMUB,2020-10-20 14:00,106.7666,47.8431,15.80,8.60,72.73,290.00,3.89,0.00,30.09,M,6.21,M,M,M,M,M,M,M,M,M,M,M,M,M,M,M,M,8.67,ZMUB 201400Z 29002MPS CAVOK M09/M13 Q1019 NOSIG RMK QFE656.8 75
ZGHA,2020-10-20 14:00,112.8667,28.2333,60.80,57.20,87.92,350.00,9.72,0.00,30.24,M,3.73,M,SCT,M,M,M,4000.00,M,M,M,M,M,M,M,M,M,M,M,ZGHA 201400Z 35005MPS 6000 SCT040 16/14 Q1024 NOSIG
ZBYN,2020-10-20 14:00,112.5500,37.7833,50.00,39.20,66.27,M,1.94,0.00,30.15,M,3.11,M,NSC,M,M,M,M,M,M,M,HZ,M,M,M,M,M,M,M,COR ZBYN 201400Z VRB01MPS 5000 HZ NSC 10/04 Q1021 BECMG TL1540 33006MPS
ZGGG,2020-10-20 14:00,113.3008,23.3964,71.60,57.20,60.44,10.00,9.72,0.00,30.03,M,6.21,M,M,M,M,M,M,M,M,M,M,M,M,M,M,M,M,M,ZGGG 201400Z 01005MPS CAVOK 22/14 Q1017 NOSIG
ZGKL,2020-10-20 14:00,110.3000,25.3333,64.40,57.20,77.45,10.00,3.89,0.00,30.21,M,6.21,M,SCT,OVC,M,M,3600.00,5000.00,M,M,M,M,M,M,M,M,M,M,ZGKL 201400Z 01002MPS 330V040 9999 SCT036 OVC050 18/14 Q1023 NOSIG
ZGOW,2020-10-20 14:00,116.6833,23.4000,77.00,64.40,65.12,350.00,7.78,0.00,29.97,M,6.21,M,BKN,M,M,M,4300.00,M,M,M,M,M,M,M,M,M,M,M,ZGOW 201400Z 35004MPS 320V020 9999 BKN043 25/18 Q1015 NOSIG
ZHHH,2020-10-20 14:00,114.1300,30.6200,60.80,57.20,87.92,250.00,3.89,0.00,30.21,M,3.73,M,NSC,M,M,M,M,M,M,M,M,M,M,M,M,M,M,M,ZHHH 201400Z 25002MPS 200V300 6000 NSC 16/14 Q1023 NOSIG
ZJHK,2020-10-20 14:00,110.4590,19.9349,75.20,69.80,83.32,60.00,7.78,0.00,29.97,M,6.21,M,FEW,SCT,M,M,2300.00,3000.00,M,M,M,M,M,M,M,M,M,M,ZJHK 201400Z 06004MPS 9999 FEW023 SCT030 24/21 Q1015 NOSIG
ZJSY,2020-10-20 14:00,109.4123,18.3029,77.00,69.80,78.48,360.00,3.89,0.00,29.91,M,6.21,M,M,M,M,M,M,M,M,M,M,M,M,M,M,M,M,M,ZJSY 201400Z 36002MPS 320V050 CAVOK 25/21 Q1013 NOSIG
ZUGY,2020-10-20 14:00,106.7333,26.5833,50.00,48.20,93.50,20.00,5.83,0.00,30.33,M,4.97,M,SCT,BKN,OVC,M,800.00,1500.00,3300.00,M,M,M,M,M,M,M,M,M,ZUGY 201400Z 02003MPS 8000 SCT008 BKN015 OVC033 10/09 Q1027 NOSIG
ZGSZ,2020-10-20 14:00,114.1000,22.5500,75.20,60.80,60.90,360.00,11.66,0.00,30.00,M,6.21,M,FEW,M,M,M,4000.00,M,M,M,M,M,M,M,M,M,M,M,ZGSZ 201400Z 36006MPS 9999 FEW040 24/16 Q1016 NOSIG
ZHCC,2020-10-20 14:00,113.6500,34.7167,60.80,50.00,67.54,210.00,3.89,0.00,30.15,M,3.11,M,NSC,M,M,M,M,M,M,M,HZ,M,M,M,M,M,M,M,ZHCC 201400Z 21002MPS 170V250 5000 HZ NSC 16/10 Q1021 NOSIG
ZGNN,2020-10-20 14:00,108.2167,22.6333,68.00,57.20,68.35,350.00,5.83,0.00,30.12,M,6.21,M,M,M,M,M,M,M,M,M,M,M,M,M,M,M,M,M,ZGNN 201400Z 35003MPS CAVOK 20/14 Q1020 NOSIG
ZBAA,2020-10-20 14:00,116.5870,40.0741,50.00,48.20,93.50,100.00,3.89,0.00,30.00,M,2.80,M,NSC,M,M,M,M,M,M,M,BR,M,M,M,M,M,M,M,ZBAA 201400Z 10002MPS 4500 BR NSC 10/09 Q1016 NOSIG
ZBHH,2020-10-20 14:00,111.6833,40.8167,37.40,12.20,34.96,310.00,15.55,0.00,30.24,M,6.21,27.21,M,M,M,M,M,M,M,M,M,M,M,M,M,M,M,27.60,ZBHH 201400Z 31008G14MPS 260V350 CAVOK 03/M11 Q1024 NOSIG
ZBSJ,2020-10-20 14:00,114.6973,38.2807,57.20,48.20,71.83,310.00,5.83,0.00,30.00,M,1.86,M,NSC,M,M,M,M,M,M,M,BR,M,M,M,M,M,M,M,ZBSJ 201400Z 31003MPS 3000 BR NSC 14/09 Q1016 NOSIG
ZBTJ,2020-10-20 14:00,117.3462,39.1243,62.60,41.00,45.04,190.00,5.83,0.00,30.03,M,3.11,M,NSC,M,M,M,M,M,M,M,HZ,M,M,M,M,M,M,M,ZBTJ 201400Z 19003MPS 160V230 5000 HZ NSC 17/05 Q1017 NOSIG
ZYTL,2020-10-20 14:00,121.6333,38.9000,64.40,48.20,55.63,200.00,11.66,0.00,30.12,M,6.21,M,M,M,M,M,M,M,M,M,M,M,M,M,M,M,M,M,ZYTL 201400Z 20006MPS CAVOK 18/09 Q1020 NOSIG
ZYTX,2020-10-20 14:00,123.4000,41.8000,60.80,39.20,44.76,180.00,7.78,0.00,30.06,M,6.21,M,M,M,M,M,M,M,M,M,M,M,M,M,M,M,M,M,ZYTX 201400Z 18004MPS CAVOK 16/04 Q1018 NOSIG
ZLLL,2020-10-20 14:00,103.7500,36.0200,33.80,19.40,55.14,330.00,3.89,0.00,30.42,M,6.21,M,M,M,M,M,M,M,M,M,M,M,M,M,M,M,M,29.65,ZLLL 201400Z 33002MPS CAVOK 01/M07 Q1030 NOSIG
ZLXY,2020-10-20 14:00,108.7516,34.4471,55.40,50.00,81.99,230.00,3.89,0.00,30.24,M,6.21,M,M,M,M,M,M,M,M,M,M,M,M,M,M,M,M,M,ZLXY 201400Z 23002MPS CAVOK 13/10 Q1024 NOSIG
ZSAM,2020-10-20 14:00,118.0833,24.4833,73.40,60.80,64.69,50.00,7.78,0.00,29.97,M,6.21,M,BKN,M,M,M,4300.00,M,M,M,M,M,M,M,M,M,M,M,ZSAM 201400Z 05004MPS 9999 BKN043 23/16 Q1015 NOSIG
ZPPP,2020-10-20 14:00,102.6833,25.0167,48.20,48.20,100.00,40.00,13.61,0.00,30.36,M,3.11,M,SCT,SCT,OVC,M,300.00,1600.00,3000.00,M,-RA BR,M,M,M,M,M,M,42.15,ZPPP 201400Z 04007MPS 5000 -RA BR SCT003 SCT016 OVC030 09/09 Q1028 NOSIG
ZSFZ,2020-10-20 14:00,119.2833,26.0833,71.60,55.40,56.63,20.00,13.61,0.00,30.06,M,6.21,M,BKN,M,M,M,4300.00,M,M,M,M,M,M,M,M,M,M,M,ZSFZ 201400Z 02007MPS 9999 BKN043 22/13 Q1018 NOSIG
ZSHC,2020-10-20 14:00,120.1667,30.2333,60.80,57.20,87.92,M,1.94,0.00,30.15,M,6.21,M,M,M,M,M,M,M,M,M,M,M,M,M,M,M,M,M,ZSHC 201400Z VRB01MPS CAVOK 16/14 Q1021 NOSIG
ZSNB,2020-10-20 14:00,121.4619,29.8267,59.00,57.20,93.74,300.00,3.89,0.00,30.15,M,6.21,M,M,M,M,M,M,M,M,M,M,M,M,M,M,M,M,M,ZSNB 201400Z 30002MPS CAVOK 15/14 Q1021 NOSIG
ZSOF,2020-10-20 14:00,117.2984,31.7800,59.00,55.40,87.83,360.00,1.94,0.00,30.15,M,6.21,M,M,M,M,M,M,M,M,M,M,M,M,M,M,M,M,M,ZSOF 201400Z 36001MPS CAVOK 15/13 Q1021 NOSIG
ZSQD,2020-10-20 14:00,120.3333,36.0667,64.40,51.80,63.60,180.00,7.78,0.00,30.18,M,6.21,M,M,M,M,M,M,M,M,M,M,M,M,M,M,M,M,M,ZSQD 201400Z 18004MPS CAVOK 18/11 Q1022 NOSIG
ZSSS,2020-10-20 14:00,121.3363,31.1979,66.20,53.60,63.82,M,1.94,0.00,30.18,M,6.21,M,M,M,M,M,M,M,M,M,M,M,M,M,M,M,M,M,ZSSS 201400Z VRB01MPS CAVOK 19/12 Q1022 NOSIG
ZUCK,2020-10-20 14:00,106.4800,29.5200,59.00,53.60,82.25,290.00,3.89,0.00,30.36,M,6.21,M,M,M,M,M,M,M,M,M,M,M,M,M,M,M,M,M,ZUCK 201400Z 29002MPS 260V330 CAVOK 15/12 Q1028 NOSIG
ZSNJ,2020-10-20 14:00,118.8667,31.7333,62.60,55.40,77.29,70.00,3.89,0.00,30.15,M,4.97,M,NSC,M,M,M,M,M,M,M,M,M,M,M,M,M,M,M,ZSNJ 201400Z 07002MPS 8000 NSC 17/13 Q1021 NOSIG
ZSPD,2020-10-20 14:00,121.7667,31.1167,62.60,57.20,82.50,310.00,3.89,0.00,30.18,M,6.21,M,M,M,M,M,M,M,M,M,M,M,M,M,M,M,M,M,ZSPD 201400Z 31002MPS CAVOK 17/14 Q1022 NOSIG
ZUUU,2020-10-20 14:00,104.0167,30.6667,59.00,55.40,87.83,190.00,3.89,0.00,30.36,M,6.21,M,M,M,M,M,M,M,M,M,M,M,M,M,M,M,M,M,ZUUU 201400Z 19002MPS 130V240 CAVOK 15/13 Q1028 NOSIG
ZWWW,2020-10-20 14:00,87.4742,43.9071,51.80,23.00,32.17,250.00,5.83,0.00,30.18,M,6.21,M,M,M,M,M,M,M,M,M,M,M,M,M,M,M,M,M,ZWWW 201400Z 25003MPS CAVOK 11/M05 Q1022 NOSIG
ZYCC,2020-10-20 14:00,125.2167,43.9000,59.00,37.40,44.47,200.00,9.72,0.00,29.97,M,3.73,M,NSC,M,M,M,M,M,M,M,M,M,M,M,M,M,M,M,ZYCC 201400Z 20005MPS 6000 NSC 15/03 Q1015 NOSIG
ZYHB,2020-10-20 14:00,126.5800,46.0200,57.20,41.00,54.60,180.00,9.72,0.00,29.88,M,3.73,M,NSC,M,M,M,M,M,M,M,M,M,M,M,M,M,M,M,ZYHB 201400Z 18005MPS 6000 NSC 14/05 Q1012 NOSIG
ZWSH,2020-10-20 14:00,75.9833,39.4667,55.40,17.60,22.41,M,1.94,0.00,30.27,M,6.21,M,M,M,M,M,M,M,M,M,M,M,M,M,M,M,M,M,ZWSH 201400Z VRB01MPS CAVOK 13/M08 Q1025 NOSIG
ZBAD,2020-10-20 14:00,116.4106,39.5092,51.80,48.20,87.47,M,1.94,0.00,30.00,M,2.17,M,NSC,M,M,M,M,M,M,M,BR,M,M,M,M,M,M,M,ZBAD 201400Z VRB01MPS 3500 BR NSC 11/09 Q1016 NOSIG
ZSHC,2020-10-20 14:30,120.1667,30.2333,62.60,57.20,82.50,0.00,0.00,0.00,30.15,M,6.21,M,M,M,M,M,M,M,M,M,M,M,M,M,M,M,M,M,ZSHC 201430Z 00000MPS CAVOK 17/14 Q1021 NOSIG
ZSSS,2020-10-20 14:30,121.3363,31.1979,66.20,55.40,68.15,30.00,3.89,0.00,30.15,M,6.21,M,M,M,M,M,M,M,M,M,M,M,M,M,M,M,M,M,ZSSS 201430Z 03002MPS CAVOK 19/13 Q1021 NOSIG
ZSPD,2020-10-20 14:30,121.7667,31.1167,64.40,57.20,77.45,330.00,7.78,0.00,30.15,M,6.21,M,M,M,M,M,M,M,M,M,M,M,M,M,M,M,M,M,ZSPD 201430Z 33004MPS CAVOK 18/14 Q1021 NOSIG
ZWWW,2020-10-20 14:30,87.4742,43.9071,51.80,21.20,29.82,250.00,3.89,0.00,30.18,M,6.21,M,M,M,M,M,M,M,M,M,M,M,M,M,M,M,M,M,ZWWW 201430Z 25002MPS CAVOK 11/M06 Q1022 NOSIG
ZBAD,2020-10-20 14:30,116.4106,39.5092,51.80,48.20,87.47,M,1.94,0.00,30.00,M,2.17,M,NSC,M,M,M,M,M,M,M,BR,M,M,M,M,M,M,M,ZBAD 201430Z VRB01MPS 3500 BR NSC 11/09 Q1016 NOSIG
ZMUB,2020-10-20 14:30,106.7666,47.8431,10.40,5.00,78.35,M,1.94,0.00,30.09,M,6.21,M,M,M,M,M,M,M,M,M,M,M,M,M,M,M,M,M,ZMUB 201430Z VRB01MPS CAVOK M12/M15 Q1019 NOSIG RMK QFE656.8 72
ZBYN,2020-10-20 14:30,112.5500,37.7833,48.20,39.20,70.88,M,1.94,0.00,30.15,M,3.11,M,NSC,M,M,M,M,M,M,M,HZ,M,M,M,M,M,M,M,ZBYN 201430Z VRB01MPS 5000 HZ NSC 09/04 Q1021 NOSIG
ZGGG,2020-10-20 14:30,113.3008,23.3964,71.60,57.20,60.44,360.00,7.78,0.00,30.03,M,6.21,M,M,M,M,M,M,M,M,M,M,M,M,M,M,M,M,M,ZGGG 201430Z 36004MPS CAVOK 22/14 Q1017 NOSIG
ZBAA,2020-10-20 14:30,116.5870,40.0741,50.00,48.20,93.50,M,1.94,0.00,29.97,M,2.80,M,NSC,M,M,M,M,M,M,M,BR,M,M,M,M,M,M,M,ZBAA 201430Z VRB01MPS 4500 BR NSC 10/09 Q1015 NOSIG
ZBTJ,2020-10-20 14:30,117.3462,39.1243,62.60,42.80,48.28,190.00,7.78,0.00,30.00,M,3.11,M,NSC,M,M,M,M,M,M,M,HZ,M,M,M,M,M,M,M,ZBTJ 201430Z 19004MPS 5000 HZ NSC 17/06 Q1016 NOSIG
ZYTL,2020-10-20 14:30,121.6333,38.9000,64.40,48.20,55.63,190.00,9.72,0.00,30.12,M,6.21,M,M,M,M,M,M,M,M,M,M,M,M,M,M,M,M,M,ZYTL 201430Z 19005MPS 150V210 CAVOK 18/09 Q1020 NOSIG
ZYTX,2020-10-20 14:30,123.4000,41.8000,60.80,37.40,41.71,190.00,7.78,0.00,30.06,M,6.21,M,M,M,M,M,M,M,M,M,M,M,M,M,M,M,M,M,ZYTX 201430Z 19004MPS CAVOK 16/03 Q1018 NOSIG
ZGHA,2020-10-20 15:00,112.8667,28.2333,60.80,57.20,87.92,360.00,7.78,0.00,30.21,M,3.73,M,SCT,M,M,M,3000.00,M,M,M,M,M,M,M,M,M,M,M,ZGHA 201500Z 36004MPS 6000 SCT030 16/14 Q1023 NOSIG
ZBYN,2020-10-20 15:00,112.5500,37.7833,46.40,39.20,75.84,M,1.94,0.00,30.15,M,2.80,M,NSC,M,M,M,M,M,M,M,HZ,M,M,M,M,M,M,M,ZBYN 201500Z VRB01MPS 4500 HZ NSC 08/04 Q1021 BECMG TL1640 33006MPS
ZGGG,2020-10-20 15:00,113.3008,23.3964,71.60,57.20,60.44,360.00,7.78,0.00,30.03,M,6.21,M,M,M,M,M,M,M,M,M,M,M,M,M,M,M,M,M,ZGGG 201500Z 36004MPS CAVOK 22/14 Q1017 NOSIG
ZGKL,2020-10-20 15:00,110.3000,25.3333,62.60,57.20,82.50,330.00,1.94,0.00,30.21,M,6.21,M,SCT,OVC,M,M,3300.00,5000.00,M,M,M,M,M,M,M,M,M,M,ZGKL 201500Z 33001MPS 9999 SCT033 OVC050 17/14 Q1023 NOSIG
ZGOW,2020-10-20 15:00,116.6833,23.4000,75.20,62.60,64.91,M,1.94,0.00,29.97,M,6.21,M,BKN,M,M,M,5000.00,M,M,M,M,M,M,M,M,M,M,M,ZGOW 201500Z VRB01MPS 9999 BKN050 24/17 Q1015 NOSIG
ZHHH,2020-10-20 15:00,114.1300,30.6200,60.80,57.20,87.92,250.00,3.89,0.00,30.21,M,3.73,M,NSC,M,M,M,M,M,M,M,-RA,M,M,M,M,M,M,M,ZHHH 201500Z 25002MPS 210V280 6000 -RA NSC 16/14 Q1023 NOSIG
ZJHK,2020-10-20 15:00,110.4590,19.9349,73.40,69.80,88.51,50.00,5.83,0.00,29.97,M,6.21,M,FEW,M,M,M,2300.00,M,M,M,M,M,M,M,M,M,M,M,ZJHK 201500Z 05003MPS 9999 FEW023 23/21 Q1015 NOSIG
ZJSY,2020-10-20 15:00,109.4123,18.3029,77.00,69.80,78.48,M,1.94,0.00,29.91,M,6.21,M,M,M,M,M,M,M,M,M,M,M,M,M,M,M,M,M,ZJSY 201500Z VRB01MPS CAVOK 25/21 Q1013 NOSIG
ZUGY,2020-10-20 15:00,106.7333,26.5833,50.00,48.20,93.50,10.00,3.89,0.00,30.33,M,4.97,M,SCT,BKN,OVC,M,800.00,1600.00,3300.00,M,M,M,M,M,M,M,M,M,ZUGY 201500Z 01002MPS 8000 SCT008 BKN016 OVC033 10/09 Q1027 NOSIG
ZGSZ,2020-10-20 15:00,114.1000,22.5500,75.20,60.80,60.90,20.00,11.66,0.00,30.00,M,6.21,M,FEW,M,M,M,4300.00,M,M,M,M,M,M,M,M,M,M,M,ZGSZ 201500Z 02006MPS 9999 FEW043 24/16 Q1016 NOSIG
ZHCC,2020-10-20 15:00,113.6500,34.7167,59.00,50.00,72.01,200.00,3.89,0.00,30.15,M,3.11,M,NSC,M,M,M,M,M,M,M,HZ,M,M,M,M,M,M,M,ZHCC 201500Z 20002MPS 160V240 5000 HZ NSC 15/10 Q1021 NOSIG
ZGNN,2020-10-20 15:00,108.2167,22.6333,66.20,57.20,72.74,350.00,7.78,0.00,30.12,M,6.21,M,M,M,M,M,M,M,M,M,M,M,M,M,M,M,M,M,ZGNN 201500Z 35004MPS CAVOK 19/14 Q1020 NOSIG
ZBAA,2020-10-20 15:00,116.5870,40.0741,55.40,48.20,76.66,290.00,7.78,0.00,30.00,M,3.11,M,NSC,M,M,M,M,M,M,M,BR,M,M,M,M,M,M,M,ZBAA 201500Z 29004MPS 270V330 5000 BR NSC 13/09 Q1016 NOSIG
ZBHH,2020-10-20 15:00,111.6833,40.8167,35.60,14.00,40.63,330.00,11.66,0.00,30.24,M,6.21,M,M,M,M,M,M,M,M,M,M,M,M,M,M,M,M,26.73,ZBHH 201500Z 33006MPS CAVOK 02/M10 Q1024 BECMG TL1630 03004MPS
ZBSJ,2020-10-20 15:00,114.6973,38.2807,55.40,48.20,76.66,M,1.94,0.00,30.00,M,1.68,M,NSC,M,M,M,M,M,M,M,BR,M,M,M,M,M,M,M,ZBSJ 201500Z VRB01MPS 2700 BR NSC 13/09 Q1016 NOSIG
ZBTJ,2020-10-20 15:00,117.3462,39.1243,60.80,42.80,51.45,200.00,7.78,0.00,30.00,M,3.11,M,NSC,M,M,M,M,M,M,M,HZ,M,M,M,M,M,M,M,ZBTJ 201500Z 20004MPS 5000 HZ NSC 16/06 Q1016 NOSIG
ZYTL,2020-10-20 15:00,121.6333,38.9000,64.40,50.00,59.50,200.00,9.72,0.00,30.12,M,6.21,M,M,M,M,M,M,M,M,M,M,M,M,M,M,M,M,M,ZYTL 201500Z 20005MPS 160V260 CAVOK 18/10 Q1020 NOSIG
ZYTX,2020-10-20 15:00,123.4000,41.8000,60.80,33.80,36.16,180.00,7.78,0.00,30.06,M,6.21,M,M,M,M,M,M,M,M,M,M,M,M,M,M,M,M,M,ZYTX 201500Z 18004MPS CAVOK 16/01 Q1018 NOSIG
ZLLL,2020-10-20 15:00,103.7500,36.0200,33.80,19.40,55.14,330.00,3.89,0.00,30.42,M,6.21,M,M,M,M,M,M,M,M,M,M,M,M,M,M,M,M,29.65,ZLLL 201500Z 33002MPS CAVOK 01/M07 Q1030 NOSIG
ZLXY,2020-10-20 15:00,108.7516,34.4471,53.60,48.20,81.87,200.00,3.89,0.00,30.24,M,6.21,M,M,M,M,M,M,M,M,M,M,M,M,M,M,M,M,M,ZLXY 201500Z 20002MPS CAVOK 12/09 Q1024 NOSIG
ZSAM,2020-10-20 15:00,118.0833,24.4833,73.40,60.80,64.69,30.00,3.89,0.00,29.97,M,6.21,M,BKN,M,M,M,4000.00,M,M,M,M,M,M,M,M,M,M,M,ZSAM 201500Z 03002MPS 9999 BKN040 23/16 Q1015 NOSIG
ZPPP,2020-10-20 15:00,102.6833,25.0167,48.20,48.20,100.00,40.00,13.61,0.00,30.39,M,3.11,M,SCT,SCT,OVC,M,300.00,1600.00,3000.00,M,-RA BR,M,M,M,M,M,M,42.15,ZPPP 201500Z 04007MPS 5000 -RA BR SCT003 SCT016 OVC030 09/09 Q1029 NOSIG
ZSFZ,2020-10-20 15:00,119.2833,26.0833,71.60,55.40,56.63,10.00,9.72,0.00,30.03,M,6.21,M,BKN,M,M,M,3600.00,M,M,M,M,M,M,M,M,M,M,M,ZSFZ 201500Z 01005MPS 9999 BKN036 22/13 Q1017 NOSIG
ZSHC,2020-10-20 15:00,120.1667,30.2333,62.60,57.20,82.50,0.00,0.00,0.00,30.15,M,6.21,M,M,M,M,M,M,M,M,M,M,M,M,M,M,M,M,M,ZSHC 201500Z 00000MPS CAVOK 17/14 Q1021 NOSIG
ZSNB,2020-10-20 15:00,121.4619,29.8267,62.60,59.00,88.00,210.00,1.94,0.00,30.15,M,6.21,M,M,M,M,M,M,M,M,M,M,M,M,M,M,M,M,M,ZSNB 201500Z 21001MPS CAVOK 17/15 Q1021 NOSIG
ZSOF,2020-10-20 15:00,117.2984,31.7800,59.00,55.40,87.83,0.00,0.00,0.00,30.15,M,4.97,M,NSC,M,M,M,M,M,M,M,M,M,M,M,M,M,M,M,ZSOF 201500Z 00000MPS 8000 NSC 15/13 Q1021 NOSIG
ZSQD,2020-10-20 15:00,120.3333,36.0667,62.60,51.80,67.75,180.00,5.83,0.00,30.15,M,6.21,M,M,M,M,M,M,M,M,M,M,M,M,M,M,M,M,M,ZSQD 201500Z 18003MPS CAVOK 17/11 Q1021 NOSIG
ZSSS,2020-10-20 15:00,121.3363,31.1979,66.20,55.40,68.15,30.00,3.89,0.00,30.15,M,6.21,M,M,M,M,M,M,M,M,M,M,M,M,M,M,M,M,M,ZSSS 201500Z 03002MPS 360V070 CAVOK 19/13 Q1021 NOSIG
ZUCK,2020-10-20 15:00,106.4800,29.5200,59.00,53.60,82.25,M,1.94,0.00,30.36,M,6.21,M,M,M,M,M,M,M,M,M,M,M,M,M,M,M,M,M,ZUCK 201500Z VRB01MPS CAVOK 15/12 Q1028 NOSIG
ZSNJ,2020-10-20 15:00,118.8667,31.7333,60.80,59.00,93.79,350.00,1.94,0.00,30.15,M,5.59,M,NSC,M,M,M,M,M,M,M,M,M,M,M,M,M,M,M,ZSNJ 201500Z 35001MPS 9000 NSC 16/15 Q1021 NOSIG
ZSPD,2020-10-20 15:00,121.7667,31.1167,64.40,57.20,77.45,340.00,7.78,0.00,30.15,M,6.21,M,M,M,M,M,M,M,M,M,M,M,M,M,M,M,M,M,ZSPD 201500Z 34004MPS CAVOK 18/14 Q1021 NOSIG
ZUUU,2020-10-20 15:00,104.0167,30.6667,57.20,53.60,87.74,190.00,5.83,0.00,30.36,M,6.21,M,M,M,M,M,M,M,M,M,M,M,M,M,M,M,M,M,ZUUU 201500Z 19003MPS 150V210 CAVOK 14/12 Q1028 NOSIG
ZWWW,2020-10-20 15:00,87.4742,43.9071,53.60,21.20,27.91,230.00,3.89,0.00,30.18,M,6.21,M,M,M,M,M,M,M,M,M,M,M,M,M,M,M,M,M,ZWWW 201500Z 23002MPS 190V250 CAVOK 12/M06 Q1022 NOSIG
ZYCC,2020-10-20 15:00,125.2167,43.9000,57.20,39.20,50.91,200.00,11.66,0.00,29.97,M,3.11,M,FEW,M,M,M,3000.00,M,M,M,HZ,M,M,M,M,M,M,M,ZYCC 201500Z 20006MPS 5000 HZ FEW030 14/04 Q1015 NOSIG
ZYHB,2020-10-20 15:00,126.5800,46.0200,55.40,42.80,62.46,180.00,9.72,0.00,29.88,M,3.73,M,NSC,M,M,M,M,M,M,M,M,M,M,M,M,M,M,M,ZYHB 201500Z 18005MPS 6000 NSC 13/06 Q1012 NOSIG
ZWSH,2020-10-20 15:00,75.9833,39.4667,53.60,17.60,23.93,330.00,5.83,0.00,30.27,M,6.21,M,M,M,M,M,M,M,M,M,M,M,M,M,M,M,M,M,ZWSH 201500Z 33003MPS CAVOK 12/M08 Q1025 NOSIG
ZBAD,2020-10-20 15:00,116.4106,39.5092,51.80,48.20,87.47,190.00,1.94,0.00,29.97,M,2.17,M,NSC,M,M,M,M,M,M,M,BR,M,M,M,M,M,M,M,ZBAD 201500Z 19001MPS 3500 BR NSC 11/09 Q1015 NOSIG
ZMUB,2020-10-20 15:00,106.7666,47.8431,10.40,5.00,78.35,180.00,3.89,0.00,30.09,M,6.21,M,M,M,M,M,M,M,M,M,M,M,M,M,M,M,M,2.38,ZMUB 201500Z 18002MPS CAVOK M12/M15 Q1019 NOSIG RMK QFE656.9 80
ZMUB,2020-10-20 15:30,106.7666,47.8431,8.60,5.00,84.93,M,1.94,0.00,30.09,M,6.21,M,M,M,M,M,M,M,M,M,M,M,M,M,M,M,M,M,ZMUB 201530Z VRB01MPS CAVOK M13/M15 Q1019 NOSIG RMK QFE656.9 79
ZBYN,2020-10-20 15:30,112.5500,37.7833,46.40,39.20,75.84,M,1.94,0.00,30.15,M,2.80,M,NSC,M,M,M,M,M,M,M,HZ,M,M,M,M,M,M,M,ZBYN 201530Z VRB01MPS 4500 HZ NSC 08/04 Q1021 NOSIG
ZGGG,2020-10-20 15:30,113.3008,23.3964,69.80,59.00,68.55,350.00,5.83,0.00,30.03,M,6.21,M,M,M,M,M,M,M,M,M,M,M,M,M,M,M,M,M,ZGGG 201530Z 35003MPS CAVOK 21/15 Q1017 NOSIG
ZBAA,2020-10-20 15:30,116.5870,40.0741,51.80,46.40,81.74,350.00,7.78,0.00,30.00,M,3.11,M,NSC,M,M,M,M,M,M,M,BR,M,M,M,M,M,M,M,ZBAA 201530Z 35004MPS 5000 BR NSC 11/08 Q1016 NOSIG
ZBTJ,2020-10-20 15:30,117.3462,39.1243,60.80,42.80,51.45,190.00,7.78,0.00,30.00,M,3.11,M,NSC,M,M,M,M,M,M,M,HZ,M,M,M,M,M,M,M,ZBTJ 201530Z 19004MPS 5000 HZ NSC 16/06 Q1016 NOSIG
ZYTL,2020-10-20 15:30,121.6333,38.9000,62.60,50.00,63.38,200.00,9.72,0.00,30.12,M,6.21,M,M,M,M,M,M,M,M,M,M,M,M,M,M,M,M,M,ZYTL 201530Z 20005MPS 150V270 CAVOK 17/10 Q1020 NOSIG
ZYTX,2020-10-20 15:30,123.4000,41.8000,60.80,32.00,33.64,180.00,7.78,0.00,30.03,M,6.21,M,M,M,M,M,M,M,M,M,M,M,M,M,M,M,M,M,ZYTX 201530Z 18004MPS CAVOK 16/00 Q1017 NOSIG
ZSHC,2020-10-20 15:30,120.1667,30.2333,62.60,59.00,88.00,0.00,0.00,0.00,30.12,M,6.21,M,M,M,M,M,M,M,M,M,M,M,M,M,M,M,M,M,ZSHC 201530Z 00000MPS CAVOK 17/15 Q1020 NOSIG
ZSSS,2020-10-20 15:30,121.3363,31.1979,66.20,55.40,68.15,50.00,1.94,0.00,30.15,M,6.21,M,M,M,M,M,M,M,M,M,M,M,M,M,M,M,M,M,ZSSS 201530Z 05001MPS CAVOK 19/13 Q1021 NOSIG
ZSPD,2020-10-20 15:30,121.7667,31.1167,64.40,57.20,77.45,350.00,5.83,0.00,30.12,M,6.21,M,M,M,M,M,M,M,M,M,M,M,M,M,M,M,M,M,ZSPD 201530Z 35003MPS CAVOK 18/14 Q1020 NOSIG
ZWWW,2020-10-20 15:30,87.4742,43.9071,53.60,19.40,25.85,M,1.94,0.00,30.18,M,6.21,M,M,M,M,M,M,M,M,M,M,M,M,M,M,M,M,M,ZWWW 201530Z VRB01MPS CAVOK 12/M07 Q1022 NOSIG
ZBAD,2020-10-20 15:30,116.4106,39.5092,50.00,46.40,87.37,210.00,1.94,0.00,29.97,M,2.17,M,NSC,M,M,M,M,M,M,M,BR,M,M,M,M,M,M,M,ZBAD 201530Z 21001MPS 3500 BR NSC 10/08 Q1015 NOSIG
ZMUB,2020-10-20 16:00,106.7666,47.8431,10.40,5.00,78.35,130.00,3.89,0.00,30.09,M,6.21,M,M,M,M,M,M,M,M,M,M,M,M,M,M,M,M,2.38,ZMUB 201600Z 13002MPS CAVOK M12/M15 Q1019 NOSIG RMK QFE656.6 80
ZGHA,2020-10-20 16:00,112.8667,28.2333,60.80,55.40,82.37,360.00,9.72,0.00,30.21,M,3.11,M,FEW,M,M,M,5000.00,M,M,M,BR,M,M,M,M,M,M,M,ZGHA 201600Z 36005MPS 5000 BR FEW050 16/13 Q1023 NOSIG
ZBYN,2020-10-20 16:00,112.5500,37.7833,44.60,37.40,75.68,M,1.94,0.00,30.15,M,2.80,M,NSC,M,M,M,M,M,M,M,HZ,M,M,M,M,M,M,M,ZBYN 201600Z VRB01MPS 4500 HZ NSC 07/03 Q1021 NOSIG
ZGGG,2020-10-20 16:00,113.3008,23.3964,69.80,57.20,64.26,340.00,7.78,0.00,30.03,M,6.21,M,M,M,M,M,M,M,M,M,M,M,M,M,M,M,M,M,ZGGG 201600Z 34004MPS CAVOK 21/14 Q1017 NOSIG
ZGKL,2020-10-20 16:00,110.3000,25.3333,62.60,57.20,82.50,320.00,3.89,0.00,30.18,M,6.21,M,SCT,OVC,M,M,3300.00,5000.00,M,M,M,M,M,M,M,M,M,M,ZGKL 201600Z 32002MPS 9999 SCT033 OVC050 17/14 Q1022 NOSIG
ZGOW,2020-10-20 16:00,116.6833,23.4000,75.20,62.60,64.91,360.00,7.78,0.00,29.97,M,6.21,M,BKN,M,M,M,5000.00,M,M,M,M,M,M,M,M,M,M,M,ZGOW 201600Z 36004MPS 320V020 9999 BKN050 24/17 Q1015 NOSIG
ZHHH,2020-10-20 16:00,114.1300,30.6200,60.80,57.20,87.92,240.00,5.83,0.00,30.21,M,2.49,M,NSC,M,M,M,M,M,M,M,-RA BR,M,M,M,M,M,M,M,ZHHH 201600Z 24003MPS 220V280 4000 -RA BR NSC 16/14 Q1023 NOSIG
ZJHK,2020-10-20 16:00,110.4590,19.9349,73.40,68.00,83.21,50.00,5.83,0.00,29.97,M,6.21,M,FEW,M,M,M,2300.00,M,M,M,M,M,M,M,M,M,M,M,ZJHK 201600Z 05003MPS 9999 FEW023 23/20 Q1015 NOSIG
ZJSY,2020-10-20 16:00,109.4123,18.3029,77.00,69.80,78.48,30.00,3.89,0.00,29.91,M,6.21,M,M,M,M,M,M,M,M,M,M,M,M,M,M,M,M,M,ZJSY 201600Z 03002MPS 310V090 CAVOK 25/21 Q1013 NOSIG
ZUGY,2020-10-20 16:00,106.7333,26.5833,50.00,48.20,93.50,350.00,3.89,0.00,30.33,M,4.97,M,SCT,BKN,OVC,M,800.00,1500.00,3300.00,M,-RA,M,M,M,M,M,M,M,ZUGY 201600Z 35002MPS 8000 -RA SCT008 BKN015 OVC033 10/09 Q1027 NOSIG
ZGSZ,2020-10-20 16:00,114.1000,22.5500,73.40,59.00,60.67,10.00,13.61,0.00,30.00,M,6.21,M,M,M,M,M,M,M,M,M,M,M,M,M,M,M,M,M,ZGSZ 201600Z 01007MPS CAVOK 23/15 Q1016 NOSIG
ZHCC,2020-10-20 16:00,113.6500,34.7167,59.00,51.80,76.98,210.00,1.94,0.00,30.12,M,2.49,M,NSC,M,M,M,M,M,M,M,HZ,M,M,M,M,M,M,M,ZHCC 201600Z 21001MPS 4000 HZ NSC 15/11 Q1020 NOSIG
ZGNN,2020-10-20 16:00,108.2167,22.6333,66.20,55.40,68.15,340.00,7.78,0.00,30.12,M,6.21,M,M,M,M,M,M,M,M,M,M,M,M,M,M,M,M,M,ZGNN 201600Z 34004MPS 300V020 CAVOK 19/13 Q1020 NOSIG
ZBAA,2020-10-20 16:00,116.5870,40.0741,53.60,46.40,76.50,310.00,3.89,0.00,30.00,M,3.11,M,NSC,M,M,M,M,M,M,M,BR,M,M,M,M,M,M,M,ZBAA 201600Z 31002MPS 290V010 5000 BR NSC 12/08 Q1016 NOSIG
ZBHH,2020-10-20 16:00,111.6833,40.8167,33.80,14.00,43.65,310.00,11.66,0.00,30.24,M,6.21,M,M,M,M,M,M,M,M,M,M,M,M,M,M,M,M,24.44,ZBHH 201600Z 31006MPS CAVOK 01/M10 Q1024 NOSIG
ZBSJ,2020-10-20 16:00,114.6973,38.2807,51.80,46.40,81.74,280.00,3.89,0.00,29.97,M,1.68,M,NSC,M,M,M,M,M,M,M,BR,M,M,M,M,M,M,M,ZBSJ 201600Z 28002MPS 2700 BR NSC 11/08 Q1015 BECMG TL1730 3000
ZBTJ,2020-10-20 16:00,117.3462,39.1243,60.80,42.80,51.45,190.00,9.72,0.00,29.97,M,3.11,M,NSC,M,M,M,M,M,M,M,HZ,M,M,M,M,M,M,M,ZBTJ 201600Z 19005MPS 5000 HZ NSC 16/06 Q1015 NOSIG
ZYTL,2020-10-20 16:00,121.6333,38.9000,62.60,50.00,63.38,200.00,9.72,0.00,30.09,M,6.21,M,M,M,M,M,M,M,M,M,M,M,M,M,M,M,M,M,ZYTL 201600Z 20005MPS 150V220 CAVOK 17/10 Q1019 NOSIG
ZYTX,2020-10-20 16:00,123.4000,41.8000,60.80,33.80,36.16,180.00,7.78,0.00,30.03,M,6.21,M,M,M,M,M,M,M,M,M,M,M,M,M,M,M,M,M,ZYTX 201600Z 18004MPS CAVOK 16/01 Q1017 NOSIG
ZLLL,2020-10-20 16:00,103.7500,36.0200,33.80,17.60,51.04,330.00,3.89,0.00,30.42,M,6.21,M,M,M,M,M,M,M,M,M,M,M,M,M,M,M,M,29.65,ZLLL 201600Z 33002MPS CAVOK 01/M08 Q1030 NOSIG
ZLXY,2020-10-20 16:00,108.7516,34.4471,51.80,48.20,87.47,270.00,3.89,0.00,30.24,M,6.21,M,M,M,M,M,M,M,M,M,M,M,M,M,M,M,M,M,ZLXY 201600Z 27002MPS CAVOK 11/09 Q1024 NOSIG
ZSAM,2020-10-20 16:00,118.0833,24.4833,75.20,60.80,60.90,M,1.94,0.00,29.97,M,6.21,M,BKN,M,M,M,4000.00,M,M,M,M,M,M,M,M,M,M,M,ZSAM 201600Z VRB01MPS 9999 BKN040 24/16 Q1015 NOSIG
ZPPP,2020-10-20 16:00,102.6833,25.0167,48.20,48.20,100.00,40.00,11.66,0.00,30.39,M,3.11,M,SCT,SCT,OVC,M,300.00,1600.00,3000.00,M,-RA BR,M,M,M,M,M,M,42.72,ZPPP 201600Z 04006MPS 5000 -RA BR SCT003 SCT016 OVC030 09/09 Q1029 NOSIG
ZSFZ,2020-10-20 16:00,119.2833,26.0833,71.60,57.20,60.44,10.00,9.72,0.00,30.03,M,6.21,19.44,BKN,M,M,M,3300.00,M,M,M,M,M,M,M,M,M,M,M,ZSFZ 201600Z 01005G10MPS 340V040 9999 BKN033 22/14 Q1017 NOSIG
ZSHC,2020-10-20 16:00,120.1667,30.2333,60.80,59.00,93.79,180.00,1.94,0.00,30.12,M,6.21,M,M,M,M,M,M,M,M,M,M,M,M,M,M,M,M,M,ZSHC 201600Z 18001MPS CAVOK 16/15 Q1020 NOSIG
ZSNB,2020-10-20 16:00,121.4619,29.8267,62.60,57.20,82.50,190.00,1.94,0.00,30.12,M,6.21,M,M,M,M,M,M,M,M,M,M,M,M,M,M,M,M,M,ZSNB 201600Z 19001MPS CAVOK 17/14 Q1020 NOSIG
ZSOF,2020-10-20 16:00,117.2984,31.7800,60.80,53.60,77.14,M,3.89,0.00,30.15,M,4.35,M,NSC,M,M,M,M,M,M,M,M,M,M,M,M,M,M,M,ZSOF 201600Z VRB02MPS 7000 NSC 16/12 Q1021 NOSIG
ZSQD,2020-10-20 16:00,120.3333,36.0667,62.60,51.80,67.75,180.00,5.83,0.00,30.12,M,6.21,M,M,M,M,M,M,M,M,M,M,M,M,M,M,M,M,M,ZSQD 201600Z 18003MPS CAVOK 17/11 Q1020 NOSIG
ZSSS,2020-10-20 16:00,121.3363,31.1979,66.20,55.40,68.15,10.00,3.89,0.00,30.15,M,6.21,M,M,M,M,M,M,M,M,M,M,M,M,M,M,M,M,M,ZSSS 201600Z 01002MPS 320V050 CAVOK 19/13 Q1021 NOSIG
ZUCK,2020-10-20 16:00,106.4800,29.5200,59.00,53.60,82.25,290.00,3.89,0.00,30.33,M,6.21,M,M,M,M,M,M,M,M,M,M,M,M,M,M,M,M,M,ZUCK 201600Z 29002MPS 250V310 CAVOK 15/12 Q1027 NOSIG
ZSNJ,2020-10-20 16:00,118.8667,31.7333,60.80,60.80,100.00,M,1.94,0.00,30.15,M,4.97,M,NSC,M,M,M,M,M,M,M,M,M,M,M,M,M,M,M,ZSNJ 201600Z VRB01MPS 8000 NSC 16/16 Q1021 NOSIG
ZSPD,2020-10-20 16:00,121.7667,31.1167,64.40,59.00,82.62,340.00,5.83,0.00,30.12,M,6.21,M,M,M,M,M,M,M,M,M,M,M,M,M,M,M,M,M,ZSPD 201600Z 34003MPS CAVOK 18/15 Q1020 NOSIG
ZUUU,2020-10-20 16:00,104.0167,30.6667,57.20,51.80,82.12,180.00,5.83,0.00,30.36,M,6.21,M,M,M,M,M,M,M,M,M,M,M,M,M,M,M,M,M,ZUUU 201600Z 18003MPS 110V220 CAVOK 14/11 Q1028 NOSIG
ZWWW,2020-10-20 16:00,87.4742,43.9071,51.80,21.20,29.82,M,1.94,0.00,30.18,M,6.21,M,M,M,M,M,M,M,M,M,M,M,M,M,M,M,M,M,ZWWW 201600Z VRB01MPS CAVOK 11/M06 Q1022 NOSIG
ZYCC,2020-10-20 16:00,125.2167,43.9000,57.20,41.00,54.60,200.00,11.66,0.00,29.94,M,3.11,M,NSC,M,M,M,M,M,M,M,HZ,M,M,M,M,M,M,M,ZYCC 201600Z 20006MPS 5000 HZ NSC 14/05 Q1014 NOSIG
ZYHB,2020-10-20 16:00,126.5800,46.0200,57.20,42.80,58.52,180.00,11.66,0.00,29.85,M,4.35,21.38,NSC,M,M,M,M,M,M,M,M,M,M,M,M,M,M,M,ZYHB 201600Z 18006G11MPS 7000 NSC 14/06 Q1011 NOSIG
ZWSH,2020-10-20 16:00,75.9833,39.4667,51.80,19.40,27.62,320.00,7.78,0.00,30.30,M,6.21,M,M,M,M,M,M,M,M,M,,M,M,M,M,M,M,M,ZWSH 201600Z AUTO 32004MPS 9999 // ////// 11/M07 Q1026
ZBAD,2020-10-20 16:00,116.4106,39.5092,50.00,46.40,87.37,340.00,3.89,0.00,29.97,M,2.17,M,NSC,M,M,M,M,M,M,M,BR,M,M,M,M,M,M,M,ZBAD 201600Z 34002MPS 3500 BR NSC 10/08 Q1015 BECMG TL1720 34007MPS
ZMUB,2020-10-20 16:30,106.7666,47.8431,10.40,5.00,78.35,160.00,3.89,0.00,30.06,M,6.21,M,M,M,M,M,M,M,M,M,M,M,M,M,M,M,M,2.38,ZMUB 201630Z 16002MPS CAVOK M12/M15 Q1018 NOSIG RMK QFE656.3 79
ZBYN,2020-10-20 16:30,112.5500,37.7833,44.60,37.40,75.68,350.00,1.94,0.00,30.15,M,2.80,M,NSC,M,M,M,M,M,M,M,HZ,M,M,M,M,M,M,M,ZBYN 201630Z 35001MPS 4500 HZ NSC 07/03 Q1021 NOSIG
ZGGG,2020-10-20 16:30,113.3008,23.3964,69.80,57.20,64.26,340.00,7.78,0.00,30.03,M,6.21,M,M,M,M,M,M,M,M,M,M,M,M,M,M,M,M,M,ZGGG 201630Z 34004MPS CAVOK 21/14 Q1017 NOSIG
ZBAA,2020-10-20 16:30,116.5870,40.0741,53.60,46.40,76.50,300.00,3.89,0.00,30.00,M,3.11,M,NSC,M,M,M,M,M,M,M,BR,M,M,M,M,M,M,M,ZBAA 201630Z 30002MPS 5000 BR NSC 12/08 Q1016 NOSIG
ZBTJ,2020-10-20 16:30,117.3462,39.1243,59.00,42.80,54.86,190.00,5.83,0.00,29.97,M,2.49,M,NSC,M,M,M,M,M,M,M,HZ,M,M,M,M,M,M,M,ZBTJ 201630Z 19003MPS 160V220 4000 HZ NSC 15/06 Q1015 NOSIG
ZYTL,2020-10-20 16:30,121.6333,38.9000,62.60,50.00,63.38,190.00,11.66,0.00,30.09,M,6.21,23.33,M,M,M,M,M,M,M,M,M,M,M,M,M,M,M,M,ZYTL 201630Z 19006G12MPS 160V230 CAVOK 17/10 Q1019 NOSIG
ZYTX,2020-10-20 16:30,123.4000,41.8000,59.00,37.40,44.47,180.00,7.78,0.00,30.03,M,6.21,M,M,M,M,M,M,M,M,M,M,M,M,M,M,M,M,M,ZYTX 201630Z 18004MPS CAVOK 15/03 Q1017 NOSIG
ZSHC,2020-10-20 16:30,120.1667,30.2333,64.40,57.20,77.45,350.00,1.94,0.00,30.12,M,6.21,M,M,M,M,M,M,M,M,M,M,M,M,M,M,M,M,M,ZSHC 201630Z 35001MPS CAVOK 18/14 Q1020 NOSIG
ZSSS,2020-10-20 16:30,121.3363,31.1979,64.40,55.40,72.56,360.00,3.89,0.00,30.12,M,6.21,M,M,M,M,M,M,M,M,M,M,M,M,M,M,M,M,M,ZSSS 201630Z 36002MPS CAVOK 18/13 Q1020 NOSIG
ZSPD,2020-10-20 16:30,121.7667,31.1167,64.40,59.00,82.62,350.00,5.83,0.00,30.12,M,6.21,M,M,M,M,M,M,M,M,M,M,M,M,M,M,M,M,M,ZSPD 201630Z 35003MPS CAVOK 18/15 Q1020 NOSIG
ZWWW,2020-10-20 16:30,87.4742,43.9071,50.00,23.00,34.39,M,1.94,0.00,30.18,M,6.21,M,M,M,M,M,M,M,M,M,M,M,M,M,M,M,M,M,ZWWW 201630Z VRB01MPS CAVOK 10/M05 Q1022 NOSIG
ZBAD,2020-10-20 16:30,116.4106,39.5092,51.80,48.20,87.47,360.00,9.72,0.00,30.00,M,2.17,19.44,NSC,M,M,M,M,M,M,M,BR,M,M,M,M,M,M,M,ZBAD 201630Z 36005G10MPS 3500 BR NSC 11/09 Q1016 NOSIG
ZMUB,2020-10-20 17:00,106.7666,47.8431,8.60,5.00,84.93,180.00,5.83,0.00,30.06,M,6.21,M,M,M,M,M,M,M,M,M,M,M,M,M,M,M,M,-2.45,ZMUB 201700Z 18003MPS CAVOK M13/M15 Q1018 NOSIG RMK QFE656.2 80
ZGHA,2020-10-20 17:00,112.8667,28.2333,60.80,57.20,87.92,360.00,7.78,0.00,30.21,M,3.11,M,NSC,M,M,M,M,M,M,M,BR,M,M,M,M,M,M,M,ZGHA 201700Z 36004MPS 5000 BR NSC 16/14 Q1023 NOSIG
ZBYN,2020-10-20 17:00,112.5500,37.7833,46.40,37.40,70.68,M,1.94,0.00,30.15,M,2.49,M,NSC,M,M,M,M,M,M,M,HZ,M,M,M,M,M,M,M,ZBYN 201700Z VRB01MPS 4000 HZ NSC 08/03 Q1021 NOSIG
ZGGG,2020-10-20 17:00,113.3008,23.3964,69.80,57.20,64.26,340.00,7.78,0.00,30.03,M,6.21,M,M,M,M,M,M,M,M,M,M,M,M,M,M,M,M,M,ZGGG 201700Z 34004MPS CAVOK 21/14 Q1017 NOSIG
ZGKL,2020-10-20 17:00,110.3000,25.3333,62.60,57.20,82.50,330.00,3.89,0.00,30.18,M,6.21,M,SCT,OVC,M,M,3300.00,4600.00,M,M,M,M,M,M,M,M,M,M,ZGKL 201700Z 33002MPS 9999 SCT033 OVC046 17/14 Q1022 NOSIG
ZGOW,2020-10-20 17:00,116.6833,23.4000,73.40,62.60,68.94,360.00,7.78,0.00,29.94,M,6.21,M,SCT,M,M,M,5000.00,M,M,M,M,M,M,M,M,M,M,M,ZGOW 201700Z 36004MPS 320V020 9999 SCT050 23/17 Q1014 NOSIG
ZHHH,2020-10-20 17:00,114.1300,30.6200,59.00,57.20,93.74,240.00,5.83,0.00,30.18,M,2.49,M,NSC,M,M,M,M,M,M,M,BR,M,M,M,M,M,M,M,ZHHH 201700Z 24003MPS 4000 BR NSC 15/14 Q1022 NOSIG
ZJHK,2020-10-20 17:00,110.4590,19.9349,75.20,69.80,83.32,20.00,7.78,0.00,29.97,M,6.21,M,SCT,SCT,M,M,2000.00,4600.00,M,M,-RA,M,M,M,M,M,M,M,ZJHK 201700Z 02004MPS 340V050 9999 -RA SCT020 SCT046 24/21 Q1015 NOSIG
ZJSY,2020-10-20 17:00,109.4123,18.3029,77.00,68.00,73.78,40.00,3.89,0.00,29.91,M,6.21,M,M,M,M,M,M,M,M,M,M,M,M,M,M,M,M,M,ZJSY 201700Z 04002MPS 320V080 CAVOK 25/20 Q1013 NOSIG
ZUGY,2020-10-20 17:00,106.7333,26.5833,50.00,48.20,93.50,30.00,5.83,0.00,30.33,M,4.97,M,SCT,BKN,OVC,M,800.00,1500.00,3300.00,M,M,M,M,M,M,M,M,M,ZUGY 201700Z 03003MPS 8000 SCT008 BKN015 OVC033 10/09 Q1027 NOSIG
ZGSZ,2020-10-20 17:00,114.1000,22.5500,71.60,59.00,64.48,20.00,13.61,0.00,30.00,M,6.21,M,M,M,M,M,M,M,M,M,M,M,M,M,M,M,M,M,ZGSZ 201700Z 02007MPS CAVOK 22/15 Q1016 NOSIG
ZHCC,2020-10-20 17:00,113.6500,34.7167,57.20,51.80,82.12,M,1.94,0.00,30.12,M,2.17,M,NSC,M,M,M,M,M,M,M,BR,M,M,M,M,M,M,M,ZHCC 201700Z VRB01MPS 3500 BR NSC 14/11 Q1020 NOSIG
ZGNN,2020-10-20 17:00,108.2167,22.6333,66.20,55.40,68.15,340.00,7.78,0.00,30.12,M,6.21,M,M,M,M,M,M,M,M,M,M,M,M,M,M,M,M,M,ZGNN 201700Z 34004MPS 320V020 CAVOK 19/13 Q1020 NOSIG
ZBAA,2020-10-20 17:00,116.5870,40.0741,51.80,46.40,81.74,310.00,3.89,0.00,30.00,M,3.11,M,NSC,M,M,M,M,M,M,M,BR,M,M,M,M,M,M,M,ZBAA 201700Z 31002MPS 5000 BR NSC 11/08 Q1016 NOSIG
ZBHH,2020-10-20 17:00,111.6833,40.8167,33.80,14.00,43.65,320.00,5.83,0.00,30.24,M,6.21,M,M,M,M,M,M,M,M,M,M,M,M,M,M,M,M,27.83,ZBHH 201700Z 32003MPS 290V360 CAVOK 01/M10 Q1024 NOSIG
ZBSJ,2020-10-20 17:00,114.6973,38.2807,51.80,46.40,81.74,330.00,3.89,0.00,30.00,M,1.68,M,NSC,M,M,M,M,M,M,M,BR,M,M,M,M,M,M,M,ZBSJ 201700Z 33002MPS 2700 BR NSC 11/08 Q1016 NOSIG
ZBTJ,2020-10-20 17:00,117.3462,39.1243,59.00,42.80,54.86,200.00,3.89,0.00,29.97,M,2.49,M,NSC,M,M,M,M,M,M,M,HZ,M,M,M,M,M,M,M,ZBTJ 201700Z 20002MPS 160V250 4000 HZ NSC 15/06 Q1015 NOSIG
ZYTL,2020-10-20 17:00,121.6333,38.9000,62.60,51.80,67.75,190.00,11.66,0.00,30.09,M,6.21,M,M,M,M,M,M,M,M,M,M,M,M,M,M,M,M,M,ZYTL 201700Z 19006MPS CAVOK 17/11 Q1019 NOSIG
ZYTX,2020-10-20 17:00,123.4000,41.8000,59.00,39.20,47.72,180.00,9.72,0.00,30.03,M,6.21,M,M,M,M,M,M,M,M,M,M,M,M,M,M,M,M,M,ZYTX 201700Z 18005MPS CAVOK 15/04 Q1017 NOSIG
ZLLL,2020-10-20 17:00,103.7500,36.0200,32.00,17.60,54.87,330.00,5.83,0.00,30.39,M,6.21,M,M,M,M,M,M,M,M,M,M,M,M,M,M,M,M,25.67,ZLLL 201700Z 33003MPS CAVOK 00/M08 Q1029 NOSIG
ZLXY,2020-10-20 17:00,108.7516,34.4471,50.00,46.40,87.37,250.00,3.89,0.00,30.24,M,6.21,M,M,M,M,M,M,M,M,M,M,M,M,M,M,M,M,M,ZLXY 201700Z 25002MPS CAVOK 10/08 Q1024 NOSIG
ZSAM,2020-10-20 17:00,118.0833,24.4833,75.20,60.80,60.90,M,1.94,0.00,29.94,M,6.21,M,BKN,M,M,M,4000.00,M,M,M,M,M,M,M,M,M,M,M,ZSAM 201700Z VRB01MPS 9999 BKN040 24/16 Q1014 NOSIG
ZPPP,2020-10-20 17:00,102.6833,25.0167,46.40,46.40,100.00,40.00,13.61,0.00,30.39,M,2.17,M,SCT,SCT,OVC,M,300.00,1600.00,3000.00,M,-RA BR,M,M,M,M,M,M,39.84,ZPPP 201700Z 04007MPS 3500 -RA BR SCT003 SCT016 OVC030 08/08 Q1029 NOSIG
ZSFZ,2020-10-20 17:00,119.2833,26.0833,71.60,57.20,60.44,10.00,9.72,0.00,30.00,M,6.21,M,BKN,M,M,M,3000.00,M,M,M,M,M,M,M,M,M,M,M,ZSFZ 201700Z 01005MPS 9999 BKN030 22/14 Q1016 NOSIG
ZSHC,2020-10-20 17:00,120.1667,30.2333,62.60,59.00,88.00,0.00,0.00,0.00,30.09,M,4.97,M,NSC,M,M,M,M,M,M,M,M,M,M,M,M,M,M,M,ZSHC 201700Z 00000MPS 8000 NSC 17/15 Q1019 NOSIG
ZSNB,2020-10-20 17:00,121.4619,29.8267,62.60,59.00,88.00,M,1.94,0.00,30.12,M,6.21,M,SCT,M,M,M,3000.00,M,M,M,M,M,M,M,M,M,M,M,ZSNB 201700Z VRB01MPS 9999 SCT030 17/15 Q1020 NOSIG
ZSOF,2020-10-20 17:00,117.2984,31.7800,59.00,55.40,87.83,300.00,3.89,0.00,30.15,M,4.35,M,NSC,M,M,M,M,M,M,M,M,M,M,M,M,M,M,M,ZSOF 201700Z 30002MPS 7000 NSC 15/13 Q1021 NOSIG
ZSQD,2020-10-20 17:00,120.3333,36.0667,62.60,53.60,72.38,180.00,3.89,0.00,30.12,M,6.21,M,SCT,M,M,M,4000.00,M,M,M,M,M,M,M,M,M,M,M,ZSQD 201700Z 18002MPS 9999 SCT040 17/12 Q1020 NOSIG
ZSSS,2020-10-20 17:00,121.3363,31.1979,64.40,57.20,77.45,360.00,3.89,0.00,30.12,M,6.21,M,M,M,M,M,M,M,M,M,M,M,M,M,M,M,M,M,ZSSS 201700Z 36002MPS CAVOK 18/14 Q1020 NOSIG
ZUCK,2020-10-20 17:00,106.4800,29.5200,59.00,53.60,82.25,300.00,5.83,0.00,30.33,M,6.21,M,M,M,M,M,M,M,M,M,M,M,M,M,M,M,M,M,ZUCK 201700Z 30003MPS 260V330 CAVOK 15/12 Q1027 NOSIG
ZSNJ,2020-10-20 17:00,118.8667,31.7333,60.80,59.00,93.79,0.00,0.00,0.00,30.12,M,4.97,M,NSC,M,M,M,M,M,M,M,M,M,M,M,M,M,M,M,ZSNJ 201700Z 00000MPS 8000 NSC 16/15 Q1020 NOSIG
ZSPD,2020-10-20 17:00,121.7667,31.1167,62.60,59.00,88.00,360.00,5.83,0.00,30.12,M,6.21,M,M,M,M,M,M,M,M,M,M,M,M,M,M,M,M,M,ZSPD 201700Z 36003MPS CAVOK 17/15 Q1020 NOSIG
ZUUU,2020-10-20 17:00,104.0167,30.6667,57.20,51.80,82.12,190.00,5.83,0.00,30.33,M,6.21,M,M,M,M,M,M,M,M,M,M,M,M,M,M,M,M,M,ZUUU 201700Z 19003MPS 140V230 CAVOK 14/11 Q1027 NOSIG
ZWWW,2020-10-20 17:00,87.4742,43.9071,48.20,21.20,34.09,M,1.94,0.00,30.15,M,6.21,M,M,M,M,M,M,M,M,M,M,M,M,M,M,M,M,M,ZWWW 201700Z VRB01MPS CAVOK 09/M06 Q1021 NOSIG
ZYCC,2020-10-20 17:00,125.2167,43.9000,57.20,41.00,54.60,200.00,13.61,0.00,29.91,M,3.73,M,NSC,M,M,M,M,M,M,M,M,M,M,M,M,M,M,M,ZYCC 201700Z 20007MPS 6000 NSC 14/05 Q1013 NOSIG
ZYHB,2020-10-20 17:00,126.5800,46.0200,57.20,42.80,58.52,180.00,13.61,0.00,29.83,M,4.35,23.33,NSC,M,M,M,M,M,M,M,M,M,M,M,M,M,M,M,ZYHB 201700Z 18007G12MPS 7000 NSC 14/06 Q1010 NOSIG
ZWSH,2020-10-20 17:00,75.9833,39.4667,51.80,17.60,25.56,320.00,3.89,0.00,30.27,M,4.97,M,M,M,M,M,M,M,M,M,,M,M,M,M,M,M,M,ZWSH 201700Z AUTO 32002MPS 8000 // ////// 11/M08 Q1025
ZBAD,2020-10-20 17:00,116.4106,39.5092,51.80,46.40,81.74,10.00,7.78,0.00,30.00,M,2.17,M,NSC,M,M,M,M,M,M,M,BR,M,M,M,M,M,M,M,ZBAD 201700Z 01004MPS 3500 BR NSC 11/08 Q1016 NOSIG
ZMUB,2020-10-20 17:30,106.7666,47.8431,10.40,5.00,78.35,M,1.94,0.00,30.06,M,6.21,M,M,M,M,M,M,M,M,M,M,M,M,M,M,M,M,M,ZMUB 201730Z VRB01MPS CAVOK M12/M15 Q1018 NOSIG RMK QFE656.0 79
ZBYN,2020-10-20 17:30,112.5500,37.7833,44.60,37.40,75.68,M,1.94,0.00,30.15,M,2.49,M,NSC,M,M,M,M,M,M,M,HZ,M,M,M,M,M,M,M,ZBYN 201730Z VRB01MPS 4000 HZ NSC 07/03 Q1021 NOSIG
ZGGG,2020-10-20 17:30,113.3008,23.3964,68.00,57.20,68.35,340.00,9.72,0.00,30.03,M,6.21,M,M,M,M,M,M,M,M,M,M,M,M,M,M,M,M,M,ZGGG 201730Z 34005MPS CAVOK 20/14 Q1017 NOSIG
ZBAA,2020-10-20 17:30,116.5870,40.0741,50.00,46.40,87.37,340.00,3.89,0.00,30.00,M,4.35,M,NSC,M,M,M,M,M,M,M,M,M,M,M,M,M,M,M,ZBAA 201730Z 34002MPS 7000 NSC 10/08 Q1016 NOSIG
ZBTJ,2020-10-20 17:30,117.3462,39.1243,59.00,44.60,58.77,280.00,3.89,0.00,30.00,M,2.49,M,NSC,M,M,M,M,M,M,M,HZ,M,M,M,M,M,M,M,ZBTJ 201730Z 28002MPS 230V320 4000 HZ NSC 15/07 Q1016 NOSIG
ZYTL,2020-10-20 17:30,121.6333,38.9000,62.60,51.80,67.75,200.00,7.78,0.00,30.09,M,6.21,M,M,M,M,M,M,M,M,M,M,M,M,M,M,M,M,M,ZYTL 201730Z 20004MPS 170V240 CAVOK 17/11 Q1019 NOSIG
ZYTX,2020-10-20 17:30,123.4000,41.8000,60.80,41.00,48.00,180.00,9.72,0.00,30.00,M,6.21,M,M,M,M,M,M,M,M,M,M,M,M,M,M,M,M,M,ZYTX 201730Z 18005MPS CAVOK 16/05 Q1016 NOSIG
ZSHC,2020-10-20 17:30,120.1667,30.2333,62.60,59.00,88.00,250.00,1.94,0.00,30.09,M,4.97,M,NSC,M,M,M,M,M,M,M,-RA,M,M,M,M,M,M,M,ZSHC 201730Z 25001MPS 8000 -RA NSC 17/15 Q1019 NOSIG
ZSSS,2020-10-20 17:30,121.3363,31.1979,64.40,57.20,77.45,360.00,3.89,0.00,30.12,M,6.21,M,M,M,M,M,M,M,M,M,M,M,M,M,M,M,M,M,ZSSS 201730Z 36002MPS CAVOK 18/14 Q1020 NOSIG
ZSPD,2020-10-20 17:30,121.7667,31.1167,64.40,59.00,82.62,350.00,3.89,0.00,30.12,M,6.21,M,M,M,M,M,M,M,M,M,M,M,M,M,M,M,M,M,ZSPD 201730Z 35002MPS CAVOK 18/15 Q1020 NOSIG
ZWWW,2020-10-20 17:30,87.4742,43.9071,46.40,23.00,39.36,140.00,1.94,0.00,30.15,M,6.21,M,M,M,M,M,M,M,M,M,M,M,M,M,M,M,M,M,ZWWW 201730Z 14001MPS CAVOK 08/M05 Q1021 NOSIG
ZBAD,2020-10-20 17:30,116.4106,39.5092,51.80,46.40,81.74,60.00,3.89,0.00,30.00,M,2.17,M,NSC,M,M,M,M,M,M,M,BR,M,M,M,M,M,M,M,ZBAD 201730Z 06002MPS 020V130 3500 BR NSC 11/08 Q1016 NOSIG
ZMUB,2020-10-20 18:00,106.7666,47.8431,8.60,3.20,78.18,M,1.94,0.00,30.06,M,6.21,M,M,M,M,M,M,M,M,M,M,M,M,M,M,M,M,M,ZMUB 201800Z VRB01MPS CAVOK M13/M16 Q1018 NOSIG RMK QFE655.9 76
ZGHA,2020-10-20 18:00,112.8667,28.2333,59.00,57.20,93.74,350.00,7.78,0.00,30.21,M,3.11,M,FEW,M,M,M,1200.00,M,M,M,-RA BR,M,M,M,M,M,M,M,ZGHA 201800Z 35004MPS 5000 -RA BR FEW012 15/14 Q1023 NOSIG
ZBYN,2020-10-20 18:00,112.5500,37.7833,48.20,19.40,31.57,310.00,7.78,0.00,30.15,M,4.35,M,NSC,M,M,M,M,M,M,M,M,M,M,M,M,M,M,44.17,ZBYN 201800Z 31004MPS 7000 NSC 09/M07 Q1021 NOSIG
ZGGG,2020-10-20 18:00,113.3008,23.3964,68.00,57.20,68.35,330.00,7.78,0.00,30.00,M,6.21,M,M,M,M,M,M,M,M,M,M,M,M,M,M,M,M,M,ZGGG 201800Z 33004MPS 310V010 CAVOK 20/14 Q1016 NOSIG
ZGKL,2020-10-20 18:00,110.3000,25.3333,62.60,57.20,82.50,M,1.94,0.00,30.18,M,6.21,M,SCT,OVC,M,M,3300.00,4600.00,M,M,M,M,M,M,M,M,M,M,ZGKL 201800Z VRB01MPS 9999 SCT033 OVC046 17/14 Q1022 NOSIG
ZGOW,2020-10-20 18:00,116.6833,23.4000,73.40,60.80,64.69,360.00,7.78,0.00,29.91,M,6.21,M,FEW,M,M,M,5000.00,M,M,M,M,M,M,M,M,M,M,M,ZGOW 201800Z 36004MPS 9999 FEW050 23/16 Q1013 NOSIG
ZHHH,2020-10-20 18:00,114.1300,30.6200,59.00,55.40,87.83,270.00,7.78,0.00,30.18,M,3.73,M,NSC,M,M,M,M,M,M,M,-RA,M,M,M,M,M,M,M,ZHHH 201800Z 27004MPS 230V300 6000 -RA NSC 15/13 Q1022 NOSIG
ZJHK,2020-10-20 18:00,110.4590,19.9349,73.40,71.60,94.10,20.00,5.83,0.00,29.94,M,6.21,M,SCT,SCT,M,M,2000.00,4600.00,M,M,-RA,M,M,M,M,M,M,M,ZJHK 201800Z 02003MPS 9999 -RA SCT020 SCT046 23/22 Q1014 NOSIG
ZJSY,2020-10-20 18:00,109.4123,18.3029,75.20,68.00,78.34,M,1.94,0.00,29.88,M,6.21,M,M,M,M,M,M,M,M,M,M,M,M,M,M,M,M,M,ZJSY 201800Z VRB01MPS CAVOK 24/20 Q1012 NOSIG
ZUGY,2020-10-20 18:00,106.7333,26.5833,50.00,48.20,93.50,20.00,3.89,0.00,30.33,M,4.97,M,SCT,BKN,OVC,M,800.00,1600.00,3300.00,M,-RA,M,M,M,M,M,M,M,ZUGY 201800Z 02002MPS 8000 -RA SCT008 BKN016 OVC033 10/09 Q1027 NOSIG
ZGSZ,2020-10-20 18:00,114.1000,22.5500,71.60,57.20,60.44,20.00,11.66,0.00,29.97,M,6.21,M,M,M,M,M,M,M,M,M,M,M,M,M,M,M,M,M,ZGSZ 201800Z 02006MPS CAVOK 22/14 Q1015 NOSIG
ZHCC,2020-10-20 18:00,113.6500,34.7167,57.20,51.80,82.12,220.00,3.89,0.00,30.09,M,1.86,M,NSC,M,M,M,M,M,M,M,BR,M,M,M,M,M,M,M,ZHCC 201800Z 22002MPS 180V260 3000 BR NSC 14/11 Q1019 NOSIG
ZGNN,2020-10-20 18:00,108.2167,22.6333,64.40,55.40,72.56,350.00,5.83,0.00,30.12,M,6.21,M,M,M,M,M,M,M,M,M,M,M,M,M,M,M,M,M,ZGNN 201800Z 35003MPS 310V020 CAVOK 18/13 Q1020 NOSIG
ZBAA,2020-10-20 18:00,116.5870,40.0741,53.60,41.00,62.23,350.00,5.83,0.00,30.00,M,6.21,M,M,M,M,M,M,M,M,M,M,M,M,M,M,M,M,M,ZBAA 201800Z 35003MPS CAVOK 12/05 Q1016 NOSIG
ZBHH,2020-10-20 18:00,111.6833,40.8167,32.00,12.20,43.34,320.00,7.78,0.00,30.24,M,6.21,M,M,M,M,M,M,M,M,M,M,M,M,M,M,M,M,24.26,ZBHH 201800Z 32004MPS 290V360 CAVOK 00/M11 Q1024 NOSIG
ZBSJ,2020-10-20 18:00,114.6973,38.2807,51.80,46.40,81.74,310.00,5.83,0.00,30.00,M,1.68,M,NSC,M,M,M,M,M,M,M,BR,M,M,M,M,M,M,M,ZBSJ 201800Z 31003MPS 250V340 2700 BR NSC 11/08 Q1016 NOSIG
ZBTJ,2020-10-20 18:00,117.3462,39.1243,59.00,44.60,58.77,220.00,3.89,0.00,30.00,M,2.49,M,NSC,M,M,M,M,M,M,M,HZ,M,M,M,M,M,M,M,ZBTJ 201800Z 22002MPS 180V260 4000 HZ NSC 15/07 Q1016 NOSIG
ZYTL,2020-10-20 18:00,121.6333,38.9000,62.60,51.80,67.75,200.00,7.78,0.00,30.06,M,6.21,M,M,M,M,M,M,M,M,M,M,M,M,M,M,M,M,M,ZYTL 201800Z 20004MPS 130V240 CAVOK 17/11 Q1018 NOSIG
ZYTX,2020-10-20 18:00,123.4000,41.8000,60.80,41.00,48.00,180.00,9.72,0.00,30.00,M,6.21,M,M,M,M,M,M,M,M,M,M,M,M,M,M,M,M,M,ZYTX 201800Z 18005MPS CAVOK 16/05 Q1016 NOSIG
ZLLL,2020-10-20 18:00,103.7500,36.0200,35.60,15.80,43.95,320.00,5.83,0.00,30.39,M,6.21,M,M,M,M,M,M,M,M,M,M,M,M,M,M,M,M,29.99,ZLLL 201800Z 32003MPS CAVOK 02/M09 Q1029 NOSIG
ZLXY,2020-10-20 18:00,108.7516,34.4471,48.20,46.40,93.45,230.00,1.94,0.00,30.24,M,6.21,M,M,M,M,M,M,M,M,M,M,M,M,M,M,M,M,M,ZLXY 201800Z 23001MPS CAVOK 09/08 Q1024 NOSIG
ZSAM,2020-10-20 18:00,118.0833,24.4833,75.20,60.80,60.90,10.00,3.89,0.00,29.94,M,6.21,M,BKN,M,M,M,4000.00,M,M,M,M,M,M,M,M,M,M,M,ZSAM 201800Z 01002MPS 9999 BKN040 24/16 Q1014 NOSIG
ZPPP,2020-10-20 18:00,102.6833,25.0167,46.40,46.40,100.00,40.00,13.61,0.00,30.39,M,3.11,M,SCT,SCT,OVC,M,300.00,1600.00,3000.00,M,-RA BR,M,M,M,M,M,M,39.84,ZPPP 201800Z 04007MPS 5000 -RA BR SCT003 SCT016 OVC030 08/08 Q1029 NOSIG
ZSFZ,2020-10-20 18:00,119.2833,26.0833,71.60,57.20,60.44,350.00,5.83,0.00,29.97,M,6.21,M,BKN,M,M,M,3000.00,M,M,M,M,M,M,M,M,M,M,M,ZSFZ 201800Z 35003MPS 320V020 9999 BKN030 22/14 Q1015 NOSIG
ZSHC,2020-10-20 18:00,120.1667,30.2333,62.60,59.00,88.00,260.00,3.89,0.00,30.09,M,4.97,M,NSC,M,M,M,M,M,M,M,M,M,M,M,M,M,M,M,ZSHC 201800Z 26002MPS 8000 NSC 17/15 Q1019 NOSIG
ZSNB,2020-10-20 18:00,121.4619,29.8267,62.60,59.00,88.00,180.00,1.94,0.00,30.09,M,6.21,M,SCT,M,M,M,3000.00,M,M,M,M,M,M,M,M,M,M,M,ZSNB 201800Z 18001MPS 9999 SCT030 17/15 Q1019 NOSIG
ZSOF,2020-10-20 18:00,117.2984,31.7800,59.00,53.60,82.25,M,1.94,0.00,30.12,M,4.35,M,NSC,M,M,M,M,M,M,M,M,M,M,M,M,M,M,M,ZSOF 201800Z VRB01MPS 7000 NSC 15/12 Q1020 NOSIG
ZSQD,2020-10-20 18:00,120.3333,36.0667,62.60,53.60,72.38,170.00,5.83,0.00,30.09,M,6.21,M,M,M,M,M,M,M,M,M,M,M,M,M,M,M,M,M,ZSQD 201800Z 17003MPS CAVOK 17/12 Q1019 NOSIG
ZSSS,2020-10-20 18:00,121.3363,31.1979,64.40,57.20,77.45,360.00,3.89,0.00,30.12,M,6.21,M,M,M,M,M,M,M,M,M,M,M,M,M,M,M,M,M,ZSSS 201800Z 36002MPS CAVOK 18/14 Q1020 NOSIG
ZUCK,2020-10-20 18:00,106.4800,29.5200,57.20,55.40,93.69,270.00,3.89,0.00,30.33,M,6.21,M,M,M,M,M,M,M,M,M,M,M,M,M,M,M,M,M,ZUCK 201800Z 27002MPS 220V310 CAVOK 14/13 Q1027 NOSIG
ZSNJ,2020-10-20 18:00,118.8667,31.7333,60.80,60.80,100.00,M,1.94,0.00,30.12,M,3.73,M,NSC,M,M,M,M,M,M,M,M,M,M,M,M,M,M,M,ZSNJ 201800Z VRB01MPS 6000 NSC 16/16 Q1020 NOSIG
ZSPD,2020-10-20 18:00,121.7667,31.1167,64.40,60.80,88.09,340.00,5.83,0.00,30.12,M,6.21,M,M,M,M,M,M,M,M,M,M,M,M,M,M,M,M,M,ZSPD 201800Z 34003MPS CAVOK 18/16 Q1020 NOSIG
ZUUU,2020-10-20 18:00,104.0167,30.6667,55.40,53.60,93.65,160.00,3.89,0.00,30.33,M,6.21,M,M,M,M,M,M,M,M,M,M,M,M,M,M,M,M,M,ZUUU 201800Z 16002MPS 040V190 CAVOK 13/12 Q1027 NOSIG
ZWWW,2020-10-20 18:00,87.4742,43.9071,46.40,26.60,45.73,150.00,3.89,0.00,30.15,M,6.21,M,M,M,M,M,M,M,M,M,M,M,M,M,M,M,M,44.33,ZWWW 201800Z 15002MPS CAVOK 08/M03 Q1021 NOSIG
ZYCC,2020-10-20 18:00,125.2167,43.9000,57.20,39.20,50.91,200.00,15.55,0.00,29.91,M,3.73,M,NSC,M,M,M,M,M,M,M,M,M,M,M,M,M,M,M,ZYCC 201800Z 20008MPS 6000 NSC 14/04 Q1013 NOSIG
ZYHB,2020-10-20 18:00,126.5800,46.0200,57.20,44.60,62.69,190.00,13.61,0.00,29.83,M,3.73,M,NSC,M,M,M,M,M,M,M,M,M,M,M,M,M,M,M,ZYHB 201800Z 19007MPS 6000 NSC 14/07 Q1010 NOSIG
ZWSH,2020-10-20 18:00,75.9833,39.4667,50.00,17.60,27.33,320.00,9.72,0.00,30.27,M,6.21,M,M,M,M,M,M,M,M,M,,M,M,M,M,M,M,M,ZWSH 201800Z AUTO 32005MPS 9999 // ////// 10/M08 Q1025
ZBAD,2020-10-20 18:00,116.4106,39.5092,51.80,46.40,81.74,120.00,1.94,0.00,30.00,M,2.17,M,NSC,M,M,M,M,M,M,M,BR,M,M,M,M,M,M,M,ZBAD 201800Z 12001MPS 3500 BR NSC 11/08 Q1016 NOSIG
ZMUB,2020-10-20 18:30,106.7666,47.8431,5.00,1.40,84.68,150.00,3.89,0.00,30.06,M,6.21,M,M,M,M,M,M,M,M,M,M,M,M,M,M,M,M,-3.91,ZMUB 201830Z 15002MPS CAVOK M15/M17 Q1018 NOSIG RMK QFE655.9 78
ZBYN,2020-10-20 18:30,112.5500,37.7833,51.80,8.60,17.20,300.00,9.72,0.00,30.15,M,4.97,M,NSC,M,M,M,M,M,M,M,M,M,M,M,M,M,M,M,ZBYN 201830Z 30005MPS 8000 NSC 11/M13 Q1021 NOSIG
ZGGG,2020-10-20 18:30,113.3008,23.3964,68.00,57.20,68.35,350.00,7.78,0.00,30.00,M,6.21,M,M,M,M,M,M,M,M,M,M,M,M,M,M,M,M,M,ZGGG 201830Z 35004MPS CAVOK 20/14 Q1016 NOSIG
ZBAA,2020-10-20 18:30,116.5870,40.0741,57.20,32.00,38.26,300.00,9.72,0.00,30.00,M,6.21,M,M,M,M,M,M,M,M,M,M,M,M,M,M,M,M,M,ZBAA 201830Z 30005MPS CAVOK 14/M00 Q1016 NOSIG
ZBTJ,2020-10-20 18:30,117.3462,39.1243,59.00,44.60,58.77,M,1.94,0.00,30.00,M,2.49,M,NSC,M,M,M,M,M,M,M,HZ,M,M,M,M,M,M,M,ZBTJ 201830Z VRB01MPS 4000 HZ NSC 15/07 Q1016 NOSIG
ZYTL,2020-10-20 18:30,121.6333,38.9000,62.60,51.80,67.75,190.00,7.78,0.00,30.06,M,6.21,M,M,M,M,M,M,M,M,M,M,M,M,M,M,M,M,M,ZYTL 201830Z 19004MPS 150V260 CAVOK 17/11 Q1018 NOSIG
ZYTX,2020-10-20 18:30,123.4000,41.8000,59.00,42.80,54.86,170.00,5.83,0.00,30.00,M,6.21,M,M,M,M,M,M,M,M,M,M,M,M,M,M,M,M,M,ZYTX 201830Z 17003MPS CAVOK 15/06 Q1016 NOSIG
ZSHC,2020-10-20 18:30,120.1667,30.2333,62.60,57.20,82.50,270.00,3.89,0.00,30.09,M,4.97,M,NSC,M,M,M,M,M,M,M,M,M,M,M,M,M,M,M,ZSHC 201830Z 27002MPS 8000 NSC 17/14 Q1019 NOSIG
ZSSS,2020-10-20 18:30,121.3363,31.1979,64.40,59.00,82.62,350.00,3.89,0.00,30.12,M,6.21,M,M,M,M,M,M,M,M,M,M,M,M,M,M,M,M,M,ZSSS 201830Z 35002MPS CAVOK 18/15 Q1020 NOSIG
ZSPD,2020-10-20 18:30,121.7667,31.1167,64.40,60.80,88.09,340.00,5.83,0.00,30.09,M,6.21,M,M,M,M,M,M,M,M,M,M,M,M,M,M,M,M,M,ZSPD 201830Z 34003MPS CAVOK 18/16 Q1019 NOSIG
ZWWW,2020-10-20 18:30,87.4742,43.9071,44.60,24.80,45.44,160.00,3.89,0.00,30.15,M,6.21,M,M,M,M,M,M,M,M,M,M,M,M,M,M,M,M,42.23,ZWWW 201830Z 16002MPS CAVOK 07/M04 Q1021 NOSIG
ZBAD,2020-10-20 18:30,116.4106,39.5092,48.20,44.60,87.28,M,1.94,0.00,30.00,M,2.17,M,NSC,M,M,M,M,M,M,M,BR,M,M,M,M,M,M,M,ZBAD 201830Z VRB01MPS 3500 BR NSC 09/07 Q1016 NOSIG
ZGHA,2020-10-20 19:00,112.8667,28.2333,57.20,55.40,93.69,330.00,11.66,0.00,30.21,M,1.86,M,BKN,M,M,M,700.00,M,M,M,-RA BR,M,M,M,M,M,M,M,ZGHA 201900Z 33006MPS 3000 -RA BR BKN007 14/13 Q1023 NOSIG
ZBYN,2020-10-20 19:00,112.5500,37.7833,48.20,10.40,21.31,320.00,9.72,0.00,30.15,M,4.97,M,NSC,M,M,M,M,M,M,M,M,M,M,M,M,M,M,43.38,ZBYN 201900Z 32005MPS 8000 NSC 09/M12 Q1021 NOSIG
ZGGG,2020-10-20 19:00,113.3008,23.3964,68.00,57.20,68.35,340.00,7.78,0.00,30.00,M,6.21,M,M,M,M,M,M,M,M,M,M,M,M,M,M,M,M,M,ZGGG 201900Z 34004MPS CAVOK 20/14 Q1016 NOSIG
ZGKL,2020-10-20 19:00,110.3000,25.3333,62.60,55.40,77.29,350.00,3.89,0.00,30.15,M,6.21,M,SCT,OVC,M,M,3300.00,4600.00,M,M,M,M,M,M,M,M,M,M,ZGKL 201900Z 35002MPS 9999 SCT033 OVC046 17/13 Q1021 NOSIG
ZGOW,2020-10-20 19:00,116.6833,23.4000,71.60,60.80,68.75,360.00,5.83,0.00,29.91,M,6.21,M,M,M,M,M,M,M,M,M,M,M,M,M,M,M,M,M,ZGOW 201900Z 36003MPS 320V020 CAVOK 22/16 Q1013 NOSIG
ZHHH,2020-10-20 19:00,114.1300,30.6200,60.80,53.60,77.14,270.00,5.83,0.00,30.18,M,6.21,M,M,M,M,M,M,M,M,M,M,M,M,M,M,M,M,M,ZHHH 201900Z 27003MPS 230V320 CAVOK 16/12 Q1022 NOSIG
ZJHK,2020-10-20 19:00,110.4590,19.9349,75.20,69.80,83.32,30.00,9.72,0.00,29.94,M,6.21,M,SCT,SCT,M,M,2000.00,4000.00,M,M,M,M,M,M,M,M,M,M,ZJHK 201900Z 03005MPS 9999 SCT020 SCT040 24/21 Q1014 NOSIG
ZJSY,2020-10-20 19:00,109.4123,18.3029,73.40,69.80,88.51,M,1.94,0.00,29.88,M,6.21,M,M,M,M,M,M,M,M,M,M,M,M,M,M,M,M,M,ZJSY 201900Z VRB01MPS CAVOK 23/21 Q1012 NOSIG
ZUGY,2020-10-20 19:00,106.7333,26.5833,51.80,48.20,87.47,10.00,3.89,0.00,30.33,M,4.97,M,FEW,BKN,OVC,M,700.00,2000.00,3300.00,M,M,M,M,M,M,M,M,M,ZUGY 201900Z 01002MPS 8000 FEW007 BKN020 OVC033 11/09 Q1027 NOSIG
ZGSZ,2020-10-20 19:00,114.1000,22.5500,71.60,57.20,60.44,10.00,11.66,0.00,29.97,M,6.21,M,M,M,M,M,M,M,M,M,M,M,M,M,M,M,M,M,ZGSZ 201900Z 01006MPS CAVOK 22/14 Q1015 NOSIG
ZHCC,2020-10-20 19:00,113.6500,34.7167,57.20,51.80,82.12,220.00,3.89,0.00,30.09,M,2.17,M,NSC,M,M,M,M,M,M,M,BR,M,M,M,M,M,M,M,ZHCC 201900Z 22002MPS 180V260 3500 BR NSC 14/11 Q1019 NOSIG
ZGNN,2020-10-20 19:00,108.2167,22.6333,64.40,55.40,72.56,10.00,3.89,0.00,30.12,M,6.21,M,SCT,M,M,M,3300.00,M,M,M,M,M,M,M,M,M,M,M,ZGNN 201900Z 01002MPS 320V050 9999 SCT033 18/13 Q1020 NOSIG
ZBAA,2020-10-20 19:00,116.5870,40.0741,57.20,17.60,20.99,300.00,11.66,0.00,30.00,M,6.21,M,M,M,M,M,M,M,M,M,M,M,M,M,M,M,M,M,ZBAA 201900Z 30006MPS CAVOK 14/M08 Q1016 NOSIG
ZBHH,2020-10-20 19:00,111.6833,40.8167,30.20,14.00,50.47,0.00,0.00,0.00,30.24,M,6.21,M,M,M,M,M,M,M,M,M,M,M,M,M,M,M,M,M,ZBHH 201900Z 00000MPS CAVOK M01/M10 Q1024 NOSIG
ZBSJ,2020-10-20 19:00,114.6973,38.2807,53.60,42.80,66.70,320.00,7.78,0.00,30.00,M,2.49,M,NSC,M,M,M,M,M,M,M,HZ,M,M,M,M,M,M,M,ZBSJ 201900Z 32004MPS 4000 HZ NSC 12/06 Q1016 NOSIG
ZBTJ,2020-10-20 19:00,117.3462,39.1243,59.00,44.60,58.77,230.00,3.89,0.00,29.97,M,2.49,M,NSC,M,M,M,M,M,M,M,HZ,M,M,M,M,M,M,M,ZBTJ 201900Z 23002MPS 4000 HZ NSC 15/07 Q1015 NOSIG
ZYTL,2020-10-20 19:00,121.6333,38.9000,62.60,51.80,67.75,190.00,9.72,0.00,30.06,M,6.21,M,FEW,M,M,M,2600.00,M,M,M,M,M,M,M,M,M,M,M,ZYTL 201900Z 19005MPS 160V230 9999 FEW026 17/11 Q1018 NOSIG
ZYTX,2020-10-20 19:00,123.4000,41.8000,59.00,42.80,54.86,170.00,5.83,0.00,29.97,M,6.21,M,M,M,M,M,M,M,M,M,M,M,M,M,M,M,M,M,ZYTX 201900Z 17003MPS CAVOK 15/06 Q1015 NOSIG
ZLLL,2020-10-20 19:00,103.7500,36.0200,33.80,15.80,47.22,330.00,3.89,0.00,30.36,M,4.97,M,NSC,M,M,M,M,M,M,M,M,M,M,M,M,M,M,29.65,ZLLL 201900Z 33002MPS 8000 NSC 01/M09 Q1028 NOSIG
ZLXY,2020-10-20 19:00,108.7516,34.4471,46.40,44.60,93.40,230.00,1.94,0.00,30.24,M,6.21,M,M,M,M,M,M,M,M,M,M,M,M,M,M,M,M,M,ZLXY 201900Z 23001MPS CAVOK 08/07 Q1024 NOSIG
ZSAM,2020-10-20 19:00,118.0833,24.4833,75.20,60.80,60.90,20.00,3.89,0.00,29.91,M,6.21,M,BKN,M,M,M,3300.00,M,M,M,M,M,M,M,M,M,M,M,ZSAM 201900Z 02002MPS 9999 BKN033 24/16 Q1013 NOSIG
ZPPP,2020-10-20 19:00,102.6833,25.0167,44.60,44.60,100.00,40.00,13.61,0.00,30.39,M,4.35,M,SCT,SCT,OVC,M,300.00,1600.00,3000.00,M,-RA,M,M,M,M,M,M,37.52,ZPPP 201900Z 04007MPS 7000 -RA SCT003 SCT016 OVC030 07/07 Q1029 NOSIG
ZSFZ,2020-10-20 19:00,119.2833,26.0833,71.60,57.20,60.44,10.00,5.83,0.00,29.97,M,6.21,M,BKN,M,M,M,2700.00,M,M,M,M,M,M,M,M,M,M,M,ZSFZ 201900Z 01003MPS 340V040 9999 BKN027 22/14 Q1015 NOSIG
ZSHC,2020-10-20 19:00,120.1667,30.2333,62.60,57.20,82.50,240.00,1.94,0.00,30.09,M,3.73,M,NSC,M,M,M,M,M,M,M,M,M,M,M,M,M,M,M,ZSHC 201900Z 24001MPS 6000 NSC 17/14 Q1019 NOSIG
ZSNB,2020-10-20 19:00,121.4619,29.8267,60.80,59.00,93.79,M,1.94,0.00,30.09,M,6.21,M,M,M,M,M,M,M,M,M,M,M,M,M,M,M,M,M,ZSNB 201900Z VRB01MPS CAVOK 16/15 Q1019 NOSIG
ZSOF,2020-10-20 19:00,117.2984,31.7800,59.00,53.60,82.25,M,1.94,0.00,30.12,M,3.73,M,NSC,M,M,M,M,M,M,M,M,M,M,M,M,M,M,M,ZSOF 201900Z VRB01MPS 6000 NSC 15/12 Q1020 NOSIG
ZSQD,2020-10-20 19:00,120.3333,36.0667,64.40,53.60,67.95,220.00,5.83,0.00,30.06,M,6.21,M,M,M,M,M,M,M,M,M,M,M,M,M,M,M,M,M,ZSQD 201900Z 22003MPS CAVOK 18/12 Q1018 NOSIG
ZSSS,2020-10-20 19:00,121.3363,31.1979,64.40,57.20,77.45,360.00,5.83,0.00,30.09,M,6.21,M,M,M,M,M,M,M,M,M,M,M,M,M,M,M,M,M,ZSSS 201900Z 36003MPS CAVOK 18/14 Q1019 NOSIG
ZUCK,2020-10-20 19:00,106.4800,29.5200,57.20,55.40,93.69,180.00,1.94,0.00,30.33,M,6.21,M,M,M,M,M,M,M,M,M,M,M,M,M,M,M,M,M,ZUCK 201900Z 18001MPS CAVOK 14/13 Q1027 NOSIG
ZSNJ,2020-10-20 19:00,118.8667,31.7333,60.80,60.80,100.00,330.00,1.94,0.00,30.09,M,3.73,M,NSC,M,M,M,M,M,M,M,M,M,M,M,M,M,M,M,ZSNJ 201900Z 33001MPS 6000 NSC 16/16 Q1019 NOSIG
ZSPD,2020-10-20 19:00,121.7667,31.1167,62.60,60.80,93.83,330.00,5.83,0.00,30.09,M,6.21,M,M,M,M,M,M,M,M,M,M,M,M,M,M,M,M,M,ZSPD 201900Z 33003MPS CAVOK 17/16 Q1019 NOSIG
ZUUU,2020-10-20 19:00,104.0167,30.6667,53.60,51.80,93.60,M,1.94,0.00,30.30,M,6.21,M,M,M,M,M,M,M,M,M,M,M,M,M,M,M,M,M,ZUUU 201900Z VRB01MPS CAVOK 12/11 Q1026 NOSIG
ZWWW,2020-10-20 19:00,87.4742,43.9071,44.60,24.80,45.44,160.00,5.83,0.00,30.15,M,6.21,M,M,M,M,M,M,M,M,M,M,M,M,M,M,M,M,40.81,ZWWW 201900Z 16003MPS CAVOK 07/M04 Q1021 NOSIG
ZYCC,2020-10-20 19:00,125.2167,43.9000,57.20,35.60,44.19,200.00,13.61,0.00,29.88,M,4.35,M,NSC,M,M,M,M,M,M,M,M,M,M,M,M,M,M,M,ZYCC 201900Z 20007MPS 7000 NSC 14/02 Q1012 NOSIG
ZYHB,2020-10-20 19:00,126.5800,46.0200,57.20,44.60,62.69,190.00,13.61,0.00,29.80,M,3.73,M,NSC,M,M,M,M,M,M,M,M,M,M,M,M,M,M,M,ZYHB 201900Z 19007MPS 6000 NSC 14/07 Q1009 NOSIG
ZWSH,2020-10-20 19:00,75.9833,39.4667,50.00,17.60,27.33,320.00,9.72,0.00,30.27,M,6.21,M,M,M,M,M,M,M,M,M,,M,M,M,M,M,M,M,ZWSH 201900Z AUTO 32005MPS 9999 // ////// 10/M08 Q1025
ZBAD,2020-10-20 19:00,116.4106,39.5092,48.20,46.40,93.45,M,1.94,0.00,30.00,M,2.17,M,NSC,M,M,M,M,M,M,M,BR,M,M,M,M,M,M,M,ZBAD 201900Z VRB01MPS 3500 BR NSC 09/08 Q1016 BECMG TL1940 34005MPS
ZMUB,2020-10-20 19:00,106.7666,47.8431,8.60,1.40,71.92,180.00,3.89,0.00,29.97,M,6.21,M,M,M,M,M,M,M,M,M,M,M,M,M,M,M,M,0.28,ZMUB 201900Z 18002MPS CAVOK M13/M17 Q1015 NOSIG RMK QFE655.6 76
ZMUB,2020-10-20 19:30,106.7666,47.8431,8.60,5.00,84.93,180.00,3.89,0.00,30.03,M,6.21,M,M,M,M,M,M,M,M,M,M,M,M,M,M,M,M,0.28,COR ZMUB 201930Z 18002MPS CAVOK M13/M15 Q1017 NOSIG RMK QFE655.5 76
ZBYN,2020-10-20 19:30,112.5500,37.7833,50.00,5.00,15.61,310.00,9.72,0.00,30.15,M,4.97,M,NSC,M,M,M,M,M,M,M,M,M,M,M,M,M,M,M,ZBYN 201930Z 31005MPS 8000 NSC 10/M15 Q1021 NOSIG
ZGGG,2020-10-20 19:30,113.3008,23.3964,66.20,57.20,72.74,340.00,7.78,0.00,30.00,M,6.21,M,M,M,M,M,M,M,M,M,M,M,M,M,M,M,M,M,ZGGG 201930Z 34004MPS CAVOK 19/14 Q1016 NOSIG
ZBAA,2020-10-20 19:30,116.5870,40.0741,57.20,15.80,19.42,290.00,13.61,0.00,30.03,M,6.21,M,M,M,M,M,M,M,M,M,M,M,M,M,M,M,M,M,ZBAA 201930Z 29007MPS CAVOK 14/M09 Q1017 NOSIG
ZBTJ,2020-10-20 19:30,117.3462,39.1243,59.00,44.60,58.77,260.00,3.89,0.00,29.97,M,2.49,M,NSC,M,M,M,M,M,M,M,HZ,M,M,M,M,M,M,M,ZBTJ 201930Z 26002MPS 4000 HZ NSC 15/07 Q1015 BECMG TL2100 32007MPS
ZYTL,2020-10-20 19:30,121.6333,38.9000,62.60,51.80,67.75,190.00,7.78,0.00,30.03,M,6.21,M,FEW,M,M,M,2600.00,M,M,M,M,M,M,M,M,M,M,M,ZYTL 201930Z 19004MPS 150V220 9999 FEW026 17/11 Q1017 NOSIG
ZYTX,2020-10-20 19:30,123.4000,41.8000,59.00,44.60,58.77,180.00,5.83,0.00,29.97,M,6.21,M,M,M,M,M,M,M,M,M,M,M,M,M,M,M,M,M,ZYTX 201930Z 18003MPS CAVOK 15/07 Q1015 NOSIG
ZSHC,2020-10-20 19:30,120.1667,30.2333,62.60,59.00,88.00,M,1.94,0.00,30.09,M,3.73,M,NSC,M,M,M,M,M,M,M,M,M,M,M,M,M,M,M,ZSHC 201930Z VRB01MPS 6000 NSC 17/15 Q1019 NOSIG
ZSSS,2020-10-20 19:30,121.3363,31.1979,64.40,57.20,77.45,M,1.94,0.00,30.09,M,6.21,M,M,M,M,M,M,M,M,M,M,M,M,M,M,M,M,M,ZSSS 201930Z VRB01MPS CAVOK 18/14 Q1019 NOSIG
ZSPD,2020-10-20 19:30,121.7667,31.1167,64.40,60.80,88.09,340.00,5.83,0.00,30.09,M,6.21,M,M,M,M,M,M,M,M,M,M,M,M,M,M,M,M,M,ZSPD 201930Z 34003MPS CAVOK 18/16 Q1019 NOSIG
ZWWW,2020-10-20 19:30,87.4742,43.9071,44.60,24.80,45.44,150.00,3.89,0.00,30.15,M,6.21,M,M,M,M,M,M,M,M,M,M,M,M,M,M,M,M,42.23,ZWWW 201930Z 15002MPS CAVOK 07/M04 Q1021 NOSIG
ZBAD,2020-10-20 19:30,116.4106,39.5092,53.60,44.60,71.45,40.00,5.83,0.00,30.00,M,2.17,M,NSC,M,M,M,M,M,M,M,BR,M,M,M,M,M,M,M,ZBAD 201930Z 04003MPS 010V070 3500 BR NSC 12/07 Q1016 NOSIG
ZMUB,2020-10-20 20:00,106.7666,47.8431,6.80,1.40,78.01,M,1.94,0.00,30.03,M,6.21,M,M,M,M,M,M,M,M,M,M,M,M,M,M,M,M,M,ZMUB 202000Z VRB01MPS CAVOK M14/M17 Q1017 NOSIG RMK QFE655.5 77
ZGHA,2020-10-20 20:00,112.8667,28.2333,57.20,55.40,93.69,360.00,9.72,0.00,30.21,M,4.97,M,OVC,M,M,M,3000.00,M,M,M,M,M,M,M,M,M,M,M,ZGHA 202000Z 36005MPS 8000 OVC030 14/13 Q1023 NOSIG
ZBYN,2020-10-20 20:00,112.5500,37.7833,50.00,1.40,13.22,290.00,11.66,0.00,30.15,M,4.97,M,NSC,M,M,M,M,M,M,M,M,M,M,M,M,M,M,M,ZBYN 202000Z 29006MPS 8000 NSC 10/M17 Q1021 NOSIG
ZGGG,2020-10-20 20:00,113.3008,23.3964,66.20,55.40,68.15,350.00,7.78,0.00,30.00,M,6.21,M,M,M,M,M,M,M,M,M,M,M,M,M,M,M,M,M,ZGGG 202000Z 35004MPS CAVOK 19/13 Q1016 NOSIG
ZGKL,2020-10-20 20:00,110.3000,25.3333,60.80,55.40,82.37,360.00,1.94,0.00,30.15,M,6.21,M,SCT,OVC,M,M,3000.00,5300.00,M,M,M,M,M,M,M,M,M,M,ZGKL 202000Z 36001MPS 9999 SCT030 OVC053 16/13 Q1021 NOSIG
ZGOW,2020-10-20 20:00,116.6833,23.4000,71.60,60.80,68.75,350.00,3.89,0.00,29.91,M,6.21,M,M,M,M,M,M,M,M,M,M,M,M,M,M,M,M,M,ZGOW 202000Z 35002MPS 290V060 CAVOK 22/16 Q1013 NOSIG
ZHHH,2020-10-20 20:00,114.1300,30.6200,59.00,53.60,82.25,260.00,5.83,0.00,30.18,M,6.21,M,NSC,M,M,M,M,M,M,M,-RA,M,M,M,M,M,M,M,ZHHH 202000Z 26003MPS 210V300 9999 -RA NSC 15/12 Q1022 NOSIG
ZJHK,2020-10-20 20:00,110.4590,19.9349,75.20,68.00,78.34,360.00,7.78,0.00,29.94,M,6.21,M,SCT,SCT,M,M,2000.00,4000.00,M,M,M,M,M,M,M,M,M,M,ZJHK 202000Z 36004MPS 330V040 9999 SCT020 SCT040 24/20 Q1014 NOSIG
ZJSY,2020-10-20 20:00,109.4123,18.3029,71.60,68.00,88.43,M,1.94,0.00,29.88,M,6.21,M,M,M,M,M,M,M,M,M,M,M,M,M,M,M,M,M,ZJSY 202000Z VRB01MPS CAVOK 22/20 Q1012 NOSIG
ZUGY,2020-10-20 20:00,106.7333,26.5833,50.00,48.20,93.50,10.00,3.89,0.00,30.30,M,6.21,M,SCT,OVC,M,M,2600.00,4000.00,M,M,M,M,M,M,M,M,M,M,ZUGY 202000Z 01002MPS 9999 SCT026 OVC040 10/09 Q1026 NOSIG
ZGSZ,2020-10-20 20:00,114.1000,22.5500,69.80,57.20,64.26,360.00,9.72,0.00,29.97,M,6.21,M,M,M,M,M,M,M,M,M,M,M,M,M,M,M,M,M,ZGSZ 202000Z 36005MPS CAVOK 21/14 Q1015 NOSIG
ZHCC,2020-10-20 20:00,113.6500,34.7167,51.80,50.00,93.55,M,1.94,0.00,30.06,M,1.86,M,NSC,M,M,M,M,M,M,M,BR,M,M,M,M,M,M,M,ZHCC 202000Z VRB01MPS 3000 BR NSC 11/10 Q1018 NOSIG
ZGNN,2020-10-20 20:00,108.2167,22.6333,64.40,57.20,77.45,30.00,5.83,0.00,30.09,M,6.21,M,M,M,M,M,M,M,M,M,M,M,M,M,M,M,M,M,ZGNN 202000Z 03003MPS 340V050 CAVOK 18/14 Q1019 NOSIG
ZBAA,2020-10-20 20:00,116.5870,40.0741,55.40,17.60,22.41,280.00,15.55,0.00,30.03,M,6.21,M,M,M,M,M,M,M,M,M,M,M,M,M,M,M,M,M,ZBAA 202000Z 28008MPS CAVOK 13/M08 Q1017 NOSIG
ZBHH,2020-10-20 20:00,111.6833,40.8167,28.40,14.00,54.31,140.00,3.89,0.00,30.21,M,6.21,M,M,M,M,M,M,M,M,M,M,M,M,M,M,M,M,23.35,ZBHH 202000Z 14002MPS 100V170 CAVOK M02/M10 Q1023 NOSIG
ZBSJ,2020-10-20 20:00,114.6973,38.2807,55.40,30.20,37.97,330.00,11.66,0.00,30.00,M,3.73,M,NSC,M,M,M,M,M,M,M,M,M,M,M,M,M,M,M,ZBSJ 202000Z 33006MPS 6000 NSC 13/M01 Q1016 NOSIG
ZBTJ,2020-10-20 20:00,117.3462,39.1243,57.20,44.60,62.69,300.00,1.94,0.00,29.97,M,2.49,M,NSC,M,M,M,M,M,M,M,HZ,M,M,M,M,M,M,M,ZBTJ 202000Z 30001MPS 4000 HZ NSC 14/07 Q1015 BECMG TL2130 32006MPS
ZYTL,2020-10-20 20:00,121.6333,38.9000,62.60,51.80,67.75,190.00,7.78,0.00,30.03,M,6.21,M,FEW,M,M,M,2600.00,M,M,M,M,M,M,M,M,M,M,M,ZYTL 202000Z 19004MPS 140V240 9999 FEW026 17/11 Q1017 NOSIG
ZYTX,2020-10-20 20:00,123.4000,41.8000,59.00,42.80,54.86,180.00,3.89,0.00,29.97,M,6.21,M,M,M,M,M,M,M,M,M,M,M,M,M,M,M,M,M,ZYTX 202000Z 18002MPS CAVOK 15/06 Q1015 NOSIG
ZLLL,2020-10-20 20:00,103.7500,36.0200,32.00,17.60,54.87,M,1.94,0.00,30.36,M,4.97,M,NSC,M,M,M,M,M,M,M,M,M,M,M,M,M,M,M,ZLLL 202000Z VRB01MPS 8000 NSC 00/M08 Q1028 NOSIG
ZLXY,2020-10-20 20:00,108.7516,34.4471,46.40,42.80,87.19,250.00,3.89,0.00,30.21,M,6.21,M,M,M,M,M,M,M,M,M,M,M,M,M,M,M,M,44.33,ZLXY 202000Z 25002MPS CAVOK 08/06 Q1023 NOSIG
ZSAM,2020-10-20 20:00,118.0833,24.4833,73.40,60.80,64.69,10.00,3.89,0.00,29.88,M,6.21,M,SCT,M,M,M,3300.00,M,M,M,M,M,M,M,M,M,M,M,ZSAM 202000Z 01002MPS 9999 SCT033 23/16 Q1012 NOSIG
ZPPP,2020-10-20 20:00,102.6833,25.0167,44.60,44.60,100.00,40.00,13.61,0.00,30.39,M,3.73,M,SCT,SCT,OVC,M,300.00,1600.00,3000.00,M,-RA,M,M,M,M,M,M,37.52,ZPPP 202000Z 04007MPS 6000 -RA SCT003 SCT016 OVC030 07/07 Q1029 NOSIG
ZSFZ,2020-10-20 20:00,119.2833,26.0833,69.80,57.20,64.26,350.00,5.83,0.00,29.97,M,6.21,M,SCT,BKN,M,M,2700.00,5000.00,M,M,M,M,M,M,M,M,M,M,ZSFZ 202000Z 35003MPS 310V030 9999 SCT027 BKN050 21/14 Q1015 NOSIG
ZSHC,2020-10-20 20:00,120.1667,30.2333,62.60,57.20,82.50,M,1.94,0.00,30.09,M,3.73,M,NSC,M,M,M,M,M,M,M,M,M,M,M,M,M,M,M,ZSHC 202000Z VRB01MPS 6000 NSC 17/14 Q1019 NOSIG
ZSNB,2020-10-20 20:00,121.4619,29.8267,62.60,59.00,88.00,M,1.94,0.00,30.09,M,6.21,M,M,M,M,M,M,M,M,M,M,M,M,M,M,M,M,M,ZSNB 202000Z VRB01MPS CAVOK 17/15 Q1019 NOSIG
ZSOF,2020-10-20 20:00,117.2984,31.7800,59.00,55.40,87.83,300.00,3.89,0.00,30.12,M,2.49,M,NSC,M,M,M,M,M,M,M,-RA BR,M,M,M,M,M,M,M,ZSOF 202000Z 30002MPS 4000 -RA BR NSC 15/13 Q1020 NOSIG
ZSQD,2020-10-20 20:00,120.3333,36.0667,62.60,53.60,72.38,240.00,3.89,0.00,30.06,M,6.21,M,M,M,M,M,M,M,M,M,M,M,M,M,M,M,M,M,ZSQD 202000Z 24002MPS CAVOK 17/12 Q1018 NOSIG
ZSSS,2020-10-20 20:00,121.3363,31.1979,64.40,57.20,77.45,340.00,1.94,0.00,30.09,M,6.21,M,M,M,M,M,M,M,M,M,M,M,M,M,M,M,M,M,ZSSS 202000Z 34001MPS CAVOK 18/14 Q1019 NOSIG
ZUCK,2020-10-20 20:00,106.4800,29.5200,55.40,55.40,100.00,200.00,3.89,0.00,30.30,M,6.21,M,M,M,M,M,M,M,M,M,M,M,M,M,M,M,M,M,ZUCK 202000Z 20002MPS CAVOK 13/13 Q1026 NOSIG
ZSNJ,2020-10-20 20:00,118.8667,31.7333,59.00,59.00,100.00,240.00,1.94,0.00,30.09,M,3.11,M,NSC,M,M,M,M,M,M,M,-RA BR,M,M,M,M,M,M,M,ZSNJ 202000Z 24001MPS 5000 -RA BR NSC 15/15 Q1019 NOSIG
ZSPD,2020-10-20 20:00,121.7667,31.1167,62.60,60.80,93.83,350.00,5.83,0.00,30.09,M,6.21,M,M,M,M,M,M,M,M,M,M,M,M,M,M,M,M,M,ZSPD 202000Z 35003MPS CAVOK 17/16 Q1019 NOSIG
ZUUU,2020-10-20 20:00,104.0167,30.6667,53.60,53.60,100.00,0.00,0.00,0.00,30.30,M,6.21,M,M,M,M,M,M,M,M,M,M,M,M,M,M,M,M,M,ZUUU 202000Z 00000MPS CAVOK 12/12 Q1026 NOSIG
ZWWW,2020-10-20 20:00,87.4742,43.9071,42.80,24.80,48.67,150.00,3.89,0.00,30.15,M,6.21,M,M,M,M,M,M,M,M,M,M,M,M,M,M,M,M,40.13,ZWWW 202000Z 15002MPS CAVOK 06/M04 Q1021 NOSIG
ZYCC,2020-10-20 20:00,125.2167,43.9000,57.20,33.80,41.13,220.00,15.55,0.00,29.91,M,6.21,M,M,M,M,M,M,M,M,M,M,M,M,M,M,M,M,M,ZYCC 202000Z 22008MPS CAVOK 14/01 Q1013 NOSIG
ZYHB,2020-10-20 20:00,126.5800,46.0200,57.20,42.80,58.52,190.00,13.61,0.00,29.80,M,3.73,M,NSC,M,M,M,M,M,M,M,M,M,M,M,M,M,M,M,ZYHB 202000Z 19007MPS 6000 NSC 14/06 Q1009 NOSIG
ZWSH,2020-10-20 20:00,75.9833,39.4667,51.80,15.80,23.65,320.00,9.72,0.00,30.24,M,6.21,M,M,M,M,M,M,M,M,M,M,M,M,M,M,M,M,M,ZWSH 202000Z 32005MPS CAVOK 11/M09 Q1024 NOSIG
ZBAD,2020-10-20 20:00,116.4106,39.5092,53.60,23.00,30.11,350.00,13.61,0.00,30.00,M,3.73,M,NSC,M,M,M,M,M,M,M,M,M,M,M,M,M,M,M,ZBAD 202000Z 35007MPS 6000 NSC 12/M05 Q1016 NOSIG
ZMUB,2020-10-20 20:30,106.7666,47.8431,10.40,6.80,85.05,M,1.94,0.00,30.03,M,6.21,M,M,M,M,M,M,M,M,M,M,M,M,M,M,M,M,M,ZMUB 202030Z VRB01MPS CAVOK M12/M14 Q1017 NOSIG RMK QFE655.4 82
ZBYN,2020-10-20 20:30,112.5500,37.7833,50.00,1.40,13.22,290.00,11.66,0.00,30.15,M,4.97,M,NSC,M,M,M,M,M,M,M,M,M,M,M,M,M,M,M,ZBYN 202030Z 29006MPS 8000 NSC 10/M17 Q1021 NOSIG
ZGGG,2020-10-20 20:30,113.3008,23.3964,66.20,55.40,68.15,350.00,9.72,0.00,30.00,M,6.21,M,M,M,M,M,M,M,M,M,M,M,M,M,M,M,M,M,ZGGG 202030Z 35005MPS CAVOK 19/13 Q1016 NOSIG
ZBAA,2020-10-20 20:30,116.5870,40.0741,53.60,17.60,23.93,300.00,13.61,0.00,30.03,M,6.21,M,M,M,M,M,M,M,M,M,M,M,M,M,M,M,M,M,ZBAA 202030Z 30007MPS CAVOK 12/M08 Q1017 NOSIG
ZBTJ,2020-10-20 20:30,117.3462,39.1243,57.20,44.60,62.69,310.00,7.78,0.00,30.00,M,2.49,M,NSC,M,M,M,M,M,M,M,HZ,M,M,M,M,M,M,M,ZBTJ 202030Z 31004MPS 240V340 4000 HZ NSC 14/07 Q1016 NOSIG
ZYTL,2020-10-20 20:30,121.6333,38.9000,62.60,51.80,67.75,190.00,9.72,0.00,30.03,M,6.21,M,FEW,M,M,M,2600.00,M,M,M,M,M,M,M,M,M,M,M,ZYTL 202030Z 19005MPS 9999 FEW026 17/11 Q1017 NOSIG
ZYTX,2020-10-20 20:30,123.4000,41.8000,57.20,42.80,58.52,200.00,5.83,0.00,29.97,M,6.21,M,M,M,M,M,M,M,M,M,M,M,M,M,M,M,M,M,ZYTX 202030Z 20003MPS CAVOK 14/06 Q1015 NOSIG
ZSHC,2020-10-20 20:30,120.1667,30.2333,62.60,59.00,88.00,250.00,3.89,0.00,30.09,M,4.97,M,NSC,M,M,M,M,M,M,M,M,M,M,M,M,M,M,M,ZSHC 202030Z 25002MPS 8000 NSC 17/15 Q1019 NOSIG
ZSSS,2020-10-20 20:30,121.3363,31.1979,64.40,59.00,82.62,360.00,1.94,0.00,30.06,M,6.21,M,M,M,M,M,M,M,M,M,M,M,M,M,M,M,M,M,ZSSS 202030Z 36001MPS CAVOK 18/15 Q1018 NOSIG
ZSPD,2020-10-20 20:30,121.7667,31.1167,64.40,60.80,88.09,350.00,3.89,0.00,30.06,M,6.21,M,M,M,M,M,M,M,M,M,M,M,M,M,M,M,M,M,ZSPD 202030Z 35002MPS CAVOK 18/16 Q1018 NOSIG
ZWWW,2020-10-20 20:30,87.4742,43.9071,42.80,24.80,48.67,150.00,3.89,0.00,30.12,M,6.21,M,M,M,M,M,M,M,M,M,M,M,M,M,M,M,M,40.13,ZWWW 202030Z 15002MPS CAVOK 06/M04 Q1020 NOSIG
ZBAD,2020-10-20 20:30,116.4106,39.5092,55.40,21.20,26.13,350.00,17.49,0.00,30.00,M,6.21,M,M,M,M,M,M,M,M,M,M,M,M,M,M,M,M,M,ZBAD 202030Z 35009MPS CAVOK 13/M06 Q1016 NOSIG
ZMUB,2020-10-20 21:00,106.7666,47.8431,10.40,5.00,78.35,M,1.94,0.00,30.03,M,6.21,M,M,M,M,M,M,M,M,M,M,M,M,M,M,M,M,M,ZMUB 202100Z VRB01MPS CAVOK M12/M15 Q1017 NOSIG RMK QFE655.4 77
ZGHA,2020-10-20 21:00,112.8667,28.2333,57.20,53.60,87.74,350.00,7.78,0.00,30.21,M,6.21,M,OVC,M,M,M,5000.00,M,M,M,M,M,M,M,M,M,M,M,ZGHA 202100Z 35004MPS 9999 OVC050 14/12 Q1023 NOSIG
ZBYN,2020-10-20 21:00,112.5500,37.7833,48.20,-0.40,13.00,300.00,9.72,0.00,30.15,M,6.21,M,M,M,M,M,M,M,M,M,M,M,M,M,M,M,M,43.38,ZBYN 202100Z 30005MPS CAVOK 09/M18 Q1021 NOSIG
ZGGG,2020-10-20 21:00,113.3008,23.3964,66.20,55.40,68.15,350.00,9.72,0.00,30.00,M,6.21,M,M,M,M,M,M,M,M,M,M,M,M,M,M,M,M,M,ZGGG 202100Z 35005MPS CAVOK 19/13 Q1016 NOSIG
ZGKL,2020-10-20 21:00,110.3000,25.3333,60.80,55.40,82.37,M,1.94,0.00,30.15,M,6.21,M,SCT,BKN,M,M,3000.00,5300.00,M,M,M,M,M,M,M,M,M,M,ZGKL 202100Z VRB01MPS 9999 SCT030 BKN053 16/13 Q1021 NOSIG
ZGOW,2020-10-20 21:00,116.6833,23.4000,69.80,60.80,73.09,360.00,3.89,0.00,29.88,M,6.21,M,SCT,M,M,M,4000.00,M,M,M,M,M,M,M,M,M,M,M,ZGOW 202100Z 36002MPS 310V070 9999 SCT040 21/16 Q1012 NOSIG
ZHHH,2020-10-20 21:00,114.1300,30.6200,57.20,53.60,87.74,230.00,5.83,0.00,30.15,M,6.21,M,NSC,M,M,M,M,M,M,M,-RA,M,M,M,M,M,M,M,ZHHH 202100Z 23003MPS 200V270 9999 -RA NSC 14/12 Q1021 NOSIG
ZJHK,2020-10-20 21:00,110.4590,19.9349,73.40,66.20,78.19,350.00,9.72,0.00,29.94,M,6.21,M,SCT,SCT,M,M,2000.00,4000.00,M,M,M,M,M,M,M,M,M,M,ZJHK 202100Z 35005MPS 9999 SCT020 SCT040 23/19 Q1014 NOSIG
ZJSY,2020-10-20 21:00,109.4123,18.3029,71.60,68.00,88.43,M,1.94,0.00,29.88,M,6.21,M,M,M,M,M,M,M,M,M,M,M,M,M,M,M,M,M,ZJSY 202100Z VRB01MPS CAVOK 22/20 Q1012 NOSIG
ZUGY,2020-10-20 21:00,106.7333,26.5833,50.00,48.20,93.50,20.00,3.89,0.00,30.30,M,6.21,M,BKN,OVC,M,M,2000.00,4000.00,M,M,-RA,M,M,M,M,M,M,M,ZUGY 202100Z 02002MPS 9999 -RA BKN020 OVC040 10/09 Q1026 NOSIG
ZGSZ,2020-10-20 21:00,114.1000,22.5500,69.80,59.00,68.55,350.00,11.66,0.00,29.94,M,6.21,M,M,M,M,M,M,M,M,M,M,M,M,M,M,M,M,M,ZGSZ 202100Z 35006MPS CAVOK 21/15 Q1014 NOSIG
ZHCC,2020-10-20 21:00,113.6500,34.7167,48.20,48.20,100.00,M,1.94,0.00,30.06,M,1.55,M,NSC,M,M,M,M,M,M,M,BR,M,M,M,M,M,M,M,ZHCC 202100Z VRB01MPS 2500 BR NSC 09/09 Q1018 BECMG TL2240 3000
ZGNN,2020-10-20 21:00,108.2167,22.6333,64.40,55.40,72.56,20.00,7.78,0.00,30.09,M,6.21,M,M,M,M,M,M,M,M,M,M,M,M,M,M,M,M,M,ZGNN 202100Z 02004MPS 340V050 CAVOK 18/13 Q1019 NOSIG
ZBAA,2020-10-20 21:00,116.5870,40.0741,53.60,19.40,25.85,300.00,9.72,0.00,30.06,M,6.21,M,M,M,M,M,M,M,M,M,M,M,M,M,M,M,M,M,ZBAA 202100Z 30005MPS 260V330 CAVOK 12/M07 Q1018 NOSIG
ZBHH,2020-10-20 21:00,111.6833,40.8167,28.40,12.20,50.17,110.00,3.89,0.00,30.21,M,6.21,M,M,M,M,M,M,M,M,M,M,M,M,M,M,M,M,23.35,ZBHH 202100Z 11002MPS CAVOK M02/M11 Q1023 NOSIG
ZBSJ,2020-10-20 21:00,114.6973,38.2807,53.60,19.40,25.85,320.00,9.72,0.00,30.03,M,4.97,M,NSC,M,M,M,M,M,M,M,M,M,M,M,M,M,M,M,ZBSJ 202100Z 32005MPS 8000 NSC 12/M07 Q1017 NOSIG
ZBTJ,2020-10-20 21:00,117.3462,39.1243,57.20,32.00,38.26,320.00,13.61,0.00,30.00,M,3.11,M,NSC,M,M,M,M,M,M,M,HZ,M,M,M,M,M,M,M,ZBTJ 202100Z 32007MPS 5000 HZ NSC 14/00 Q1016 NOSIG
ZYTL,2020-10-20 21:00,121.6333,38.9000,62.60,51.80,67.75,200.00,9.72,0.00,30.00,M,6.21,M,FEW,M,M,M,2600.00,M,M,M,M,M,M,M,M,M,M,M,ZYTL 202100Z 20005MPS 170V230 9999 FEW026 17/11 Q1016 NOSIG
ZYTX,2020-10-20 21:00,123.4000,41.8000,59.00,41.00,51.18,200.00,5.83,0.00,29.97,M,6.21,M,M,M,M,M,M,M,M,M,M,M,M,M,M,M,M,M,ZYTX 202100Z 20003MPS CAVOK 15/05 Q1015 NOSIG
ZLLL,2020-10-20 21:00,103.7500,36.0200,30.20,17.60,59.01,320.00,1.94,0.00,30.33,M,4.97,M,NSC,M,M,M,M,M,M,M,M,M,M,M,M,M,M,M,ZLLL 202100Z 32001MPS 8000 NSC M01/M08 Q1027 NOSIG
ZLXY,2020-10-20 21:00,108.7516,34.4471,42.80,41.00,93.30,M,1.94,0.00,30.21,M,6.21,M,M,M,M,M,M,M,M,M,M,M,M,M,M,M,M,M,ZLXY 202100Z VRB01MPS CAVOK 06/05 Q1023 NOSIG
ZSAM,2020-10-20 21:00,118.0833,24.4833,75.20,60.80,60.90,350.00,3.89,0.00,29.88,M,6.21,M,BKN,M,M,M,4300.00,M,M,M,M,M,M,M,M,M,M,M,ZSAM 202100Z 35002MPS 310V030 9999 BKN043 24/16 Q1012 NOSIG
ZPPP,2020-10-20 21:00,102.6833,25.0167,44.60,44.60,100.00,50.00,13.61,0.00,30.39,M,4.35,M,SCT,SCT,OVC,M,300.00,1600.00,3000.00,M,-RA,M,M,M,M,M,M,37.52,ZPPP 202100Z 05007MPS 7000 -RA SCT003 SCT016 OVC030 07/07 Q1029 NOSIG
ZSFZ,2020-10-20 21:00,119.2833,26.0833,71.60,59.00,64.48,360.00,5.83,0.00,29.94,M,6.21,M,BKN,M,M,M,2700.00,M,M,M,M,M,M,M,M,M,M,M,ZSFZ 202100Z 36003MPS 320V020 9999 BKN027 22/15 Q1014 NOSIG
ZSHC,2020-10-20 21:00,120.1667,30.2333,62.60,59.00,88.00,180.00,3.89,0.00,30.06,M,4.97,M,NSC,M,M,M,M,M,M,M,M,M,M,M,M,M,M,M,ZSHC 202100Z 18002MPS 8000 NSC 17/15 Q1018 NOSIG
ZSNB,2020-10-20 21:00,121.4619,29.8267,62.60,59.00,88.00,210.00,1.94,0.00,30.06,M,6.21,M,M,M,M,M,M,M,M,M,M,M,M,M,M,M,M,M,ZSNB 202100Z 21001MPS CAVOK 17/15 Q1018 NOSIG
ZSOF,2020-10-20 21:00,117.2984,31.7800,59.00,55.40,87.83,240.00,3.89,0.00,30.12,M,1.86,M,NSC,M,M,M,M,M,M,M,-RA BR,M,M,M,M,M,M,M,ZSOF 202100Z 24002MPS 3000 -RA BR NSC 15/13 Q1020 NOSIG
ZSQD,2020-10-20 21:00,120.3333,36.0667,62.60,53.60,72.38,240.00,3.89,0.00,30.06,M,6.21,M,M,M,M,M,M,M,M,M,M,M,M,M,M,M,M,M,ZSQD 202100Z 24002MPS 200V270 CAVOK 17/12 Q1018 NOSIG
ZSSS,2020-10-20 21:00,121.3363,31.1979,64.40,59.00,82.62,0.00,0.00,0.00,30.06,M,6.21,M,M,M,M,M,M,M,M,M,M,M,M,M,M,M,M,M,ZSSS 202100Z 00000MPS CAVOK 18/15 Q1018 NOSIG
ZUCK,2020-10-20 21:00,106.4800,29.5200,55.40,55.40,100.00,210.00,1.94,0.00,30.30,M,6.21,M,M,M,M,M,M,M,M,M,M,M,M,M,M,M,M,M,ZUCK 202100Z 21001MPS CAVOK 13/13 Q1026 NOSIG
ZSNJ,2020-10-20 21:00,118.8667,31.7333,59.00,59.00,100.00,M,1.94,0.00,30.12,M,3.11,M,NSC,M,M,M,M,M,M,M,-RA BR,M,M,M,M,M,M,M,ZSNJ 202100Z VRB01MPS 5000 -RA BR NSC 15/15 Q1020 NOSIG
ZSPD,2020-10-20 21:00,121.7667,31.1167,64.40,60.80,88.09,350.00,3.89,0.00,30.06,M,6.21,M,M,M,M,M,M,M,M,M,M,M,M,M,M,M,M,M,ZSPD 202100Z 35002MPS CAVOK 18/16 Q1018 NOSIG
ZUUU,2020-10-20 21:00,104.0167,30.6667,51.80,51.80,100.00,0.00,0.00,0.00,30.27,M,6.21,M,M,M,M,M,M,M,M,M,M,M,M,M,M,M,M,M,ZUUU 202100Z 00000MPS CAVOK 11/11 Q1025 NOSIG
ZWWW,2020-10-20 21:00,87.4742,43.9071,42.80,24.80,48.67,150.00,3.89,0.00,30.12,M,6.21,M,M,M,M,M,M,M,M,M,M,M,M,M,M,M,M,40.13,ZWWW 202100Z 15002MPS CAVOK 06/M04 Q1020 NOSIG
ZYCC,2020-10-20 21:00,125.2167,43.9000,55.40,37.40,50.64,200.00,13.61,0.00,29.91,M,6.21,M,SCT,M,M,M,3000.00,M,M,M,M,M,M,M,M,M,M,M,ZYCC 202100Z 20007MPS 9999 SCT030 13/03 Q1013 NOSIG
ZYHB,2020-10-20 21:00,126.5800,46.0200,57.20,42.80,58.52,200.00,13.61,0.00,29.77,M,6.21,M,M,M,M,M,M,M,M,M,M,M,M,M,M,M,M,M,ZYHB 202100Z 20007MPS CAVOK 14/06 Q1008 NOSIG
ZWSH,2020-10-20 21:00,75.9833,39.4667,50.00,14.00,23.37,320.00,9.72,0.00,30.24,M,6.21,M,M,M,M,M,M,M,M,M,M,M,M,M,M,M,M,M,ZWSH 202100Z 32005MPS CAVOK 10/M10 Q1024 NOSIG
ZBAD,2020-10-20 21:00,116.4106,39.5092,53.60,21.20,27.91,360.00,15.55,0.00,30.03,M,6.21,M,M,M,M,M,M,M,M,M,M,M,M,M,M,M,M,M,ZBAD 202100Z 36008MPS CAVOK 12/M06 Q1017 NOSIG
ZMUB,2020-10-20 21:30,106.7666,47.8431,8.60,5.00,84.93,M,1.94,0.00,30.03,M,6.21,M,M,M,M,M,M,M,M,M,M,M,M,M,M,M,M,M,ZMUB 202130Z VRB01MPS CAVOK M13/M15 Q1017 NOSIG RMK QFE655.6 84
ZBYN,2020-10-20 21:30,112.5500,37.7833,46.40,1.40,15.13,310.00,7.78,0.00,30.18,M,6.21,M,M,M,M,M,M,M,M,M,M,M,M,M,M,M,M,41.95,ZBYN 202130Z 31004MPS CAVOK 08/M17 Q1022 NOSIG
ZGGG,2020-10-20 21:30,113.3008,23.3964,66.20,55.40,68.15,340.00,7.78,0.00,30.00,M,6.21,M,M,M,M,M,M,M,M,M,M,M,M,M,M,M,M,M,ZGGG 202130Z 34004MPS CAVOK 19/13 Q1016 NOSIG
ZBAA,2020-10-20 21:30,116.5870,40.0741,51.80,19.40,27.62,310.00,9.72,0.00,30.06,M,6.21,M,M,M,M,M,M,M,M,M,M,M,M,M,M,M,M,M,ZBAA 202130Z 31005MPS CAVOK 11/M07 Q1018 NOSIG
ZBTJ,2020-10-20 21:30,117.3462,39.1243,57.20,21.20,24.49,330.00,13.61,0.00,30.00,M,4.97,M,NSC,M,M,M,M,M,M,M,M,M,M,M,M,M,M,M,ZBTJ 202130Z 33007MPS 8000 NSC 14/M06 Q1016 NOSIG
ZYTL,2020-10-20 21:30,121.6333,38.9000,62.60,51.80,67.75,200.00,9.72,0.00,30.00,M,6.21,M,FEW,M,M,M,2600.00,M,M,M,M,M,M,M,M,M,M,M,ZYTL 202130Z 20005MPS 170V230 9999 FEW026 17/11 Q1016 NOSIG
ZYTX,2020-10-20 21:30,123.4000,41.8000,59.00,42.80,54.86,200.00,5.83,0.00,29.97,M,6.21,M,M,M,M,M,M,M,M,M,M,M,M,M,M,M,M,M,ZYTX 202130Z 20003MPS CAVOK 15/06 Q1015 NOSIG
ZSHC,2020-10-20 21:30,120.1667,30.2333,62.60,59.00,88.00,230.00,3.89,0.00,30.06,M,4.97,M,NSC,M,M,M,M,M,M,M,M,M,M,M,M,M,M,M,ZSHC 202130Z 23002MPS 8000 NSC 17/15 Q1018 NOSIG
ZSSS,2020-10-20 21:30,121.3363,31.1979,64.40,59.00,82.62,M,1.94,0.00,30.06,M,6.21,M,M,M,M,M,M,M,M,M,M,M,M,M,M,M,M,M,ZSSS 202130Z VRB01MPS CAVOK 18/15 Q1018 NOSIG
ZSPD,2020-10-20 21:30,121.7667,31.1167,66.20,60.80,82.74,M,1.94,0.00,30.06,M,6.21,M,M,M,M,M,M,M,M,M,M,M,M,M,M,M,M,M,ZSPD 202130Z VRB01MPS CAVOK 19/16 Q1018 NOSIG
ZWWW,2020-10-20 21:30,87.4742,43.9071,42.80,24.80,48.67,150.00,3.89,0.00,30.12,M,6.21,M,M,M,M,M,M,M,M,M,M,M,M,M,M,M,M,40.13,ZWWW 202130Z 15002MPS CAVOK 06/M04 Q1020 NOSIG
ZBAD,2020-10-20 21:30,116.4106,39.5092,53.60,19.40,25.85,360.00,15.55,0.00,30.03,M,6.21,M,M,M,M,M,M,M,M,M,M,M,M,M,M,M,M,M,ZBAD 202130Z 36008MPS CAVOK 12/M07 Q1017 NOSIG
ZGHA,2020-10-20 22:00,112.8667,28.2333,57.20,53.60,87.74,360.00,5.83,0.00,30.18,M,6.21,M,OVC,M,M,M,5000.00,M,M,M,M,M,M,M,M,M,M,M,ZGHA 202200Z 36003MPS 9999 OVC050 14/12 Q1022 NOSIG
ZBYN,2020-10-20 22:00,112.5500,37.7833,44.60,3.20,17.61,360.00,3.89,0.00,30.18,M,6.21,M,M,M,M,M,M,M,M,M,M,M,M,M,M,M,M,42.23,ZBYN 202200Z 36002MPS 310V040 CAVOK 07/M16 Q1022 NOSIG
ZGGG,2020-10-20 22:00,113.3008,23.3964,66.20,55.40,68.15,350.00,7.78,0.00,30.00,M,6.21,M,M,M,M,M,M,M,M,M,M,M,M,M,M,M,M,M,ZGGG 202200Z 35004MPS CAVOK 19/13 Q1016 NOSIG
ZGKL,2020-10-20 22:00,110.3000,25.3333,60.80,55.40,82.37,M,1.94,0.00,30.15,M,6.21,M,SCT,BKN,M,M,3000.00,5300.00,M,M,M,M,M,M,M,M,M,M,ZGKL 202200Z VRB01MPS 9999 SCT030 BKN053 16/13 Q1021 NOSIG
ZGOW,2020-10-20 22:00,116.6833,23.4000,71.60,60.80,68.75,360.00,7.78,0.00,29.88,M,6.21,M,SCT,M,M,M,4000.00,M,M,M,M,M,M,M,M,M,M,M,ZGOW 202200Z 36004MPS 9999 SCT040 22/16 Q1012 NOSIG
ZHHH,2020-10-20 22:00,114.1300,30.6200,57.20,55.40,93.69,250.00,3.89,0.00,30.15,M,3.73,M,NSC,M,M,M,M,M,M,M,-RA,M,M,M,M,M,M,M,ZHHH 202200Z 25002MPS 230V290 6000 -RA NSC 14/13 Q1021 NOSIG
ZJHK,2020-10-20 22:00,110.4590,19.9349,71.60,64.40,78.04,360.00,9.72,0.00,29.94,M,6.21,M,SCT,SCT,M,M,2000.00,4000.00,M,M,M,M,M,M,M,M,M,M,ZJHK 202200Z 36005MPS 330V030 9999 SCT020 SCT040 22/18 Q1014 NOSIG
ZJSY,2020-10-20 22:00,109.4123,18.3029,71.60,68.00,88.43,330.00,3.89,0.00,29.88,M,6.21,M,M,M,M,M,M,M,M,M,M,M,M,M,M,M,M,M,ZJSY 202200Z 33002MPS 320V040 CAVOK 22/20 Q1012 NOSIG
ZUGY,2020-10-20 22:00,106.7333,26.5833,50.00,46.40,87.37,20.00,5.83,0.00,30.30,M,6.21,M,BKN,OVC,M,M,2000.00,4000.00,M,M,M,M,M,M,M,M,M,M,ZUGY 202200Z 02003MPS 9999 BKN020 OVC040 10/08 Q1026 NOSIG
ZGSZ,2020-10-20 22:00,114.1000,22.5500,69.80,59.00,68.55,350.00,11.66,0.00,29.94,M,6.21,M,M,M,M,M,M,M,M,M,M,M,M,M,M,M,M,M,ZGSZ 202200Z 35006MPS CAVOK 21/15 Q1014 NOSIG
ZHCC,2020-10-20 22:00,113.6500,34.7167,51.80,48.20,87.47,280.00,5.83,0.00,30.06,M,3.11,M,NSC,M,M,M,M,M,M,M,BR,M,M,M,M,M,M,M,ZHCC 202200Z 28003MPS 5000 BR NSC 11/09 Q1018 NOSIG
ZGNN,2020-10-20 22:00,108.2167,22.6333,64.40,55.40,72.56,10.00,5.83,0.00,30.09,M,6.21,M,M,M,M,M,M,M,M,M,M,M,M,M,M,M,M,M,ZGNN 202200Z 01003MPS 320V050 CAVOK 18/13 Q1019 NOSIG
ZBAA,2020-10-20 22:00,116.5870,40.0741,51.80,19.40,27.62,300.00,15.55,0.00,30.06,M,6.21,M,M,M,M,M,M,M,M,M,M,M,M,M,M,M,M,M,ZBAA 202200Z 30008MPS CAVOK 11/M07 Q1018 NOSIG
ZBHH,2020-10-20 22:00,111.6833,40.8167,28.40,12.20,50.17,90.00,5.83,0.00,30.21,M,6.21,M,M,M,M,M,M,M,M,M,M,M,M,M,M,M,M,21.34,ZBHH 202200Z 09003MPS CAVOK M02/M11 Q1023 NOSIG
ZBSJ,2020-10-20 22:00,114.6973,38.2807,57.20,12.20,16.58,340.00,11.66,0.00,30.06,M,4.97,M,NSC,M,M,M,M,M,M,M,M,M,M,M,M,M,M,M,ZBSJ 202200Z 34006MPS 8000 NSC 14/M11 Q1018 NOSIG
ZBTJ,2020-10-20 22:00,117.3462,39.1243,55.40,19.40,24.21,320.00,13.61,0.00,30.00,M,6.21,M,M,M,M,M,M,M,M,M,M,M,M,M,M,M,M,M,ZBTJ 202200Z 32007MPS CAVOK 13/M07 Q1016 NOSIG
ZYTL,2020-10-20 22:00,121.6333,38.9000,62.60,51.80,67.75,230.00,7.78,0.00,30.00,M,6.21,M,FEW,M,M,M,2600.00,M,M,M,M,M,M,M,M,M,M,M,ZYTL 202200Z 23004MPS 9999 FEW026 17/11 Q1016 NOSIG
ZYTX,2020-10-20 22:00,123.4000,41.8000,59.00,41.00,51.18,190.00,9.72,0.00,29.94,M,6.21,M,OVC,M,M,M,4300.00,M,M,M,M,M,M,M,M,M,M,M,ZYTX 202200Z 19005MPS 9999 OVC043 15/05 Q1014 NOSIG
ZLLL,2020-10-20 22:00,103.7500,36.0200,26.60,15.80,63.27,360.00,3.89,0.00,30.33,M,4.97,M,NSC,M,M,M,M,M,M,M,M,M,M,M,M,M,M,21.26,ZLLL 202200Z 36002MPS 8000 NSC M03/M09 Q1027 NOSIG
ZLXY,2020-10-20 22:00,108.7516,34.4471,44.60,42.80,93.35,230.00,3.89,0.00,30.21,M,6.21,M,M,M,M,M,M,M,M,M,M,M,M,M,M,M,M,42.23,ZLXY 202200Z 23002MPS CAVOK 07/06 Q1023 NOSIG
ZSAM,2020-10-20 22:00,118.0833,24.4833,75.20,60.80,60.90,350.00,3.89,0.00,29.88,M,6.21,M,BKN,M,M,M,4300.00,M,M,M,M,M,M,M,M,M,M,M,ZSAM 202200Z 35002MPS 310V030 9999 BKN043 24/16 Q1012 NOSIG
ZPPP,2020-10-20 22:00,102.6833,25.0167,44.60,44.60,100.00,50.00,11.66,0.00,30.39,M,6.21,M,SCT,SCT,OVC,M,300.00,1600.00,3000.00,M,-RA,M,M,M,M,M,M,38.15,ZPPP 202200Z 05006MPS 9999 -RA SCT003 SCT016 OVC030 07/07 Q1029 NOSIG
ZSFZ,2020-10-20 22:00,119.2833,26.0833,71.60,59.00,64.48,10.00,5.83,0.00,29.94,M,6.21,M,OVC,M,M,M,2700.00,M,M,M,M,M,M,M,M,M,M,M,ZSFZ 202200Z 01003MPS 9999 OVC027 22/15 Q1014 NOSIG
ZSHC,2020-10-20 22:00,120.1667,30.2333,62.60,59.00,88.00,260.00,3.89,0.00,30.06,M,4.97,M,NSC,M,M,M,M,M,M,M,M,M,M,M,M,M,M,M,ZSHC 202200Z 26002MPS 8000 NSC 17/15 Q1018 NOSIG
ZSNB,2020-10-20 22:00,121.4619,29.8267,62.60,59.00,88.00,190.00,1.94,0.00,30.06,M,6.21,M,M,M,M,M,M,M,M,M,M,M,M,M,M,M,M,M,ZSNB 202200Z 19001MPS CAVOK 17/15 Q1018 NOSIG
ZSOF,2020-10-20 22:00,117.2984,31.7800,59.00,55.40,87.83,290.00,3.89,0.00,30.12,M,1.86,M,NSC,M,M,M,M,M,M,M,-RA BR,M,M,M,M,M,M,M,ZSOF 202200Z 29002MPS 3000 -RA BR NSC 15/13 Q1020 NOSIG
ZSQD,2020-10-20 22:00,120.3333,36.0667,62.60,53.60,72.38,240.00,3.89,0.00,30.06,M,6.21,M,M,M,M,M,M,M,M,M,M,M,M,M,M,M,M,M,ZSQD 202200Z 24002MPS 200V270 CAVOK 17/12 Q1018 NOSIG
ZSSS,2020-10-20 22:00,121.3363,31.1979,64.40,59.00,82.62,350.00,3.89,0.00,30.09,M,6.21,M,NSC,M,M,M,M,M,M,M,-RA,M,M,M,M,M,M,M,ZSSS 202200Z 35002MPS 9999 -RA NSC 18/15 Q1019 NOSIG
ZUCK,2020-10-20 22:00,106.4800,29.5200,55.40,53.60,93.65,190.00,1.94,0.00,30.30,M,6.21,M,M,M,M,M,M,M,M,M,M,M,M,M,M,M,M,M,ZUCK 202200Z 19001MPS CAVOK 13/12 Q1026 NOSIG
ZSNJ,2020-10-20 22:00,118.8667,31.7333,59.00,59.00,100.00,240.00,3.89,0.00,30.12,M,2.80,M,NSC,M,M,M,M,M,M,M,-RA BR,M,M,M,M,M,M,M,ZSNJ 202200Z 24002MPS 4500 -RA BR NSC 15/15 Q1020 NOSIG
ZSPD,2020-10-20 22:00,121.7667,31.1167,66.20,62.60,88.18,60.00,3.89,0.00,30.06,M,6.21,M,M,M,M,M,M,M,M,M,M,M,M,M,M,M,M,M,ZSPD 202200Z 06002MPS CAVOK 19/17 Q1018 NOSIG
ZUUU,2020-10-20 22:00,104.0167,30.6667,51.80,51.80,100.00,M,1.94,0.00,30.27,M,6.21,M,M,M,M,M,M,M,M,M,M,M,M,M,M,M,M,M,ZUUU 202200Z VRB01MPS CAVOK 11/11 Q1025 NOSIG
ZWWW,2020-10-20 22:00,87.4742,43.9071,42.80,24.80,48.67,140.00,3.89,0.00,30.12,M,6.21,M,M,M,M,M,M,M,M,M,M,M,M,M,M,M,M,40.13,ZWWW 202200Z 14002MPS CAVOK 06/M04 Q1020 NOSIG
ZYCC,2020-10-20 22:00,125.2167,43.9000,55.40,35.60,47.16,200.00,11.66,0.00,29.88,M,6.21,M,BKN,M,M,M,3000.00,M,M,M,M,M,M,M,M,M,M,M,ZYCC 202200Z 20006MPS 9999 BKN030 13/02 Q1012 NOSIG
ZYHB,2020-10-20 22:00,126.5800,46.0200,59.00,42.80,54.86,200.00,17.49,0.00,29.77,M,6.21,M,M,M,M,M,M,M,M,M,M,M,M,M,M,M,M,M,ZYHB 202200Z 20009MPS CAVOK 15/06 Q1008 NOSIG
ZWSH,2020-10-20 22:00,75.9833,39.4667,50.00,15.80,25.28,320.00,9.72,0.00,30.21,M,6.21,M,M,M,M,M,M,M,M,M,M,M,M,M,M,M,M,M,ZWSH 202200Z 32005MPS CAVOK 10/M09 Q1023 NOSIG
ZBAD,2020-10-20 22:00,116.4106,39.5092,51.80,19.40,27.62,360.00,17.49,0.00,30.06,M,6.21,M,M,M,M,M,M,M,M,M,M,M,M,M,M,M,M,M,ZBAD 202200Z 36009MPS CAVOK 11/M07 Q1018 NOSIG
ZMUB,2020-10-20 22:00,106.7666,47.8431,8.60,1.40,71.92,M,1.94,0.00,30.06,M,6.21,M,M,M,M,M,M,M,M,M,M,M,M,M,M,M,M,M,ZMUB 202200Z VRB01MPS CAVOK M13/M17 Q1018 NOSIG RMK QFE656.0 75
ZSHC,2020-10-20 22:30,120.1667,30.2333,62.60,59.00,88.00,240.00,3.89,0.00,30.09,M,4.97,M,NSC,M,M,M,M,M,M,M,M,M,M,M,M,M,M,M,ZSHC 202230Z 24002MPS 8000 NSC 17/15 Q1019 NOSIG
ZSSS,2020-10-20 22:30,121.3363,31.1979,64.40,60.80,88.09,340.00,3.89,0.00,30.09,M,6.21,M,NSC,M,M,M,M,M,M,M,-RA,M,M,M,M,M,M,M,ZSSS 202230Z 34002MPS 9999 -RA NSC 18/16 Q1019 NOSIG
ZSPD,2020-10-20 22:30,121.7667,31.1167,66.20,62.60,88.18,330.00,3.89,0.00,30.09,M,6.21,M,M,M,M,M,M,M,M,M,M,M,M,M,M,M,M,M,ZSPD 202230Z 33002MPS CAVOK 19/17 Q1019 NOSIG
ZWWW,2020-10-20 22:30,87.4742,43.9071,42.80,23.00,45.14,130.00,3.89,0.00,30.12,M,6.21,M,M,M,M,M,M,M,M,M,M,M,M,M,M,M,M,40.13,ZWWW 202230Z 13002MPS CAVOK 06/M05 Q1020 NOSIG
ZBAD,2020-10-20 22:30,116.4106,39.5092,51.80,19.40,27.62,360.00,15.55,0.00,30.06,M,6.21,M,M,M,M,M,M,M,M,M,M,M,M,M,M,M,M,M,ZBAD 202230Z 36008MPS CAVOK 11/M07 Q1018 NOSIG
ZMUB,2020-10-20 22:30,106.7666,47.8431,6.80,1.40,78.01,M,1.94,0.00,30.06,M,6.21,M,M,M,M,M,M,M,M,M,M,M,M,M,M,M,M,M,ZMUB 202230Z VRB01MPS CAVOK M14/M17 Q1018 NOSIG RMK QFE656.0 77
ZBYN,2020-10-20 22:30,112.5500,37.7833,42.80,3.20,18.87,330.00,7.78,0.00,30.18,M,6.21,M,M,M,M,M,M,M,M,M,M,M,M,M,M,M,M,37.53,ZBYN 202230Z 33004MPS 290V360 CAVOK 06/M16 Q1022 NOSIG
ZGGG,2020-10-20 22:30,113.3008,23.3964,66.20,55.40,68.15,340.00,9.72,0.00,30.00,M,6.21,M,M,M,M,M,M,M,M,M,M,M,M,M,M,M,M,M,ZGGG 202230Z 34005MPS CAVOK 19/13 Q1016 NOSIG
ZBAA,2020-10-20 22:30,116.5870,40.0741,50.00,19.40,29.52,310.00,15.55,0.00,30.09,M,6.21,M,M,M,M,M,M,M,M,M,M,M,M,M,M,M,M,M,ZBAA 202230Z 31008MPS CAVOK 10/M07 Q1019 NOSIG
ZBTJ,2020-10-20 22:30,117.3462,39.1243,53.60,19.40,25.85,330.00,17.49,0.00,30.03,M,6.21,M,M,M,M,M,M,M,M,M,M,M,M,M,M,M,M,M,ZBTJ 202230Z 33009MPS CAVOK 12/M07 Q1017 NOSIG
ZYTL,2020-10-20 22:30,121.6333,38.9000,62.60,51.80,67.75,200.00,5.83,0.00,30.00,M,4.97,M,FEW,M,M,M,2600.00,M,M,M,M,M,M,M,M,M,M,M,ZYTL 202230Z 20003MPS 8000 FEW026 17/11 Q1016 NOSIG
ZYTX,2020-10-20 22:30,123.4000,41.8000,60.80,42.80,51.45,190.00,9.72,0.00,29.94,M,6.21,M,OVC,M,M,M,4300.00,M,M,M,M,M,M,M,M,M,M,M,ZYTX 202230Z 19005MPS 9999 OVC043 16/06 Q1014 NOSIG
ZMUB,2020-10-20 23:00,106.7666,47.8431,8.60,3.20,78.18,0.00,0.00,0.00,30.06,M,6.21,M,M,M,M,M,M,M,M,M,M,M,M,M,M,M,M,M,ZMUB 202300Z 00000MPS CAVOK M13/M16 Q1018 NOSIG RMK QFE656.1 81
ZGHA,2020-10-20 23:00,112.8667,28.2333,57.20,53.60,87.74,350.00,5.83,0.00,30.21,M,6.21,M,OVC,M,M,M,5000.00,M,M,M,M,M,M,M,M,M,M,M,ZGHA 202300Z 35003MPS 9999 OVC050 14/12 Q1023 NOSIG
ZBYN,2020-10-20 23:00,112.5500,37.7833,42.80,3.20,18.87,310.00,7.78,0.00,30.18,M,6.21,M,M,M,M,M,M,M,M,M,M,M,M,M,M,M,M,37.53,ZBYN 202300Z 31004MPS CAVOK 06/M16 Q1022 NOSIG
ZGGG,2020-10-20 23:00,113.3008,23.3964,66.20,55.40,68.15,350.00,7.78,0.00,30.00,M,6.21,M,M,M,M,M,M,M,M,M,M,M,M,M,M,M,M,M,ZGGG 202300Z 35004MPS CAVOK 19/13 Q1016 NOSIG
ZGKL,2020-10-20 23:00,110.3000,25.3333,60.80,55.40,82.37,290.00,1.94,0.00,30.18,M,6.21,M,FEW,BKN,M,M,4300.00,6600.00,M,M,M,M,M,M,M,M,M,M,ZGKL 202300Z 29001MPS 9999 FEW043 BKN066 16/13 Q1022 NOSIG
ZGOW,2020-10-20 23:00,116.6833,23.4000,71.60,60.80,68.75,360.00,11.66,0.00,29.91,M,6.21,M,M,M,M,M,M,M,M,M,M,M,M,M,M,M,M,M,ZGOW 202300Z 36006MPS CAVOK 22/16 Q1013 NOSIG
ZHHH,2020-10-20 23:00,114.1300,30.6200,57.20,55.40,93.69,220.00,5.83,0.00,30.15,M,2.49,M,NSC,M,M,M,M,M,M,M,-RA BR,M,M,M,M,M,M,M,ZHHH 202300Z 22003MPS 4000 -RA BR NSC 14/13 Q1021 NOSIG
ZJHK,2020-10-20 23:00,110.4590,19.9349,71.60,64.40,78.04,350.00,9.72,0.00,29.97,M,6.21,M,BKN,M,M,M,3600.00,M,M,M,M,M,M,M,M,M,M,M,ZJHK 202300Z 35005MPS 330V030 9999 BKN036 22/18 Q1015 NOSIG
ZJSY,2020-10-20 23:00,109.4123,18.3029,71.60,68.00,88.43,350.00,3.89,0.00,29.91,M,6.21,M,M,M,M,M,M,M,M,M,M,M,M,M,M,M,M,M,ZJSY 202300Z 35002MPS 340V040 CAVOK 22/20 Q1013 NOSIG
ZUGY,2020-10-20 23:00,106.7333,26.5833,50.00,46.40,87.37,10.00,5.83,0.00,30.30,M,6.21,M,FEW,OVC,M,M,2000.00,4000.00,M,M,M,M,M,M,M,M,M,M,ZUGY 202300Z 01003MPS 9999 FEW020 OVC040 10/08 Q1026 NOSIG
ZGSZ,2020-10-20 23:00,114.1000,22.5500,69.80,59.00,68.55,360.00,9.72,0.00,29.97,M,6.21,M,M,M,M,M,M,M,M,M,M,M,M,M,M,M,M,M,ZGSZ 202300Z 36005MPS CAVOK 21/15 Q1015 NOSIG
ZHCC,2020-10-20 23:00,113.6500,34.7167,57.20,46.40,67.12,250.00,5.83,0.00,30.06,M,3.11,M,NSC,M,M,M,M,M,M,M,HZ,M,M,M,M,M,M,M,ZHCC 202300Z 25003MPS 5000 HZ NSC 14/08 Q1018 NOSIG
ZGNN,2020-10-20 23:00,108.2167,22.6333,62.60,53.60,72.38,10.00,5.83,0.00,30.12,M,6.21,M,M,M,M,M,M,M,M,M,M,M,M,M,M,M,M,M,ZGNN 202300Z 01003MPS 320V050 CAVOK 17/12 Q1020 NOSIG
ZBAA,2020-10-20 23:00,116.5870,40.0741,50.00,19.40,29.52,310.00,15.55,0.00,30.09,M,6.21,M,M,M,M,M,M,M,M,M,M,M,M,M,M,M,M,M,ZBAA 202300Z 31008MPS CAVOK 10/M07 Q1019 NOSIG
ZBHH,2020-10-20 23:00,111.6833,40.8167,24.80,12.20,58.22,M,3.89,0.00,30.24,M,6.21,M,M,M,M,M,M,M,M,M,M,M,M,M,M,M,M,19.16,ZBHH 202300Z VRB02MPS CAVOK M04/M11 Q1024 NOSIG
ZBSJ,2020-10-20 23:00,114.6973,38.2807,55.40,14.00,19.16,340.00,9.72,0.00,30.09,M,4.35,M,NSC,M,M,M,M,M,M,M,M,M,M,M,M,M,M,M,ZBSJ 202300Z 34005MPS 7000 NSC 13/M10 Q1019 NOSIG
ZBTJ,2020-10-20 23:00,117.3462,39.1243,53.60,19.40,25.85,330.00,17.49,0.00,30.03,M,6.21,M,M,M,M,M,M,M,M,M,M,M,M,M,M,M,M,M,ZBTJ 202300Z 33009MPS CAVOK 12/M07 Q1017 NOSIG
ZYTL,2020-10-20 23:00,121.6333,38.9000,62.60,51.80,67.75,200.00,9.72,0.00,29.97,M,4.97,M,FEW,M,M,M,2600.00,M,M,M,M,M,M,M,M,M,M,M,ZYTL 202300Z 20005MPS 170V230 8000 FEW026 17/11 Q1015 NOSIG
ZYTX,2020-10-20 23:00,123.4000,41.8000,60.80,41.00,48.00,180.00,9.72,0.00,29.94,M,6.21,M,OVC,M,M,M,4300.00,M,M,M,M,M,M,M,M,M,M,M,ZYTX 202300Z 18005MPS 9999 OVC043 16/05 Q1014 NOSIG
ZLLL,2020-10-20 23:00,103.7500,36.0200,28.40,17.60,63.51,320.00,3.89,0.00,30.33,M,4.97,M,NSC,M,M,M,M,M,M,M,M,M,M,M,M,M,M,23.35,ZLLL 202300Z 32002MPS 280V340 8000 NSC M02/M08 Q1027 NOSIG
ZLXY,2020-10-20 23:00,108.7516,34.4471,42.80,41.00,93.30,M,1.94,0.00,30.24,M,6.21,M,M,M,M,M,M,M,M,M,M,M,M,M,M,M,M,M,ZLXY 202300Z VRB01MPS CAVOK 06/05 Q1024 NOSIG
ZSAM,2020-10-20 23:00,118.0833,24.4833,75.20,60.80,60.90,350.00,3.89,0.00,29.88,M,6.21,M,BKN,M,M,M,4300.00,M,M,M,M,M,M,M,M,M,M,M,ZSAM 202300Z 35002MPS 320V030 9999 BKN043 24/16 Q1012 NOSIG
ZPPP,2020-10-20 23:00,102.6833,25.0167,44.60,44.60,100.00,50.00,11.66,0.00,30.39,M,6.21,M,SCT,OVC,M,M,2000.00,3600.00,M,M,-RA,M,M,M,M,M,M,38.15,ZPPP 202300Z 05006MPS 9999 -RA SCT020 OVC036 07/07 Q1029 NOSIG
ZSFZ,2020-10-20 23:00,119.2833,26.0833,71.60,60.80,68.75,10.00,5.83,0.00,29.97,M,6.21,M,OVC,M,M,M,2700.00,M,M,M,M,M,M,M,M,M,M,M,ZSFZ 202300Z 01003MPS 340V040 9999 OVC027 22/16 Q1015 BECMG TL0030 03008MPS
ZSHC,2020-10-20 23:00,120.1667,30.2333,62.60,59.00,88.00,250.00,3.89,0.00,30.09,M,5.59,M,NSC,M,M,M,M,M,M,M,M,M,M,M,M,M,M,M,ZSHC 202300Z 25002MPS 230V290 9000 NSC 17/15 Q1019 NOSIG
ZSNB,2020-10-20 23:00,121.4619,29.8267,62.60,59.00,88.00,M,1.94,0.00,30.09,M,6.21,M,M,M,M,M,M,M,M,M,M,M,M,M,M,M,M,M,ZSNB 202300Z VRB01MPS CAVOK 17/15 Q1019 NOSIG
ZSOF,2020-10-20 23:00,117.2984,31.7800,59.00,55.40,87.83,200.00,5.83,0.00,30.12,M,1.12,M,NSC,M,M,M,M,M,M,M,-RA BR,M,M,M,M,M,M,M,ZSOF 202300Z 20003MPS 1800 -RA BR NSC 15/13 Q1020 BECMG AT0100 3000
ZSQD,2020-10-20 23:00,120.3333,36.0667,64.40,51.80,63.60,210.00,7.78,0.00,30.03,M,6.21,M,M,M,M,M,M,M,M,M,M,M,M,M,M,M,M,M,ZSQD 202300Z 21004MPS CAVOK 18/11 Q1017 NOSIG
ZSSS,2020-10-20 23:00,121.3363,31.1979,64.40,60.80,88.09,340.00,3.89,0.00,30.09,M,6.21,M,NSC,M,M,M,M,M,M,M,-RA,M,M,M,M,M,M,M,ZSSS 202300Z 34002MPS 9999 -RA NSC 18/16 Q1019 NOSIG
ZUCK,2020-10-20 23:00,106.4800,29.5200,57.20,55.40,93.69,190.00,3.89,0.00,30.30,M,3.73,M,SCT,M,M,M,2000.00,M,M,M,M,M,M,M,M,M,M,M,ZUCK 202300Z 19002MPS 140V240 6000 SCT020 14/13 Q1026 NOSIG
ZSNJ,2020-10-20 23:00,118.8667,31.7333,59.00,59.00,100.00,260.00,1.94,0.00,30.12,M,1.24,M,NSC,M,M,M,M,M,M,M,-RA BR,M,M,M,M,M,M,M,ZSNJ 202300Z 26001MPS 2000 -RA BR NSC 15/15 Q1020 BECMG TL0030 3000
ZSPD,2020-10-20 23:00,121.7667,31.1167,66.20,62.60,88.18,340.00,5.83,0.00,30.09,M,6.21,M,M,M,M,M,M,M,M,M,M,M,M,M,M,M,M,M,ZSPD 202300Z 34003MPS CAVOK 19/17 Q1019 NOSIG
ZUUU,2020-10-20 23:00,104.0167,30.6667,51.80,51.80,100.00,0.00,0.00,0.00,30.30,M,4.97,M,NSC,M,M,M,M,M,M,M,M,M,M,M,M,M,M,M,ZUUU 202300Z 00000MPS 8000 NSC 11/11 Q1026 NOSIG
ZWWW,2020-10-20 23:00,87.4742,43.9071,42.80,23.00,45.14,130.00,3.89,0.00,30.12,M,6.21,M,M,M,M,M,M,M,M,M,M,M,M,M,M,M,M,40.13,ZWWW 202300Z 13002MPS CAVOK 06/M05 Q1020 NOSIG
ZYCC,2020-10-20 23:00,125.2167,43.9000,51.80,42.80,71.26,200.00,15.55,0.00,29.88,M,2.49,27.21,OVC,M,M,M,3000.00,M,M,M,-RA,M,M,M,M,M,M,M,ZYCC 202300Z 20008G14MPS 4000 -RA OVC030 11/06 Q1012 NOSIG
ZYHB,2020-10-20 23:00,126.5800,46.0200,59.00,44.60,58.77,200.00,17.49,0.00,29.77,M,6.21,29.16,M,M,M,M,M,M,M,M,M,M,M,M,M,M,M,M,ZYHB 202300Z 20009G15MPS CAVOK 15/07 Q1008 NOSIG
ZWSH,2020-10-20 23:00,75.9833,39.4667,50.00,15.80,25.28,320.00,9.72,0.00,30.21,M,6.21,M,M,M,M,M,M,M,M,M,M,M,M,M,M,M,M,M,ZWSH 202300Z 32005MPS CAVOK 10/M09 Q1023 NOSIG
ZBAD,2020-10-20 23:00,116.4106,39.5092,51.80,19.40,27.62,350.00,19.44,0.00,30.06,M,6.21,M,M,M,M,M,M,M,M,M,M,M,M,M,M,M,M,M,ZBAD 202300Z 35010MPS CAVOK 11/M07 Q1018 NOSIG
ZMUB,2020-10-20 23:30,106.7666,47.8431,10.40,6.80,85.05,M,1.94,0.00,30.06,M,6.21,M,M,M,M,M,M,M,M,M,M,M,M,M,M,M,M,M,ZMUB 202330Z VRB01MPS CAVOK M12/M14 Q1018 NOSIG RMK QFE656.3 81
ZBYN,2020-10-20 23:30,112.5500,37.7833,42.80,6.80,22.25,330.00,5.83,0.00,30.21,M,6.21,M,M,M,M,M,M,M,M,M,M,M,M,M,M,M,M,38.65,ZBYN 202330Z 33003MPS 290V010 CAVOK 06/M14 Q1023 NOSIG
ZGGG,2020-10-20 23:30,113.3008,23.3964,66.20,55.40,68.15,350.00,11.66,0.00,30.00,M,6.21,M,M,M,M,M,M,M,M,M,M,M,M,M,M,M,M,M,ZGGG 202330Z 35006MPS CAVOK 19/13 Q1016 NOSIG
ZBAA,2020-10-20 23:30,116.5870,40.0741,51.80,19.40,27.62,310.00,15.55,0.00,30.12,M,6.21,M,M,M,M,M,M,M,M,M,M,M,M,M,M,M,M,M,ZBAA 202330Z 31008MPS CAVOK 11/M07 Q1020 NOSIG
ZBTJ,2020-10-20 23:30,117.3462,39.1243,53.60,19.40,25.85,330.00,19.44,0.00,30.06,M,6.21,M,M,M,M,M,M,M,M,M,M,M,M,M,M,M,M,M,ZBTJ 202330Z 33010MPS CAVOK 12/M07 Q1018 NOSIG
ZYTL,2020-10-20 23:30,121.6333,38.9000,62.60,51.80,67.75,200.00,9.72,0.00,30.00,M,4.97,M,FEW,M,M,M,2600.00,M,M,M,M,M,M,M,M,M,M,M,ZYTL 202330Z 20005MPS 180V240 8000 FEW026 17/11 Q1016 NOSIG
ZYTX,2020-10-20 23:30,123.4000,41.8000,60.80,42.80,51.45,180.00,11.66,0.00,29.91,M,6.21,M,BKN,M,M,M,4300.00,M,M,M,M,M,M,M,M,M,M,M,ZYTX 202330Z 18006MPS 9999 BKN043 16/06 Q1013 NOSIG
ZSHC,2020-10-20 23:30,120.1667,30.2333,64.40,59.00,82.62,290.00,5.83,0.00,30.09,M,4.97,M,NSC,M,M,M,M,M,M,M,M,M,M,M,M,M,M,M,ZSHC 202330Z 29003MPS 260V340 8000 NSC 18/15 Q1019 NOSIG
ZSSS,2020-10-20 23:30,121.3363,31.1979,64.40,60.80,88.09,340.00,3.89,0.00,30.09,M,6.21,M,M,M,M,M,M,M,M,M,M,M,M,M,M,M,M,M,ZSSS 202330Z 34002MPS CAVOK 18/16 Q1019 NOSIG
ZSPD,2020-10-20 23:30,121.7667,31.1167,66.20,64.40,93.92,330.00,5.83,0.00,30.09,M,6.21,M,M,M,M,M,M,M,M,M,M,M,M,M,M,M,M,M,ZSPD 202330Z 33003MPS CAVOK 19/18 Q1019 NOSIG
ZWWW,2020-10-20 23:30,87.4742,43.9071,44.60,23.00,42.14,150.00,3.89,0.00,30.12,M,6.21,M,M,M,M,M,M,M,M,M,M,M,M,M,M,M,M,42.23,ZWWW 202330Z 15002MPS 110V200 CAVOK 07/M05 Q1020 NOSIG
ZBAD,2020-10-20 23:30,116.4106,39.5092,51.80,19.40,27.62,360.00,15.55,0.00,30.09,M,6.21,M,M,M,M,M,M,M,M,M,M,M,M,M,M,M,M,M,ZBAD 202330Z 36008MPS CAVOK 11/M07 Q1019 NOSIG
