station,valid,lon,lat,tmpf,dwpf,relh,drct,sknt,p01i,alti,mslp,vsby,gust,skyc1,skyc2,skyc3,skyc4,skyl1,skyl2,skyl3,skyl4,wxcodes,ice_accretion_1hr,ice_accretion_3hr,ice_accretion_6hr,peak_wind_gust,peak_wind_drct,peak_wind_time,feel,metar
RJFR,2020-10-20 00:00,131.0350,33.8456,66.20,48.20,52.25,50.00,9.00,0.00,30.27,M,6.21,M,FEW,M,M,M,3000.00,M,M,M,M,M,M,M,M,M,M,M,RJFR 200000Z 05009KT 9999 FEW030 19/09 Q1025
RJSR,2020-10-20 00:00,140.3714,40.1919,42.80,42.80,100.00,0.00,0.00,0.00,30.33,M,0.25,M,BKN,BKN,M,M,100.00,200.00,M,M,FG,M,M,M,M,M,M,M,RJSR 200000Z 00000KT 0400 R11/0200V0275N FG BKN001 BKN002 06/06 Q1027
RJAA,2020-10-20 00:00,140.3856,35.7653,57.20,53.60,87.74,330.00,7.00,0.00,30.27,M,6.21,M,FEW,BKN,M,M,2000.00,M,M,M,M,M,M,M,M,M,M,M,RJAA 200000Z 33007KT 9999 FEW020 BKN/// 14/12 Q1025 NOSIG
RJAF,2020-10-20 00:00,137.9228,36.1667,44.60,42.80,93.35,M,1.00,0.00,30.36,M,5.59,M,FEW,SCT,BKN,M,100.00,600.00,900.00,M,BR,M,M,M,M,M,M,M,RJAF 200000Z VRB01KT 9000 BR FEW001 SCT006 BKN009 07/06 Q1028
RJAH,2020-10-20 00:00,140.4147,36.1817,62.60,53.60,72.38,10.00,7.00,0.00,30.27,M,6.21,M,FEW,BKN,M,M,3000.00,25000.00,M,M,M,M,M,M,M,M,M,M,RJAH 200000Z 01007KT 9999 FEW030 BKN250 17/12 Q1025
RJBT,2020-10-20 00:00,134.7869,35.5128,53.60,53.60,100.00,M,1.00,0.00,30.30,M,0.31,M,FEW,SCT,M,M,0.00,200.00,M,M,FG,M,M,M,M,M,M,M,RJBT 200000Z VRB01KT 0500 FG FEW000 SCT002 12/12 Q1026
RJCB,2020-10-20 00:00,143.2172,42.7333,55.40,35.60,47.16,340.00,12.00,0.00,30.21,M,6.21,M,FEW,M,M,M,5000.00,M,M,M,M,M,M,M,M,M,M,M,RJCB 200000Z 34012KT 9999 FEW050 13/02 Q1023
RJCC,2020-10-20 00:00,141.6926,42.7742,53.60,42.80,66.70,140.00,5.00,0.00,30.24,M,6.21,M,FEW,M,M,M,3000.00,M,M,M,M,M,M,M,M,M,M,M,RJCC 200000Z 14005KT 9999 FEW030 12/06 Q1024
RJCH,2020-10-20 00:00,140.8219,41.7700,55.40,41.00,58.27,M,2.00,0.00,30.27,M,6.21,M,FEW,M,M,M,3000.00,M,M,M,M,M,M,M,M,M,M,M,RJCH 200000Z VRB02KT 9999 FEW030 13/05 Q1025
RJCK,2020-10-20 00:00,144.1931,43.0408,55.40,41.00,58.27,M,2.00,0.00,30.18,M,6.21,M,FEW,M,M,M,4000.00,M,M,M,M,M,M,M,M,M,M,M,RJCK 200000Z VRB02KT 9999 FEW040 13/05 Q1022
RJCM,2020-10-20 00:00,144.1642,43.8806,51.80,41.00,66.48,210.00,5.00,0.00,30.18,M,6.21,M,FEW,SCT,BKN,M,4000.00,7000.00,9000.00,M,M,M,M,M,M,M,M,M,RJCM 200000Z 21005KT 9999 FEW040 SCT070 BKN090 11/05 Q1022
RJCN,2020-10-20 00:00,144.9600,43.5775,57.20,33.80,41.13,300.00,8.00,0.00,30.18,M,6.21,M,FEW,M,M,M,3000.00,M,M,M,M,M,M,M,M,M,M,M,RJCN 200000Z 30008KT 240V360 9999 FEW030 14/01 Q1022
RJCO,2020-10-20 00:00,141.3814,43.1175,51.80,44.60,76.34,50.00,6.00,0.00,30.27,M,6.21,M,FEW,SCT,M,M,2000.00,6000.00,M,M,M,M,M,M,M,M,M,M,RJCO 200000Z 05006KT 9999 FEW020 SCT060 11/07 Q1025
RJCW,2020-10-20 00:00,141.8022,45.4044,50.00,37.40,61.76,40.00,12.00,0.00,30.21,M,6.21,M,FEW,SCT,M,M,3000.00,4000.00,M,M,M,M,M,M,M,M,M,M,RJCW 200000Z 04012KT 9999 FEW030 SCT040 10/03 Q1023
RJDT,2020-10-20 00:00,129.3306,34.2850,68.00,51.80,56.13,70.00,11.00,0.00,30.27,M,6.21,M,FEW,M,M,M,3000.00,M,M,M,M,M,M,M,M,M,M,M,RJDT 200000Z 07011KT 030V110 9999 FEW030 20/11 Q1025
RJEB,2020-10-20 00:00,143.4040,44.3039,50.00,41.00,71.07,230.00,9.00,0.00,30.18,M,6.21,M,FEW,SCT,BKN,M,5000.00,7000.00,9000.00,M,M,M,M,M,M,M,M,M,RJEB 200000Z 23009KT 9999 FEW050 SCT070 BKN090 10/05 Q1022
RJEC,2020-10-20 00:00,142.4475,43.6708,51.80,32.00,46.59,160.00,6.00,0.00,30.21,M,6.21,M,FEW,SCT,BKN,M,100.00,5000.00,8000.00,M,M,M,M,M,M,M,M,M,RJEC 200000Z 16006KT 9999 FEW001 SCT050 BKN080 11/M00 Q1023
RJFE,2020-10-20 00:00,128.8328,32.6664,68.00,57.20,68.35,30.00,12.00,0.00,30.24,M,6.21,M,FEW,M,M,M,2000.00,M,M,M,M,M,M,M,M,M,M,M,RJFE 200000Z 03012KT 9999 FEW020 20/14 Q1024
RJFF,2020-10-20 00:00,130.4517,33.5844,64.40,55.40,72.56,90.00,4.00,0.00,30.27,M,6.21,M,FEW,M,M,M,2500.00,M,M,M,M,M,M,M,M,M,M,M,RJFF 200000Z 09004KT 350V150 9999 FEW025 18/13 Q1025 NOSIG
RJFK,2020-10-20 00:00,130.7194,31.8033,64.40,53.60,67.95,70.00,4.00,0.00,30.21,M,6.21,M,FEW,M,M,M,2000.00,M,M,M,M,M,M,M,M,M,M,M,RJFK 200000Z 07004KT 020V110 9999 FEW020 18/12 Q1023
RJFM,2020-10-20 00:00,131.4486,31.8772,68.00,55.40,64.04,20.00,19.00,0.00,30.24,M,6.21,M,FEW,M,M,M,3000.00,M,M,M,M,M,M,M,M,M,M,M,RJFM 200000Z 02019KT 9999 FEW030 20/13 Q1024
RJFO,2020-10-20 00:00,131.7372,33.4794,66.20,51.80,59.74,20.00,10.00,0.00,30.27,M,6.21,M,FEW,M,M,M,3000.00,M,M,M,M,M,M,M,M,M,M,M,RJFO 200000Z 02010KT 9999 FEW030 19/11 Q1025
RJAW,2020-10-20 00:00,141.3227,24.7840,82.40,78.80,88.90,160.00,10.00,0.00,29.91,M,6.21,M,SCT,SCT,BKN,M,1500.00,15000.00,23000.00,M,M,M,M,M,M,M,M,92.76,RJAW 200000Z 16010KT 9999 SCT015 SCT150 BKN230 28/26 Q1013 RMK 3CU015 4AC150 A2992
RJBB,2020-10-20 00:00,135.2328,34.4342,62.60,59.00,88.00,60.00,7.00,0.00,30.30,M,6.21,M,FEW,SCT,M,M,1500.00,M,M,M,M,M,M,M,M,M,M,M,RJBB 200000Z 06007KT 9999 FEW015 SCT/// 17/15 Q1026 NOSIG
RJBE,2020-10-20 00:00,135.2239,34.6328,60.80,55.40,82.37,90.00,6.00,0.00,30.30,M,6.21,M,FEW,SCT,M,M,3000.00,M,M,M,M,M,M,M,M,M,M,M,RJBE 200000Z 09006KT 9999 FEW030 SCT/// 16/13 Q1026
RJNK,2020-10-20 00:00,136.4075,36.3939,64.40,53.60,67.95,M,2.00,0.00,30.30,M,6.21,M,FEW,M,M,M,3000.00,M,M,M,M,M,M,M,M,M,M,M,RJNK 200000Z VRB02KT 9999 FEW030 18/12 Q1026
RJNT,2020-10-20 00:00,137.1875,36.6483,62.60,50.00,63.38,M,2.00,0.00,30.30,M,6.21,M,FEW,M,M,M,3000.00,M,M,M,M,M,M,M,M,M,M,M,RJNT 200000Z VRB02KT 9999 FEW030 17/10 Q1026
RJNW,2020-10-20 00:00,136.9618,37.2931,64.40,53.60,67.95,70.00,7.00,0.00,30.33,M,6.21,M,FEW,M,M,M,3000.00,M,M,M,M,M,M,M,M,M,M,M,RJNW 200000Z 07007KT 9999 FEW030 18/12 Q1027
RJOA,2020-10-20 00:00,132.9194,34.4361,60.80,46.40,59.01,40.00,9.00,0.00,30.30,M,6.21,M,FEW,M,M,M,2500.00,M,M,M,M,M,M,M,M,M,M,M,RJOA 200000Z 04009KT 9999 FEW025 16/08 Q1026
RJOB,2020-10-20 00:00,133.8553,34.7569,62.60,48.20,59.26,20.00,5.00,0.00,30.30,M,6.21,M,FEW,M,M,M,2500.00,M,M,M,M,M,M,M,M,M,M,M,RJOB 200000Z 02005KT 330V060 9999 FEW025 17/09 Q1026
RJOC,2020-10-20 00:00,132.8900,35.4136,60.80,51.80,72.20,160.00,6.00,0.00,30.30,M,6.21,M,FEW,M,M,M,3500.00,M,M,M,M,M,M,M,M,M,M,M,RJOC 200000Z 16006KT 9999 FEW035 16/11 Q1026
RJOH,2020-10-20 00:00,133.2392,35.4933,59.00,55.40,87.83,M,2.00,0.00,30.33,M,6.21,M,FEW,M,M,M,4000.00,M,M,M,M,M,M,M,M,M,M,M,RJOH 200000Z VRB02KT 9999 FEW040 15/13 Q1027
RJKA,2020-10-20 00:00,129.7125,28.4308,78.80,71.60,78.62,50.00,17.00,0.00,30.09,M,6.21,M,FEW,SCT,BKN,M,2000.00,3000.00,4500.00,M,M,M,M,M,M,M,M,M,RJKA 200000Z 05017KT 9999 FEW020 SCT030 BKN045 26/22 Q1019
RJOK,2020-10-20 00:00,133.6694,33.5461,66.20,46.40,48.83,10.00,8.00,0.00,30.24,M,6.21,M,FEW,SCT,M,M,3000.00,17000.00,M,M,M,M,M,M,M,M,M,M,RJOK 200000Z 01008KT 9999 FEW030 SCT170 19/08 Q1024
RJFU,2020-10-20 00:00,129.9136,32.9169,68.00,55.40,64.04,10.00,8.00,0.00,30.21,M,6.21,M,FEW,M,M,M,1500.00,M,M,M,M,M,M,M,M,M,M,M,RJFU 200000Z 01008KT 9999 FEW015 20/13 Q1023
RJGG,2020-10-20 00:00,136.8054,34.8584,59.00,51.80,76.98,350.00,8.00,0.00,30.27,M,6.21,M,FEW,BKN,M,M,2000.00,M,M,M,M,M,M,M,M,M,M,M,RJGG 200000Z 35008KT 9999 FEW020 BKN/// 15/11 Q1025 NOSIG
RJKI,2020-10-20 00:00,129.9281,28.3213,78.80,71.60,78.62,70.00,14.00,0.00,30.06,M,6.21,M,SCT,SCT,BKN,M,2300.00,3300.00,3600.00,M,M,M,M,M,M,M,M,M,RJKI 200000Z AUTO 07014KT 9999 SCT023 SCT033 BKN036 26/22 Q1018
ROIG,2020-10-20 00:00,124.1633,24.3367,80.60,77.00,88.83,40.00,17.00,0.00,29.97,M,6.21,M,FEW,BKN,M,M,1600.00,M,M,M,M,M,M,M,M,M,M,87.59,ROIG 200000Z 04017KT 9999 FEW016 BKN/// 27/25 Q1015
ROMD,2020-10-20 00:00,131.2286,25.8289,80.60,73.40,78.76,50.00,12.00,0.00,30.00,M,6.21,M,SCT,BKN,BKN,M,1900.00,3100.00,3500.00,M,M,M,M,M,M,M,M,85.32,ROMD 200000Z AUTO 05012KT 9999 SCT019 BKN031 BKN035 27/23 Q1016
ROMY,2020-10-20 00:00,125.2767,24.7933,80.60,75.20,83.66,60.00,15.00,0.00,29.97,M,6.21,M,FEW,BKN,M,M,1500.00,M,M,M,M,M,M,M,M,M,M,86.17,ROMY 200000Z 06015KT 9999 FEW015 BKN/// 27/24 Q1015
RORY,2020-10-20 00:00,128.4020,27.0440,82.40,73.40,74.28,70.00,11.00,0.00,30.03,M,6.21,21.00,SCT,SCT,BKN,M,2100.00,4300.00,4800.00,M,M,M,M,M,M,M,M,88.26,RORY 200000Z AUTO 07011G21KT 9999 SCT021 SCT043 BKN048 28/23 Q1017
RJDC,2020-10-20 00:00,131.2786,33.9300,66.20,48.20,52.25,50.00,8.00,0.00,30.27,M,6.21,M,FEW,M,M,M,2000.00,M,M,M,M,M,M,M,M,M,M,M,RJDC 200000Z 05008KT 9999 FEW020 19/09 Q1025
RJOM,2020-10-20 00:00,132.6997,33.8272,64.40,53.60,67.95,20.00,6.00,0.00,30.27,M,6.21,M,FEW,M,M,M,2500.00,M,M,M,M,M,M,M,M,M,M,M,RJOM 200000Z 02006KT 9999 FEW025 18/12 Q1025
RJFS,2020-10-20 00:00,130.3000,33.1500,66.20,55.40,68.15,50.00,8.00,0.00,30.24,M,6.21,M,FEW,M,M,M,3000.00,M,M,M,M,M,M,M,M,M,M,M,RJFS 200000Z 05008KT 9999 FEW030 19/13 Q1024
RJFT,2020-10-20 00:00,130.8553,32.8372,66.20,51.80,59.74,50.00,12.00,0.00,30.24,M,6.21,M,FEW,M,M,M,3000.00,M,M,M,M,M,M,M,M,M,M,M,RJFT 200000Z 05012KT 9999 FEW030 19/11 Q1024
RJOT,2020-10-20 00:00,134.0167,34.2167,60.80,53.60,77.14,70.00,3.00,0.00,30.30,M,6.21,M,FEW,M,M,M,3500.00,M,M,M,M,M,M,M,M,M,M,M,RJOT 200000Z 07003KT 360V150 9999 FEW035 16/12 Q1026
RJSK,2020-10-20 00:00,140.2167,39.6167,48.20,48.20,100.00,140.00,5.00,0.00,30.33,M,0.19,M,FEW,BKN,BKN,M,0.00,100.00,200.00,M,FG,M,M,M,M,M,M,45.63,RJSK 200000Z 14005KT 110V190 0300 R28/0300VP2000U FG FEW000 BKN001 BKN002 09/09 Q1027
RJOO,2020-10-20 00:00,135.4392,34.7844,59.00,55.40,87.83,110.00,4.00,0.00,30.30,M,6.21,M,FEW,SCT,M,M,2000.00,M,M,M,M,M,M,M,M,M,M,M,RJOO 200000Z 11004KT 080V140 9999 FEW020 SCT/// 15/13 Q1026
RJOR,2020-10-20 00:00,134.1650,35.5300,60.80,53.60,77.14,150.00,4.00,0.00,30.30,M,6.21,M,FEW,M,M,M,3000.00,M,M,M,M,M,M,M,M,M,M,M,RJOR 200000Z 15004KT 110V180 9999 FEW030 16/12 Q1026
RJOW,2020-10-20 00:00,131.7903,34.6764,59.00,50.00,72.01,160.00,6.00,0.00,30.30,M,6.21,M,M,M,M,M,M,M,M,M,M,M,M,M,M,M,M,M,RJOW 200000Z 16006KT CAVOK 15/10 Q1026
RJOY,2020-10-20 00:00,135.6006,34.5967,60.80,57.20,87.92,M,1.00,0.00,30.30,M,6.21,M,FEW,BKN,M,M,300.00,M,M,M,M,M,M,M,M,M,M,M,RJOY 200000Z VRB01KT 9999 FEW003 BKN/// 16/14 Q1026
RJSA,2020-10-20 00:00,140.6886,40.7333,55.40,42.80,62.46,230.00,4.00,0.00,30.30,M,6.21,M,FEW,M,M,M,3000.00,M,M,M,M,M,M,M,M,M,M,M,RJSA 200000Z 23004KT 190V260 9999 FEW030 13/06 Q1026
RJSC,2020-10-20 00:00,140.3711,38.4119,53.60,51.80,93.60,240.00,3.00,0.00,30.33,M,4.35,M,FEW,BKN,BKN,M,200.00,500.00,800.00,M,M,M,M,M,M,M,M,M,RJSC 200000Z 24003KT 200V270 7000 FEW002 BKN005 BKN008 12/11 Q1027
RJSF,2020-10-20 00:00,140.4281,37.2275,55.40,51.80,87.65,360.00,5.00,0.00,30.30,M,6.21,M,FEW,BKN,M,M,100.00,M,M,M,M,M,M,M,M,M,M,M,RJSF 200000Z 36005KT 9999 FEW001 BKN/// 13/11 Q1026
RJSI,2020-10-20 00:00,141.1353,39.4286,51.80,46.40,81.74,20.00,3.00,0.00,30.30,M,6.21,M,FEW,M,M,M,300.00,M,M,M,M,M,M,M,M,M,M,M,RJSI 200000Z 02003KT 330V060 9999 FEW003 11/08 Q1026
RJSM,2020-10-20 00:00,141.3684,40.7032,59.00,41.00,51.18,280.00,10.00,0.00,30.30,M,6.21,M,FEW,M,M,M,3000.00,M,M,M,M,M,M,M,M,M,M,M,RJSM 200000Z 28010KT 9999 FEW030 15/05 Q1026
RJSN,2020-10-20 00:00,139.1117,37.9558,60.80,53.60,77.14,180.00,7.00,0.00,30.30,M,6.21,M,FEW,M,M,M,3000.00,M,M,M,M,M,M,M,M,M,M,M,RJSN 200000Z 18007KT 9999 FEW030 16/12 Q1026
RJSS,2020-10-20 00:00,140.9169,38.1397,57.20,50.00,76.82,360.00,4.00,0.00,30.30,M,6.21,M,FEW,SCT,M,M,3000.00,M,M,M,M,M,M,M,M,M,M,M,RJSS 200000Z 36004KT 320V030 9999 FEW030 SCT/// 14/10 Q1026
RJTF,2020-10-20 00:00,139.5281,35.6717,59.00,51.80,76.98,360.00,4.00,0.00,30.27,M,6.21,M,FEW,BKN,M,M,4000.00,M,M,M,M,M,M,M,M,M,M,M,RJTF 200000Z 36004KT 320V030 9999 FEW040 BKN/// 15/11 Q1025
RJTO,2020-10-20 00:00,139.3603,34.7819,64.40,51.80,63.60,30.00,18.00,0.00,30.24,M,6.21,M,FEW,SCT,BKN,M,2500.00,18000.00,M,M,M,M,M,M,M,M,M,M,RJTO 200000Z 03018KT 9999 FEW025 SCT180 BKN/// 18/11 Q1024
RJTT,2020-10-20 00:00,139.7811,35.5533,62.60,50.00,63.38,340.00,10.00,0.00,30.27,M,6.21,M,M,M,M,M,M,M,M,M,M,M,M,M,M,M,M,M,RJTT 200000Z 34010KT CAVOK 17/10 Q1025 NOSIG
RORS,2020-10-20 00:00,125.1447,24.8267,82.40,75.20,78.90,50.00,17.00,0.00,29.97,M,6.21,M,FEW,BKN,M,M,1700.00,M,M,M,M,M,M,M,M,M,M,89.48,RORS 200000Z 05017KT 9999 FEW017 BKN/// 28/24 Q1015
RJNS,2020-10-20 00:00,138.1894,34.7961,62.60,51.80,67.75,310.00,3.00,0.00,30.24,M,6.21,M,FEW,SCT,BKN,M,500.00,18000.00,M,M,M,M,M,M,M,M,M,M,RJNS 200000Z 31003KT 270V340 9999 FEW005 SCT180 BKN/// 17/11 Q1024
RJBD,2020-10-20 00:00,135.3644,33.6622,60.80,51.80,72.20,M,2.00,0.00,30.24,M,6.21,M,FEW,SCT,BKN,M,3000.00,17000.00,M,M,M,M,M,M,M,M,M,M,RJBD 200000Z VRB02KT 9999 FEW030 SCT170 BKN/// 16/11 Q1024
RJFG,2020-10-20 00:00,130.9917,30.6050,68.00,59.00,72.92,60.00,8.00,0.00,30.18,M,6.21,18.00,FEW,SCT,BKN,M,2000.00,3000.00,9000.00,M,M,M,M,M,M,M,M,M,RJFG 200000Z 06008G18KT 350V110 9999 FEW020 SCT030 BKN090 20/15 Q1022
RJTI,2020-10-20 00:00,139.8500,35.6300,62.60,48.20,59.26,350.00,3.00,0.00,30.27,M,6.21,M,FEW,BKN,M,M,2500.00,M,M,M,M,M,M,M,M,M,M,M,RJTI 200000Z 35003KT 320V020 9999 FEW025 BKN/// 17/09 Q1025
RJOS,2020-10-20 00:00,134.6092,34.1322,62.60,53.60,72.38,290.00,6.00,0.00,30.30,M,6.21,M,FEW,SCT,M,M,2500.00,25000.00,M,M,M,M,M,M,M,M,M,M,RJOS 200000Z 29006KT 240V330 9999 FEW025 SCT250 17/12 Q1026
RJSY,2020-10-20 00:00,139.7872,38.8122,60.80,55.40,82.37,70.00,3.00,0.00,30.30,M,6.21,M,FEW,M,M,M,500.00,M,M,M,M,M,M,M,M,M,M,M,RJSY 200000Z 07003KT 030V130 9999 FEW005 16/13 Q1026
RORK,2020-10-20 00:00,131.3333,25.9167,82.40,73.40,74.28,60.00,19.00,0.00,30.00,M,6.21,M,BKN,BKN,M,M,2000.00,2800.00,M,M,M,M,M,M,M,M,M,88.26,RORK 200000Z AUTO 06019KT 9999 BKN020 BKN028 28/23 Q1016
ROYN,2020-10-20 00:00,122.9780,24.4670,80.60,75.20,83.66,30.00,24.00,0.00,30.00,M,6.21,M,BKN,OVC,M,M,1800.00,2800.00,M,M,M,M,M,M,M,M,M,86.17,ROYN 200000Z AUTO 03024KT 9999 BKN018 OVC028 27/24 Q1016
ROAH,2020-10-20 00:00,127.6458,26.1958,82.40,73.40,74.28,60.00,15.00,0.00,30.00,M,6.21,M,SCT,M,M,M,2000.00,M,M,M,M,M,M,M,M,M,M,88.26,ROAH 200000Z 06015KT 9999 SCT020 28/23 Q1016
RJBT,2020-10-20 00:09,134.7869,35.5128,53.60,53.60,100.00,M,1.00,0.00,30.30,M,1.55,M,FEW,M,M,M,0.00,M,M,M,BCFG,M,M,M,M,M,M,M,RJBT 200009Z VRB01KT 2500 BCFG FEW000 12/12 Q1026 RMK 1ST000 A3031 1000N FG BANK AROUND
RJAF,2020-10-20 00:11,137.9228,36.1667,44.60,42.80,93.35,M,2.00,0.00,30.36,M,5.59,M,FEW,SCT,BKN,M,200.00,700.00,1100.00,M,M,M,M,M,M,M,M,M,RJAF 200011Z VRB02KT 9000 FEW002 SCT007 BKN011 07/06 Q1028 RMK 1ST002 4ST007 6ST011 A3037
RJNY,2020-10-20 00:15,138.2981,34.8128,64.40,50.00,59.50,M,2.00,0.00,30.24,M,6.21,M,FEW,BKN,BKN,M,2000.00,18000.00,25000.00,M,M,M,M,M,M,M,M,M,RJNY 200015Z VRB02KT 9999 FEW020 BKN180 BKN250 18/10 Q1024 RMK 1CU020 5AC180 A3026
RJSK,2020-10-20 00:16,140.2167,39.6167,50.00,50.00,100.00,140.00,3.00,0.00,30.33,M,0.12,M,SCT,BKN,BKN,M,0.00,100.00,200.00,M,FG,M,M,M,M,M,M,M,RJSK 200016Z 14003KT 100V210 0200 R28/0275VP2000D FG SCT000 BKN001 BKN002 10/10 Q1027 RMK 3ST000 5ST001 7ST002 A3033
RJAW,2020-10-20 00:18,141.3227,24.7840,82.40,78.80,88.90,160.00,12.00,0.00,29.91,M,6.21,M,BKN,SCT,BKN,M,1500.00,15000.00,23000.00,M,VCSH,M,M,M,M,M,M,92.76,RJAW 200018Z 16012KT 9999 VCSH BKN015 SCT150 BKN230 28/26 Q1013 RMK 5CU015 4AC150 A2993
ROAH,2020-10-20 00:24,127.6458,26.1958,84.20,71.60,65.95,60.00,16.00,0.00,30.00,M,6.21,26.00,SCT,M,M,M,2300.00,M,M,M,M,M,M,M,M,M,M,89.60,ROAH 200024Z 06016G26KT 9999 SCT023 29/22 Q1016 RMK 4CU023 A3001
RJSK,2020-10-20 00:26,140.2167,39.6167,50.00,50.00,100.00,130.00,4.00,0.00,30.33,M,0.12,M,SCT,BKN,BKN,M,0.00,100.00,200.00,M,FG,M,M,M,M,M,M,M,RJSK 200026Z 13004KT 090V170 0200 R28/0275V1000U FG SCT000 BKN001 BKN002 10/10 Q1027 RMK 3ST000 5ST001 7ST002 A3033
RJAW,2020-10-20 00:28,141.3227,24.7840,82.40,77.00,83.77,170.00,13.00,0.00,29.91,M,4.97,M,FEW,BKN,BKN,M,1000.00,1500.00,23000.00,M,SHRA,M,M,M,M,M,M,90.85,RJAW 200028Z 17013KT 8000 SHRA FEW010 BKN015 BKN230 28/25 Q1013 RMK 1CU010 5CU015 A2992
RJAA,2020-10-20 00:30,140.3856,35.7653,59.00,55.40,87.83,330.00,9.00,0.00,30.27,M,6.21,M,FEW,BKN,M,M,2000.00,M,M,M,M,M,M,M,M,M,M,M,RJAA 200030Z 33009KT 9999 FEW020 BKN/// 15/13 Q1025 NOSIG RMK 1CU020 A3028
RJCC,2020-10-20 00:30,141.6926,42.7742,57.20,41.00,54.60,160.00,5.00,0.00,30.24,M,6.21,M,FEW,SCT,M,M,3000.00,7000.00,M,M,M,M,M,M,M,M,M,M,RJCC 200030Z 16005KT 9999 FEW030 SCT070 14/05 Q1024 RMK 1CU030 3AC070 A3025
RJFF,2020-10-20 00:30,130.4517,33.5844,68.00,55.40,64.04,80.00,8.00,0.00,30.27,M,6.21,M,FEW,M,M,M,2500.00,M,M,M,M,M,M,M,M,M,M,M,RJFF 200030Z 08008KT 010V130 9999 FEW025 20/13 Q1025 NOSIG RMK 1CU025 A3028
RJBB,2020-10-20 00:30,135.2328,34.4342,62.60,57.20,82.50,70.00,6.00,0.00,30.30,M,6.21,M,FEW,M,M,M,1500.00,M,M,M,M,M,M,M,M,M,M,M,RJBB 200030Z 07006KT 9999 FEW015 17/14 Q1026 NOSIG
RJGG,2020-10-20 00:30,136.8054,34.8584,60.80,51.80,72.20,340.00,10.00,0.00,30.27,M,6.21,M,FEW,BKN,M,M,3000.00,M,M,M,M,M,M,M,M,M,M,M,RJGG 200030Z 34010KT 9999 FEW030 BKN/// 16/11 Q1025 NOSIG
RJTT,2020-10-20 00:30,139.7811,35.5533,62.60,50.00,63.38,360.00,11.00,0.00,30.27,M,6.21,M,M,M,M,M,M,M,M,M,M,M,M,M,M,M,M,M,RJTT 200030Z 36011KT CAVOK 17/10 Q1025 NOSIG RMK A3028
ROAH,2020-10-20 00:30,127.6458,26.1958,84.20,71.60,65.95,60.00,17.00,0.00,30.00,M,6.21,M,SCT,M,M,M,2300.00,M,M,M,M,M,M,M,M,M,M,89.60,ROAH 200030Z 06017KT 9999 SCT023 29/22 Q1016 RMK 4CU023 A3002
RJBT,2020-10-20 00:30,134.7869,35.5128,55.40,55.40,100.00,M,1.00,0.00,30.30,M,6.21,M,FEW,M,M,M,0.00,M,M,M,PRFG,M,M,M,M,M,M,M,RJBT 200030Z VRB01KT 9999 PRFG FEW000 13/13 Q1026 RMK 1ST000 A3031 2000N FG BANK N-SE
RJSK,2020-10-20 00:31,140.2167,39.6167,50.00,50.00,100.00,130.00,5.00,0.00,30.33,M,0.19,M,FEW,BKN,BKN,M,0.00,100.00,200.00,M,FG,M,M,M,M,M,M,M,RJSK 200031Z 13005KT 090V170 0300 R28/0300VP2000U FG FEW000 BKN001 BKN002 10/10 Q1027 RMK 2ST000 5ST001 7ST002 A3033
RJSK,2020-10-20 00:33,140.2167,39.6167,50.00,50.00,100.00,120.00,5.00,0.00,30.33,M,0.25,M,FEW,BKN,BKN,M,0.00,100.00,200.00,M,FG,M,M,M,M,M,M,M,RJSK 200033Z 12005KT 090V160 0400 R28/0450VP2000U FG FEW000 BKN001 BKN002 10/10 Q1027 RMK 2ST000 5ST001 7ST002 A3033
RJSK,2020-10-20 00:37,140.2167,39.6167,50.00,50.00,100.00,130.00,5.00,0.00,30.30,M,0.31,M,FEW,BKN,BKN,M,0.00,100.00,200.00,M,FG,M,M,M,M,M,M,M,RJSK 200037Z 13005KT 0500 R28/0450VP2000U FG FEW000 BKN001 BKN002 10/10 Q1026 RMK 2ST000 5ST001 7ST002 A3032
RJAW,2020-10-20 00:38,141.3227,24.7840,78.80,75.20,88.75,170.00,14.00,0.00,29.91,M,6.21,M,FEW,BKN,BKN,M,1000.00,1500.00,23000.00,M,-SHRA,M,M,M,M,M,M,M,RJAW 200038Z 17014KT 9999 -SHRA FEW010 BKN015 BKN230 26/24 Q1013 RMK 1CU010 5CU015 A2992
RJSR,2020-10-20 00:40,140.3714,40.1919,44.60,44.60,100.00,M,1.00,0.00,30.33,M,0.43,M,SCT,BKN,M,M,100.00,200.00,M,M,FG,M,M,M,M,M,M,M,RJSR 200040Z VRB01KT 0700 R11/0325V2000D FG SCT001 BKN002 07/07 Q1027 RMK 4ST001 7ST002 A3033
RJSK,2020-10-20 00:42,140.2167,39.6167,50.00,50.00,100.00,130.00,4.00,0.00,30.30,M,0.43,M,FEW,BKN,BKN,M,0.00,100.00,200.00,M,FG,M,M,M,M,M,M,M,RJSK 200042Z 13004KT 100V170 0700 R28/0750VP2000D FG FEW000 BKN001 BKN002 10/10 Q1026 RMK 1ST000 5ST001 7ST002 A3032
RJOI,2020-10-20 00:55,132.2357,34.1439,68.00,48.00,48.73,30.00,14.00,0.00,30.30,1026.00,6.21,M,FEW,M,M,M,2500.00,M,M,M,M,M,M,M,M,M,M,M,RJOI 200055Z 03014KT 9999 FEW025 20/09 A3030 RMK SLP260 T02000089
RJTY,2020-10-20 00:56,139.3485,35.7485,64.00,50.70,61.92,60.00,6.00,0.00,30.33,1027.40,10.00,M,CLR,M,M,M,M,M,M,M,M,M,M,M,M,M,M,M,RJTY 200056Z AUTO 06006KT 10SM CLR 18/10 A3033 RMK AO2 SLP274 T01780104 FZRANO $
ROTM,2020-10-20 00:56,127.7565,26.2743,82.00,72.00,71.78,60.00,14.00,0.00,30.05,1016.00,6.21,23.00,FEW,SCT,BKN,M,2000.00,2700.00,4000.00,M,M,M,M,M,M,M,M,86.83,ROTM 200056Z 06014G23KT 9999 FEW020 SCT027 BKN040 27/22 A3005 RMK SLP160 T02780222
RODN,2020-10-20 00:56,127.7676,26.3556,84.60,72.70,67.57,50.00,16.00,0.00,30.03,M,10.00,24.00,SCT,M,M,M,2200.00,M,M,M,M,M,M,M,M,M,M,90.95,RODN 200056Z AUTO 05016G24KT 10SM SCT022 29/23 A3003 RMK AO2 SLPNO T02920226 $
RJFR,2020-10-20 01:00,131.0350,33.8456,68.00,44.60,42.85,70.00,13.00,0.00,30.27,M,6.21,M,FEW,M,M,M,3000.00,M,M,M,M,M,M,M,M,M,M,M,RJFR 200100Z 07013KT 9999 FEW030 20/07 Q1025
RJSR,2020-10-20 01:00,140.3714,40.1919,46.40,46.40,100.00,M,2.00,0.00,30.33,M,0.75,M,SCT,BKN,M,M,100.00,200.00,M,M,BCFG BR,M,M,M,M,M,M,M,RJSR 200100Z VRB02KT 1200 R11/1000VP2000N BCFG BR SCT001 BKN002 08/08 Q1027
RJAA,2020-10-20 01:00,140.3856,35.7653,60.80,55.40,82.37,340.00,9.00,0.00,30.27,M,6.21,M,FEW,BKN,M,M,2000.00,M,M,M,M,M,M,M,M,M,M,M,RJAA 200100Z 34009KT 9999 FEW020 BKN/// 16/13 Q1025 NOSIG
RJAF,2020-10-20 01:00,137.9228,36.1667,46.40,44.60,93.40,320.00,3.00,0.00,30.36,M,6.21,M,FEW,SCT,BKN,M,600.00,1200.00,3500.00,M,M,M,M,M,M,M,M,45.15,RJAF 200100Z 32003KT 270V050 9999 FEW006 SCT012 BKN035 08/07 Q1028
RJAH,2020-10-20 01:00,140.4147,36.1817,64.40,51.80,63.60,360.00,7.00,0.00,30.27,M,6.21,M,FEW,BKN,M,M,3000.00,25000.00,M,M,M,M,M,M,M,M,M,M,RJAH 200100Z 36007KT 9999 FEW030 BKN250 18/11 Q1025
RJBT,2020-10-20 01:00,134.7869,35.5128,60.80,57.20,87.92,M,2.00,0.00,30.30,M,6.21,M,FEW,M,M,M,3000.00,M,M,M,M,M,M,M,M,M,M,M,RJBT 200100Z VRB02KT 9999 FEW030 16/14 Q1026
RJCB,2020-10-20 01:00,143.2172,42.7333,57.20,37.40,47.44,340.00,10.00,0.00,30.21,M,6.21,M,FEW,M,M,M,5000.00,M,M,M,M,M,M,M,M,M,M,M,RJCB 200100Z 34010KT 9999 FEW050 14/03 Q1023
RJCC,2020-10-20 01:00,141.6926,42.7742,55.40,42.80,62.46,170.00,5.00,0.00,30.24,M,6.21,M,FEW,BKN,M,M,3000.00,7000.00,M,M,M,M,M,M,M,M,M,M,RJCC 200100Z 17005KT 9999 FEW030 BKN070 13/06 Q1024
RJCH,2020-10-20 01:00,140.8219,41.7700,59.00,44.60,58.77,260.00,7.00,0.00,30.27,M,6.21,M,FEW,M,M,M,3000.00,M,M,M,M,M,M,M,M,M,M,M,RJCH 200100Z 26007KT 200V310 9999 FEW030 15/07 Q1025
RJCK,2020-10-20 01:00,144.1931,43.0408,57.20,37.40,47.44,M,2.00,0.00,30.18,M,6.21,M,FEW,M,M,M,5000.00,M,M,M,M,M,M,M,M,M,M,M,RJCK 200100Z VRB02KT 9999 FEW050 14/03 Q1022
RJCM,2020-10-20 01:00,144.1642,43.8806,53.60,37.40,54.07,280.00,5.00,0.00,30.18,M,6.21,M,FEW,SCT,BKN,M,3000.00,7000.00,9000.00,M,M,M,M,M,M,M,M,M,RJCM 200100Z 28005KT 210V350 9999 FEW030 SCT070 BKN090 12/03 Q1022
RJCN,2020-10-20 01:00,144.9600,43.5775,59.00,37.40,44.47,290.00,10.00,0.00,30.18,M,6.21,M,FEW,SCT,M,M,3000.00,6000.00,M,M,M,M,M,M,M,M,M,M,RJCN 200100Z 29010KT 240V340 9999 FEW030 SCT060 15/03 Q1022
RJCO,2020-10-20 01:00,141.3814,43.1175,57.20,46.40,67.12,80.00,2.00,0.00,30.24,M,6.21,M,FEW,BKN,M,M,2000.00,6000.00,M,M,M,M,M,M,M,M,M,M,RJCO 200100Z 08002KT 9999 FEW020 BKN060 14/08 Q1024
RJCW,2020-10-20 01:00,141.8022,45.4044,51.80,37.40,57.77,30.00,9.00,0.00,30.24,M,6.21,M,FEW,M,M,M,3500.00,M,M,M,M,M,M,M,M,M,M,M,RJCW 200100Z 03009KT 9999 FEW035 11/03 Q1024
RJDT,2020-10-20 01:00,129.3306,34.2850,68.00,51.80,56.13,50.00,9.00,0.00,30.27,M,6.21,M,FEW,M,M,M,3500.00,M,M,M,M,M,M,M,M,M,M,M,RJDT 200100Z 05009KT 020V080 9999 FEW035 20/11 Q1025
RJEB,2020-10-20 01:00,143.4040,44.3039,51.80,42.80,71.26,360.00,10.00,0.00,30.21,M,6.21,M,FEW,SCT,BKN,M,2000.00,3500.00,7000.00,M,-SHRA,M,M,M,M,M,M,M,RJEB 200100Z 36010KT 320V030 9999 -SHRA FEW020 SCT035 BKN070 11/06 Q1023
RJEC,2020-10-20 01:00,142.4475,43.6708,50.00,35.60,57.52,220.00,3.00,0.00,30.21,M,6.21,M,FEW,BKN,M,M,500.00,7000.00,M,M,M,M,M,M,M,M,M,M,RJEC 200100Z 22003KT 140V300 9999 FEW005 BKN070 10/02 Q1023
RJFE,2020-10-20 01:00,128.8328,32.6664,69.80,53.60,56.38,50.00,11.00,0.00,30.24,M,6.21,M,FEW,M,M,M,2500.00,M,M,M,M,M,M,M,M,M,M,M,RJFE 200100Z 05011KT 020V090 9999 FEW025 21/12 Q1024
RJFF,2020-10-20 01:00,130.4517,33.5844,68.00,53.60,59.97,80.00,10.00,0.00,30.27,M,6.21,M,FEW,M,M,M,2500.00,M,M,M,M,M,M,M,M,M,M,M,RJFF 200100Z 08010KT 020V110 9999 FEW025 20/12 Q1025 NOSIG
RJFK,2020-10-20 01:00,130.7194,31.8033,68.00,53.60,59.97,100.00,10.00,0.00,30.21,M,6.21,M,FEW,SCT,M,M,2000.00,13000.00,M,M,M,M,M,M,M,M,M,M,RJFK 200100Z 10010KT 050V140 9999 FEW020 SCT130 20/12 Q1023
RJFM,2020-10-20 01:00,131.4486,31.8772,69.80,55.40,60.21,30.00,18.00,0.00,30.24,M,6.21,M,FEW,M,M,M,3500.00,M,M,M,M,M,M,M,M,M,M,M,RJFM 200100Z 03018KT 9999 FEW035 21/13 Q1024
RJFO,2020-10-20 01:00,131.7372,33.4794,68.00,51.80,56.13,30.00,8.00,0.00,30.27,M,6.21,M,FEW,M,M,M,3000.00,M,M,M,M,M,M,M,M,M,M,M,RJFO 200100Z 03008KT 9999 FEW030 20/11 Q1025
RJAW,2020-10-20 01:00,141.3227,24.7840,80.60,75.20,83.66,160.00,9.00,0.00,29.91,M,6.21,M,FEW,BKN,BKN,M,1000.00,1500.00,23000.00,M,M,M,M,M,M,M,M,86.17,RJAW 200100Z 16009KT 9999 FEW010 BKN015 BKN230 27/24 Q1013 RMK 1CU010 5CU015 A2992
RJBB,2020-10-20 01:00,135.2328,34.4342,64.40,53.60,67.95,50.00,5.00,0.00,30.27,M,6.21,M,FEW,M,M,M,2000.00,M,M,M,M,M,M,M,M,M,M,M,RJBB 200100Z 05005KT 020V080 9999 FEW020 18/12 Q1025 NOSIG
RJBE,2020-10-20 01:00,135.2239,34.6328,62.60,55.40,77.29,110.00,5.00,0.00,30.27,M,6.21,M,FEW,M,M,M,3000.00,M,M,M,M,M,M,M,M,M,M,M,RJBE 200100Z 11005KT 080V150 9999 FEW030 17/13 Q1025
RJNK,2020-10-20 01:00,136.4075,36.3939,68.00,50.00,52.51,40.00,12.00,0.00,30.27,M,6.21,M,FEW,M,M,M,3000.00,M,M,M,M,M,M,M,M,M,M,M,RJNK 200100Z 04012KT 020V080 9999 FEW030 20/10 Q1025
RJNT,2020-10-20 01:00,137.1875,36.6483,66.20,50.00,55.88,M,1.00,0.00,30.30,M,6.21,M,FEW,M,M,M,3000.00,M,M,M,M,M,M,M,M,M,M,M,RJNT 200100Z VRB01KT 9999 FEW030 19/10 Q1026
RJNW,2020-10-20 01:00,136.9618,37.2931,66.20,50.00,55.88,70.00,9.00,0.00,30.30,M,6.21,M,FEW,SCT,M,M,3000.00,3500.00,M,M,M,M,M,M,M,M,M,M,RJNW 200100Z 07009KT 030V110 9999 FEW030 SCT035 19/10 Q1026
RJOA,2020-10-20 01:00,132.9194,34.4361,62.60,44.60,51.72,90.00,7.00,0.00,30.30,M,6.21,M,FEW,M,M,M,3000.00,M,M,M,M,M,M,M,M,M,M,M,RJOA 200100Z 09007KT 050V120 9999 FEW030 17/07 Q1026
RJOB,2020-10-20 01:00,133.8553,34.7569,64.40,46.40,51.98,40.00,6.00,0.00,30.30,M,6.21,M,FEW,M,M,M,2500.00,M,M,M,M,M,M,M,M,M,M,M,RJOB 200100Z 04006KT 360V080 9999 FEW025 18/08 Q1026
RJOC,2020-10-20 01:00,132.8900,35.4136,64.40,51.80,63.60,140.00,4.00,0.00,30.30,M,6.21,M,FEW,M,M,M,3500.00,M,M,M,M,M,M,M,M,M,M,M,RJOC 200100Z 14004KT 9999 FEW035 18/11 Q1026
RJOH,2020-10-20 01:00,133.2392,35.4933,62.60,53.60,72.38,M,2.00,0.00,30.30,M,6.21,M,FEW,M,M,M,4000.00,M,M,M,M,M,M,M,M,M,M,M,RJOH 200100Z VRB02KT 9999 FEW040 17/12 Q1026
RJKA,2020-10-20 01:00,129.7125,28.4308,80.60,71.60,74.11,60.00,19.00,0.00,30.06,M,6.21,M,FEW,SCT,M,M,2000.00,3000.00,M,M,M,M,M,M,M,M,M,84.57,RJKA 200100Z 06019KT 9999 FEW020 SCT030 27/22 Q1018
RJOK,2020-10-20 01:00,133.6694,33.5461,69.80,48.20,46.16,20.00,9.00,0.00,30.21,M,6.21,M,FEW,SCT,M,M,3000.00,18000.00,M,M,M,M,M,M,M,M,M,M,RJOK 200100Z 02009KT 350V050 9999 FEW030 SCT180 21/09 Q1023
RJFU,2020-10-20 01:00,129.9136,32.9169,69.80,51.80,52.77,50.00,12.00,0.00,30.21,M,6.21,M,FEW,M,M,M,3000.00,M,M,M,M,M,M,M,M,M,M,M,RJFU 200100Z 05012KT 9999 FEW030 21/11 Q1023
RJGG,2020-10-20 01:00,136.8054,34.8584,62.60,51.80,67.75,340.00,10.00,0.00,30.27,M,6.21,M,M,M,M,M,M,M,M,M,M,M,M,M,M,M,M,M,RJGG 200100Z 34010KT CAVOK 17/11 Q1025 NOSIG
RJKI,2020-10-20 01:00,129.9281,28.3213,78.80,71.60,78.62,60.00,16.00,0.00,30.06,M,6.21,M,SCT,BKN,BKN,M,2100.00,2900.00,3600.00,M,M,M,M,M,M,M,M,M,RJKI 200100Z AUTO 06016KT 9999 SCT021 BKN029 BKN036 26/22 Q1018
ROIG,2020-10-20 01:00,124.1633,24.3367,84.20,77.00,79.04,40.00,20.00,0.00,29.97,M,6.21,M,FEW,BKN,M,M,2000.00,M,M,M,M,M,M,M,M,M,M,94.16,ROIG 200100Z 04020KT 9999 FEW020 BKN/// 29/25 Q1015
ROMD,2020-10-20 01:00,131.2286,25.8289,80.60,73.40,78.76,50.00,14.00,0.00,30.00,M,6.21,M,FEW,SCT,BKN,M,1700.00,2200.00,3000.00,M,M,M,M,M,M,M,M,85.32,ROMD 200100Z AUTO 05014KT 9999 FEW017 SCT022 BKN030 27/23 Q1016
ROMY,2020-10-20 01:00,125.2767,24.7933,82.40,73.40,74.28,50.00,15.00,0.00,29.97,M,6.21,M,SCT,BKN,M,M,1500.00,M,M,M,M,M,M,M,M,M,M,88.26,ROMY 200100Z 05015KT 9999 SCT015 BKN/// 28/23 Q1015
RORY,2020-10-20 01:00,128.4020,27.0440,82.40,73.40,74.28,60.00,13.00,0.00,30.03,M,6.21,M,FEW,SCT,M,M,1600.00,2000.00,M,M,M,M,M,M,M,M,M,88.26,RORY 200100Z AUTO 06013KT 9999 FEW016 SCT020 28/23 Q1017
RJDC,2020-10-20 01:00,131.2786,33.9300,68.00,44.60,42.85,70.00,9.00,0.00,30.27,M,6.21,M,FEW,M,M,M,2500.00,M,M,M,M,M,M,M,M,M,M,M,RJDC 200100Z 07009KT 9999 FEW025 20/07 Q1025
RJOM,2020-10-20 01:00,132.6997,33.8272,68.00,51.80,56.13,360.00,4.00,0.00,30.24,M,6.21,M,FEW,M,M,M,2500.00,M,M,M,M,M,M,M,M,M,M,M,RJOM 200100Z 36004KT 320V040 9999 FEW025 20/11 Q1024
RJFS,2020-10-20 01:00,130.3000,33.1500,69.80,55.40,60.21,40.00,13.00,0.00,30.24,M,6.21,M,FEW,M,M,M,3000.00,M,M,M,M,M,M,M,M,M,M,M,RJFS 200100Z 04013KT 9999 FEW030 21/13 Q1024
RJFT,2020-10-20 01:00,130.8553,32.8372,69.80,48.20,46.16,50.00,10.00,0.00,30.24,M,6.21,M,FEW,M,M,M,3500.00,M,M,M,M,M,M,M,M,M,M,M,RJFT 200100Z 05010KT 020V080 9999 FEW035 21/09 Q1024
RJOT,2020-10-20 01:00,134.0167,34.2167,64.40,55.40,72.56,70.00,4.00,0.00,30.30,M,6.21,M,FEW,M,M,M,2500.00,M,M,M,M,M,M,M,M,M,M,M,RJOT 200100Z 07004KT 020V120 9999 FEW025 18/13 Q1026
RJSK,2020-10-20 01:00,140.2167,39.6167,50.00,50.00,100.00,130.00,4.00,0.00,30.30,M,0.62,M,FEW,BKN,BKN,M,0.00,100.00,200.00,M,BCFG BR,M,M,M,M,M,M,M,RJSK 200100Z 13004KT 100V190 1000 R28/0450VP2000N BCFG BR FEW000 BKN001 BKN002 10/10 Q1026
RJOO,2020-10-20 01:00,135.4392,34.7844,62.60,55.40,77.29,100.00,4.00,0.00,30.27,M,6.21,M,FEW,SCT,M,M,2000.00,M,M,M,M,M,M,M,M,M,M,M,RJOO 200100Z 10004KT 060V140 9999 FEW020 SCT/// 17/13 Q1025
RJOR,2020-10-20 01:00,134.1650,35.5300,66.20,53.60,63.82,320.00,4.00,0.00,30.30,M,6.21,M,FEW,M,M,M,3500.00,M,M,M,M,M,M,M,M,M,M,M,RJOR 200100Z 32004KT 270V350 9999 FEW035 19/12 Q1026
RJOW,2020-10-20 01:00,131.7903,34.6764,68.00,53.60,59.97,120.00,3.00,0.00,30.30,M,6.21,M,M,M,M,M,M,M,M,M,M,M,M,M,M,M,M,M,RJOW 200100Z 12003KT 050V190 CAVOK 20/12 Q1026
RJOY,2020-10-20 01:00,135.6006,34.5967,64.40,57.20,77.45,180.00,3.00,0.00,30.27,M,6.21,M,FEW,SCT,M,M,1500.00,M,M,M,M,M,M,M,M,M,M,M,RJOY 200100Z 18003KT 090V230 9999 FEW015 SCT/// 18/14 Q1025
RJSA,2020-10-20 01:00,140.6886,40.7333,57.20,41.00,54.60,230.00,5.00,0.00,30.30,M,6.21,M,FEW,M,M,M,3000.00,M,M,M,M,M,M,M,M,M,M,M,RJSA 200100Z 23005KT 190V260 9999 FEW030 14/05 Q1026
RJSC,2020-10-20 01:00,140.3711,38.4119,55.40,53.60,93.65,M,1.00,0.00,30.33,M,6.21,M,FEW,SCT,BKN,M,200.00,600.00,1000.00,M,M,M,M,M,M,M,M,M,RJSC 200100Z VRB01KT 9999 FEW002 SCT006 BKN010 13/12 Q1027
RJSF,2020-10-20 01:00,140.4281,37.2275,59.00,51.80,76.98,10.00,5.00,0.00,30.30,M,6.21,M,FEW,BKN,M,M,2000.00,M,M,M,M,M,M,M,M,M,M,M,RJSF 200100Z 01005KT 340V040 9999 FEW020 BKN/// 15/11 Q1026
RJSI,2020-10-20 01:00,141.1353,39.4286,55.40,48.20,76.66,M,2.00,0.00,30.30,M,6.21,M,FEW,M,M,M,3000.00,M,M,M,M,M,M,M,M,M,M,M,RJSI 200100Z VRB02KT 9999 FEW030 13/09 Q1026
RJSM,2020-10-20 01:00,141.3684,40.7032,60.80,39.20,44.76,320.00,11.00,0.00,30.30,M,6.21,M,FEW,M,M,M,3000.00,M,M,M,M,M,M,M,M,M,M,M,RJSM 200100Z 32011KT 9999 FEW030 16/04 Q1026
RJSN,2020-10-20 01:00,139.1117,37.9558,64.40,53.60,67.95,M,2.00,0.00,30.30,M,6.21,M,FEW,M,M,M,3000.00,M,M,M,M,M,M,M,M,M,M,M,RJSN 200100Z VRB02KT 9999 FEW030 18/12 Q1026
RJSS,2020-10-20 01:00,140.9169,38.1397,64.40,48.20,55.63,M,2.00,0.00,30.27,M,6.21,M,FEW,SCT,M,M,3000.00,M,M,M,M,M,M,M,M,M,M,M,RJSS 200100Z VRB02KT 9999 FEW030 SCT/// 18/09 Q1025
RJTF,2020-10-20 01:00,139.5281,35.6717,62.60,50.00,63.38,360.00,6.00,0.00,30.27,M,6.21,M,FEW,BKN,M,M,4000.00,M,M,M,M,M,M,M,M,M,M,M,RJTF 200100Z 36006KT 9999 FEW040 BKN/// 17/10 Q1025
RJTO,2020-10-20 01:00,139.3603,34.7819,66.20,51.80,59.74,30.00,18.00,0.00,30.24,M,6.21,M,FEW,BKN,BKN,M,2500.00,18000.00,M,M,M,M,M,M,M,M,M,M,RJTO 200100Z 03018KT 9999 FEW025 BKN180 BKN/// 19/11 Q1024
RJTT,2020-10-20 01:00,139.7811,35.5533,64.40,50.00,59.50,360.00,10.00,0.00,30.27,M,6.21,M,M,M,M,M,M,M,M,M,M,M,M,M,M,M,M,M,RJTT 200100Z 36010KT CAVOK 18/10 Q1025 NOSIG
RORS,2020-10-20 01:00,125.1447,24.8267,82.40,75.20,78.90,50.00,16.00,0.00,29.97,M,6.21,M,SCT,BKN,M,M,1700.00,M,M,M,M,M,M,M,M,M,M,89.48,RORS 200100Z 05016KT 9999 SCT017 BKN/// 28/24 Q1015
RJNS,2020-10-20 01:00,138.1894,34.7961,62.60,50.00,63.38,60.00,3.00,0.00,30.24,M,6.21,M,FEW,BKN,M,M,500.00,M,M,M,M,M,M,M,M,M,M,M,RJNS 200100Z 06003KT 010V100 9999 FEW005 BKN/// 17/10 Q1024
RJBD,2020-10-20 01:00,135.3644,33.6622,66.20,50.00,55.88,350.00,4.00,0.00,30.21,M,6.21,M,FEW,SCT,M,M,3000.00,17000.00,M,M,M,M,M,M,M,M,M,M,RJBD 200100Z 35004KT 300V050 9999 FEW030 SCT170 19/10 Q1023
RJFG,2020-10-20 01:00,130.9917,30.6050,69.80,59.00,68.55,70.00,9.00,0.00,30.18,M,6.21,19.00,FEW,SCT,BKN,M,2500.00,3000.00,13000.00,M,M,M,M,M,M,M,M,M,RJFG 200100Z 07009G19KT 020V130 9999 FEW025 SCT030 BKN130 21/15 Q1022
RJTI,2020-10-20 01:00,139.8500,35.6300,66.20,50.00,55.88,360.00,7.00,0.00,30.27,M,6.21,M,FEW,BKN,M,M,3000.00,M,M,M,M,M,M,M,M,M,M,M,RJTI 200100Z 36007KT 300V050 9999 FEW030 BKN/// 19/10 Q1025
RJOS,2020-10-20 01:00,134.6092,34.1322,66.20,55.40,68.15,30.00,5.00,0.00,30.27,M,6.21,M,SCT,SCT,M,M,2500.00,25000.00,M,M,M,M,M,M,M,M,M,M,RJOS 200100Z 03005KT 320V100 9999 SCT025 SCT250 19/13 Q1025
RJSY,2020-10-20 01:00,139.7872,38.8122,62.60,53.60,72.38,M,2.00,0.00,30.30,M,6.21,M,FEW,M,M,M,1500.00,M,M,M,M,M,M,M,M,M,M,M,RJSY 200100Z VRB02KT 9999 FEW015 17/12 Q1026
RORK,2020-10-20 01:00,131.3333,25.9167,82.40,73.40,74.28,60.00,18.00,0.00,30.00,M,6.21,M,FEW,SCT,M,M,1800.00,4100.00,M,M,M,M,M,M,M,M,M,88.26,RORK 200100Z AUTO 06018KT 9999 FEW018 SCT041 28/23 Q1016
ROYN,2020-10-20 01:00,122.9780,24.4670,80.60,75.20,83.66,30.00,24.00,0.00,30.00,M,6.21,M,SCT,SCT,BKN,M,1900.00,2100.00,2600.00,M,M,M,M,M,M,M,M,86.17,ROYN 200100Z AUTO 03024KT 9999 SCT019 SCT021 BKN026 27/24 Q1016
ROAH,2020-10-20 01:00,127.6458,26.1958,84.20,73.40,70.08,70.00,18.00,0.00,30.00,M,6.21,M,SCT,M,M,M,2500.00,M,M,M,-SHRA,M,M,M,M,M,M,90.94,ROAH 200100Z 07018KT 9999 -SHRA SCT025 29/23 Q1016
RJSK,2020-10-20 01:04,140.2167,39.6167,51.80,51.80,100.00,140.00,4.00,0.00,30.30,M,0.62,M,FEW,BKN,BKN,M,0.00,100.00,200.00,M,BCFG BR,M,M,M,M,M,M,M,RJSK 200104Z 14004KT 100V200 1000 R28/0450VP2000U BCFG BR FEW000 BKN001 BKN002 11/11 Q1026 RMK 1ST000 5ST001 6ST002 A3032 8000W-NW
RJAW,2020-10-20 01:07,141.3227,24.7840,80.60,75.20,83.66,170.00,10.00,0.00,29.91,M,6.21,M,FEW,SCT,BKN,M,1000.00,1500.00,23000.00,M,M,M,M,M,M,M,M,86.17,RJAW 200107Z 17010KT 9999 FEW010 SCT015 BKN230 27/24 Q1013 RMK 1CU010 4CU015 A2992
RJSK,2020-10-20 01:09,140.2167,39.6167,51.80,51.80,100.00,160.00,3.00,0.00,30.30,M,3.11,M,FEW,SCT,BKN,M,0.00,100.00,200.00,M,PRFG BR,M,M,M,M,M,M,M,RJSK 200109Z 16003KT 110V230 5000 R28/0750VP2000N PRFG BR FEW000 SCT001 BKN002 11/11 Q1026 RMK 1ST000 3ST001 5ST002 A3032 2000NE-SE
ROAH,2020-10-20 01:11,127.6458,26.1958,86.00,69.80,58.55,70.00,18.00,0.00,30.00,M,6.21,28.00,SCT,M,M,M,2500.00,M,M,M,M,M,M,M,M,M,M,90.58,ROAH 200111Z 07018G28KT 9999 SCT025 30/21 Q1016 RMK 3CU025 A3002
RJSR,2020-10-20 01:12,140.3714,40.1919,46.40,46.40,100.00,M,2.00,0.00,30.33,M,0.99,M,FEW,SCT,BKN,M,100.00,200.00,300.00,M,BCFG BR,M,M,M,M,M,M,M,RJSR 200112Z VRB02KT 1600 R11/1100VP2000U BCFG BR FEW001 SCT002 BKN003 08/08 Q1027 RMK 2ST001 4ST002 7ST003 A3033
RJSK,2020-10-20 01:15,140.2167,39.6167,51.80,51.80,100.00,160.00,3.00,0.00,30.30,M,6.21,M,FEW,SCT,M,M,100.00,300.00,M,M,M,M,M,M,M,M,M,M,RJSK 200115Z 16003KT 120V220 9999 R28/2000N FEW001 SCT003 11/11 Q1026 RMK 1ST001 3ST003 A3032
RJSR,2020-10-20 01:19,140.3714,40.1919,46.40,46.40,100.00,M,2.00,0.00,30.30,M,1.86,M,FEW,BKN,M,M,100.00,300.00,M,M,BCFG BR,M,M,M,M,M,M,M,RJSR 200119Z VRB02KT 3000 BCFG BR FEW001 BKN003 08/08 Q1026 RMK 1ST001 5ST003 A3032
RJSR,2020-10-20 01:26,140.3714,40.1919,48.20,48.20,100.00,M,1.00,0.00,30.30,M,4.97,M,FEW,SCT,M,M,200.00,300.00,M,M,PRFG,M,M,M,M,M,M,M,RJSR 200126Z VRB01KT 8000 PRFG FEW002 SCT003 09/09 Q1026 RMK 1ST002 4ST003 A3032 3000W-NW
RJAA,2020-10-20 01:30,140.3856,35.7653,64.40,53.60,67.95,360.00,8.00,0.00,30.27,M,6.21,M,FEW,BKN,M,M,2000.00,M,M,M,M,M,M,M,M,M,M,M,RJAA 200130Z 36008KT 9999 FEW020 BKN/// 18/12 Q1025 NOSIG RMK 1CU020 A3027
RJCC,2020-10-20 01:30,141.6926,42.7742,57.20,42.80,58.52,180.00,5.00,0.00,30.24,M,6.21,M,FEW,SCT,M,M,3000.00,6000.00,M,M,M,M,M,M,M,M,M,M,RJCC 200130Z 18005KT 9999 FEW030 SCT060 14/06 Q1024 RMK 1CU030 4CU060 A3025
RJFF,2020-10-20 01:30,130.4517,33.5844,68.00,50.00,52.51,80.00,10.00,0.00,30.27,M,6.21,M,FEW,M,M,M,2500.00,M,M,M,M,M,M,M,M,M,M,M,RJFF 200130Z 08010KT 050V120 9999 FEW025 20/10 Q1025 NOSIG RMK 1CU025 A3027
RJBB,2020-10-20 01:30,135.2328,34.4342,66.20,55.40,68.15,40.00,6.00,0.00,30.27,M,6.21,M,FEW,M,M,M,2000.00,M,M,M,M,M,M,M,M,M,M,M,RJBB 200130Z 04006KT 020V090 9999 FEW020 19/13 Q1025 NOSIG
RJGG,2020-10-20 01:30,136.8054,34.8584,62.60,51.80,67.75,330.00,9.00,0.00,30.27,M,6.21,M,M,M,M,M,M,M,M,M,M,M,M,M,M,M,M,M,RJGG 200130Z 33009KT CAVOK 17/11 Q1025 NOSIG
RJTT,2020-10-20 01:30,139.7811,35.5533,66.20,51.80,59.74,10.00,11.00,0.00,30.27,M,6.21,M,FEW,BKN,M,M,3000.00,M,M,M,M,M,M,M,M,M,M,M,RJTT 200130Z 01011KT 9999 FEW030 BKN/// 19/11 Q1025 NOSIG RMK 1CU030 A3028
ROAH,2020-10-20 01:30,127.6458,26.1958,86.00,71.60,62.25,70.00,15.00,0.00,30.00,M,6.21,M,SCT,M,M,M,2500.00,M,M,M,M,M,M,M,M,M,M,91.92,ROAH 200130Z 07015KT 030V090 9999 SCT025 30/22 Q1016 RMK 3CU025 A3001
RJTK,2020-10-20 01:38,139.9097,35.3983,62.60,51.80,67.75,10.00,11.00,0.00,30.27,M,6.21,M,FEW,BKN,BKN,M,3000.00,18000.00,22000.00,M,M,M,M,M,M,M,M,M,RJTK 200138Z 01011KT 9999 FEW030 BKN180 BKN220 17/11 Q1025 RMK 1SC030 5AC180 7CI220 A3027
RJCT,2020-10-20 01:38,143.1585,42.8905,60.80,33.80,36.16,320.00,8.00,0.00,30.24,M,6.21,18.00,FEW,M,M,M,6000.00,M,M,M,M,M,M,M,M,M,M,M,RJCT 200138Z 32008G18KT 9999 FEW060 16/01 Q1024 RMK 1CU060 A3024
RJOZ,2020-10-20 01:45,131.0522,34.0469,69.80,39.20,32.72,100.00,6.00,0.00,30.27,M,6.21,M,FEW,M,M,M,3500.00,M,M,M,M,M,M,M,M,M,M,M,RJOZ 200145Z 10006KT 040V160 9999 FEW035 21/04 Q1025 RMK 1CU035 A3028
RJOI,2020-10-20 01:55,132.2357,34.1439,70.00,44.10,39.26,30.00,10.00,0.00,30.29,1025.60,6.21,M,FEW,M,M,M,2500.00,M,M,M,M,M,M,M,M,M,M,M,RJOI 200155Z 03010KT 9999 FEW025 21/07 A3029 RMK SLP256 T02110067
RJTY,2020-10-20 01:56,139.3485,35.7485,64.40,50.70,61.06,40.00,6.00,0.00,30.32,1027.10,10.00,M,BKN,M,M,M,19000.00,M,M,M,M,M,M,M,M,M,M,M,RJTY 200156Z AUTO 04006KT 10SM BKN190 18/10 A3032 RMK AO2 SLP271 T01800104 FZRANO $
ROTM,2020-10-20 01:56,127.7565,26.2743,84.00,72.00,67.28,60.00,17.00,0.00,30.03,1015.40,6.21,23.00,FEW,SCT,SCT,M,2000.00,4000.00,18000.00,M,M,M,M,M,M,M,M,89.62,ROTM 200156Z 06017G23KT 9999 FEW020 SCT040 SCT180 28/22 A3003 RMK SLP154 T02890222
RODN,2020-10-20 01:56,127.7676,26.3556,85.30,71.60,63.66,50.00,19.00,0.00,30.01,M,10.00,25.00,CLR,M,M,M,M,M,M,M,M,M,M,M,27.00,60.00,2020-10-20 01:02,91.03,RODN 200156Z AUTO 05019G25KT 10SM CLR 30/22 A3001 RMK AO2 PK WND 06027/02 SLPNO T02960220 $
RJFR,2020-10-20 02:00,131.0350,33.8456,68.00,48.20,49.10,90.00,8.00,0.00,30.27,M,6.21,M,FEW,M,M,M,3500.00,M,M,M,M,M,M,M,M,M,M,M,RJFR 200200Z 09008KT 060V170 9999 FEW035 20/09 Q1025
RJSR,2020-10-20 02:00,140.3714,40.1919,53.60,53.60,100.00,M,1.00,0.00,30.30,M,6.21,M,FEW,M,M,M,2000.00,M,M,M,M,M,M,M,M,M,M,M,RJSR 200200Z VRB01KT 9999 FEW020 12/12 Q1026
RJCB,2020-10-20 02:00,143.2172,42.7333,59.00,35.60,41.42,330.00,14.00,0.00,30.21,M,6.21,M,FEW,M,M,M,5000.00,M,M,M,M,M,M,M,M,M,M,M,RJCB 200200Z 33014KT 9999 FEW050 15/02 Q1023
RJAA,2020-10-20 02:00,140.3856,35.7653,66.20,55.40,68.15,10.00,9.00,0.00,30.27,M,6.21,M,FEW,BKN,M,M,2000.00,M,M,M,M,M,M,M,M,M,M,M,RJAA 200200Z 01009KT 9999 FEW020 BKN/// 19/13 Q1025 NOSIG
RJAF,2020-10-20 02:00,137.9228,36.1667,50.00,44.60,81.61,M,1.00,0.00,30.33,M,6.21,M,FEW,M,M,M,2500.00,M,M,M,M,M,M,M,M,M,M,M,RJAF 200200Z VRB01KT 9999 FEW025 10/07 Q1027
RJAH,2020-10-20 02:00,140.4147,36.1817,66.20,51.80,59.74,30.00,7.00,0.00,30.27,M,6.21,M,FEW,BKN,M,M,3000.00,23000.00,M,M,M,M,M,M,M,M,M,M,RJAH 200200Z 03007KT 350V070 9999 FEW030 BKN230 19/11 Q1025
RJBT,2020-10-20 02:00,134.7869,35.5128,66.20,53.60,63.82,30.00,3.00,0.00,30.27,M,6.21,M,FEW,M,M,M,3000.00,M,M,M,M,M,M,M,M,M,M,M,RJBT 200200Z 03003KT 340V080 9999 FEW030 19/12 Q1025
RJCC,2020-10-20 02:00,141.6926,42.7742,59.00,41.00,51.18,M,2.00,0.00,30.24,M,6.21,M,FEW,SCT,M,M,3000.00,6000.00,M,M,M,M,M,M,M,M,M,M,RJCC 200200Z VRB02KT 9999 FEW030 SCT060 15/05 Q1024
RJCH,2020-10-20 02:00,140.8219,41.7700,60.80,46.40,59.01,230.00,7.00,0.00,30.27,M,6.21,M,FEW,SCT,M,M,2000.00,4000.00,M,M,M,M,M,M,M,M,M,M,RJCH 200200Z 23007KT 9999 FEW020 SCT040 16/08 Q1025
RJCK,2020-10-20 02:00,144.1931,43.0408,57.20,41.00,54.60,200.00,8.00,0.00,30.18,M,6.21,M,FEW,BKN,M,M,5000.00,7000.00,M,M,M,M,M,M,M,M,M,M,RJCK 200200Z 20008KT 150V290 9999 FEW050 BKN070 14/05 Q1022
RJCM,2020-10-20 02:00,144.1642,43.8806,55.40,33.80,43.90,310.00,6.00,0.00,30.21,M,6.21,M,FEW,SCT,BKN,M,4000.00,6000.00,8000.00,M,M,M,M,M,M,M,M,M,RJCM 200200Z 31006KT 240V010 9999 FEW040 SCT060 BKN080 13/01 Q1023
RJCN,2020-10-20 02:00,144.9600,43.5775,57.20,32.00,38.26,350.00,10.00,0.00,30.18,M,6.21,M,FEW,SCT,M,M,3000.00,6000.00,M,M,M,M,M,M,M,M,M,M,RJCN 200200Z 35010KT 290V030 9999 FEW030 SCT060 14/00 Q1022
RJCO,2020-10-20 02:00,141.3814,43.1175,59.00,44.60,58.77,360.00,5.00,0.00,30.27,M,6.21,M,FEW,BKN,M,M,2000.00,6000.00,M,M,M,M,M,M,M,M,M,M,RJCO 200200Z 36005KT 9999 FEW020 BKN060 15/07 Q1025
RJCW,2020-10-20 02:00,141.8022,45.4044,50.00,35.60,57.52,40.00,7.00,0.00,30.24,M,6.21,M,FEW,M,M,M,3500.00,M,M,M,M,M,M,M,M,M,M,M,RJCW 200200Z 04007KT 9999 FEW035 10/02 Q1024
RJDT,2020-10-20 02:00,129.3306,34.2850,69.80,51.80,52.77,50.00,10.00,0.00,30.27,M,6.21,M,FEW,M,M,M,4000.00,M,M,M,M,M,M,M,M,M,M,M,RJDT 200200Z 05010KT 360V090 9999 FEW040 21/11 Q1025
RJEB,2020-10-20 02:00,143.4040,44.3039,51.80,42.80,71.26,340.00,11.00,0.00,30.24,M,6.21,M,FEW,SCT,M,M,2000.00,6000.00,M,M,-SHRA,M,M,M,M,M,M,M,RJEB 200200Z 34011KT 9999 -SHRA FEW020 SCT060 11/06 Q1024
RJEC,2020-10-20 02:00,142.4475,43.6708,55.40,26.60,32.76,M,4.00,0.00,30.21,M,6.21,M,FEW,SCT,M,M,2000.00,5000.00,M,M,M,M,M,M,M,M,M,M,RJEC 200200Z VRB04KT 9999 FEW020 SCT050 13/M03 Q1023
RJFE,2020-10-20 02:00,128.8328,32.6664,69.80,53.60,56.38,70.00,10.00,0.00,30.21,M,6.21,M,FEW,M,M,M,3000.00,M,M,M,M,M,M,M,M,M,M,M,RJFE 200200Z 07010KT 020V120 9999 FEW030 21/12 Q1023
RJFF,2020-10-20 02:00,130.4517,33.5844,68.00,50.00,52.51,50.00,9.00,0.00,30.24,M,6.21,M,FEW,M,M,M,3000.00,M,M,M,M,M,M,M,M,M,M,M,RJFF 200200Z 05009KT 010V080 9999 FEW030 20/10 Q1024 NOSIG
RJFK,2020-10-20 02:00,130.7194,31.8033,69.80,51.80,52.77,90.00,7.00,0.00,30.21,M,6.21,M,FEW,M,M,M,2000.00,M,M,M,M,M,M,M,M,M,M,M,RJFK 200200Z 09007KT 040V140 9999 FEW020 21/11 Q1023 RMK 1CU020 A3021
RJFM,2020-10-20 02:00,131.4486,31.8772,71.60,55.40,56.63,30.00,15.00,0.00,30.21,M,6.21,M,FEW,M,M,M,3500.00,M,M,M,M,M,M,M,M,M,M,M,RJFM 200200Z 03015KT 9999 FEW035 22/13 Q1023
RJFO,2020-10-20 02:00,131.7372,33.4794,68.00,51.80,56.13,360.00,10.00,0.00,30.24,M,6.21,M,FEW,M,M,M,3000.00,M,M,M,M,M,M,M,M,M,M,M,RJFO 200200Z 36010KT 9999 FEW030 20/11 Q1024
RJAW,2020-10-20 02:00,141.3227,24.7840,82.40,78.80,88.90,180.00,12.00,0.00,29.88,M,6.21,M,SCT,BKN,M,M,1500.00,23000.00,M,M,M,M,M,M,M,M,M,92.76,RJAW 200200Z 18012KT 9999 SCT015 BKN230 28/26 Q1012 RMK 3CU015 A2990
RJBB,2020-10-20 02:00,135.2328,34.4342,66.20,55.40,68.15,30.00,7.00,0.00,30.27,M,6.21,M,FEW,M,M,M,2000.00,M,M,M,M,M,M,M,M,M,M,M,RJBB 200200Z 03007KT 9999 FEW020 19/13 Q1025 NOSIG
RJBE,2020-10-20 02:00,135.2239,34.6328,64.40,57.20,77.45,140.00,5.00,0.00,30.27,M,6.21,M,FEW,M,M,M,2500.00,M,M,M,M,M,M,M,M,M,M,M,RJBE 200200Z 14005KT 9999 FEW025 18/14 Q1025
RJNK,2020-10-20 02:00,136.4075,36.3939,71.60,50.00,46.43,30.00,13.00,0.00,30.27,M,6.21,M,FEW,M,M,M,3000.00,M,M,M,M,M,M,M,M,M,M,M,RJNK 200200Z 03013KT 9999 FEW030 22/10 Q1025
RJNT,2020-10-20 02:00,137.1875,36.6483,68.00,46.40,45.88,30.00,6.00,0.00,30.27,M,6.21,M,FEW,M,M,M,3000.00,M,M,M,M,M,M,M,M,M,M,M,RJNT 200200Z 03006KT 340V100 9999 FEW030 20/08 Q1025
RJNW,2020-10-20 02:00,136.9618,37.2931,66.20,51.80,59.74,70.00,7.00,0.00,30.30,M,6.21,M,FEW,SCT,M,M,3000.00,3500.00,M,M,M,M,M,M,M,M,M,M,RJNW 200200Z 07007KT 010V100 9999 FEW030 SCT035 19/11 Q1026
RJOA,2020-10-20 02:00,132.9194,34.4361,64.40,48.20,55.63,140.00,7.00,0.00,30.27,M,6.21,M,FEW,M,M,M,3000.00,M,M,M,M,M,M,M,M,M,M,M,RJOA 200200Z 14007KT 080V200 9999 FEW030 18/09 Q1025
RJOB,2020-10-20 02:00,133.8553,34.7569,68.00,46.40,45.88,70.00,5.00,0.00,30.27,M,6.21,M,FEW,M,M,M,2500.00,M,M,M,M,M,M,M,M,M,M,M,RJOB 200200Z 07005KT 020V150 9999 FEW025 20/08 Q1025
RJOC,2020-10-20 02:00,132.8900,35.4136,66.20,51.80,59.74,20.00,3.00,0.00,30.30,M,6.21,M,FEW,M,M,M,3500.00,M,M,M,M,M,M,M,M,M,M,M,RJOC 200200Z 02003KT 9999 FEW035 19/11 Q1026
RJOH,2020-10-20 02:00,133.2392,35.4933,68.00,51.80,56.13,M,2.00,0.00,30.30,M,6.21,M,FEW,M,M,M,3000.00,M,M,M,M,M,M,M,M,M,M,M,RJOH 200200Z VRB02KT 9999 FEW030 20/11 Q1026
RJKA,2020-10-20 02:00,129.7125,28.4308,80.60,71.60,74.11,60.00,18.00,0.00,30.06,M,6.21,M,FEW,SCT,BKN,M,2000.00,3500.00,4500.00,M,M,M,M,M,M,M,M,84.57,RJKA 200200Z 06018KT 9999 FEW020 SCT035 BKN045 27/22 Q1018
RJOK,2020-10-20 02:00,133.6694,33.5461,73.40,48.20,40.85,30.00,5.00,0.00,30.21,M,6.21,M,FEW,M,M,M,3000.00,M,M,M,M,M,M,M,M,M,M,M,RJOK 200200Z 03005KT 340V080 9999 FEW030 23/09 Q1023
RJFU,2020-10-20 02:00,129.9136,32.9169,71.60,48.20,43.42,M,4.00,0.00,30.21,M,6.21,M,FEW,M,M,M,3000.00,M,M,M,M,M,M,M,M,M,M,M,RJFU 200200Z VRB04KT 9999 FEW030 22/09 Q1023
RJGG,2020-10-20 02:00,136.8054,34.8584,62.60,51.80,67.75,320.00,8.00,0.00,30.24,M,6.21,M,FEW,M,M,M,3000.00,M,M,M,M,M,M,M,M,M,M,M,RJGG 200200Z 32008KT 9999 FEW030 17/11 Q1024 NOSIG
RJKI,2020-10-20 02:00,129.9281,28.3213,80.60,71.60,74.11,60.00,18.00,0.00,30.06,M,6.21,M,BKN,BKN,BKN,M,2300.00,2900.00,3800.00,M,M,M,M,M,M,M,M,84.57,RJKI 200200Z AUTO 06018KT 9999 BKN023 BKN029 BKN038 27/22 Q1018
ROIG,2020-10-20 02:00,124.1633,24.3367,84.20,77.00,79.04,50.00,20.00,0.00,29.94,M,6.21,M,SCT,BKN,M,M,1800.00,M,M,M,M,M,M,M,M,M,M,94.16,ROIG 200200Z 05020KT 9999 SCT018 BKN/// 29/25 Q1014
ROMD,2020-10-20 02:00,131.2286,25.8289,82.40,73.40,74.28,50.00,14.00,0.00,29.97,M,6.21,M,FEW,M,M,M,1900.00,M,M,M,M,M,M,M,M,M,M,88.26,ROMD 200200Z AUTO 05014KT 9999 FEW019 28/23 Q1015
ROMY,2020-10-20 02:00,125.2767,24.7933,82.40,75.20,78.90,50.00,17.00,0.00,29.97,M,6.21,M,FEW,BKN,M,M,1500.00,M,M,M,M,M,M,M,M,M,M,89.48,ROMY 200200Z 05017KT 9999 FEW015 BKN/// 28/24 Q1015
RORY,2020-10-20 02:00,128.4020,27.0440,84.20,73.40,70.08,60.00,14.00,0.00,30.00,M,6.21,M,SCT,M,M,M,1900.00,M,M,M,M,M,M,M,M,M,M,90.94,RORY 200200Z AUTO 06014KT 030V090 9999 SCT019 29/23 Q1016
RJDC,2020-10-20 02:00,131.2786,33.9300,69.80,48.20,46.16,90.00,7.00,0.00,30.27,M,6.21,M,FEW,M,M,M,2500.00,M,M,M,M,M,M,M,M,M,M,M,RJDC 200200Z 09007KT 060V120 9999 FEW025 21/09 Q1025
RJOM,2020-10-20 02:00,132.6997,33.8272,69.80,51.80,52.77,10.00,10.00,0.00,30.24,M,6.21,M,FEW,M,M,M,2500.00,M,M,M,M,M,M,M,M,M,M,M,RJOM 200200Z 01010KT 9999 FEW025 21/11 Q1024
RJFS,2020-10-20 02:00,130.3000,33.1500,71.60,53.60,53.03,20.00,12.00,0.00,30.21,M,6.21,M,FEW,M,M,M,3500.00,M,M,M,M,M,M,M,M,M,M,M,RJFS 200200Z 02012KT 340V040 9999 FEW035 22/12 Q1023
RJFT,2020-10-20 02:00,130.8553,32.8372,71.60,46.40,40.57,50.00,13.00,0.00,30.21,M,6.21,M,FEW,M,M,M,4000.00,M,M,M,M,M,M,M,M,M,M,M,RJFT 200200Z 05013KT 9999 FEW040 22/08 Q1023
RJOT,2020-10-20 02:00,134.0167,34.2167,66.20,51.80,59.74,60.00,8.00,0.00,30.27,M,6.21,M,FEW,M,M,M,2500.00,M,M,M,M,M,M,M,M,M,M,M,RJOT 200200Z 06008KT 9999 FEW025 19/11 Q1025
RJSK,2020-10-20 02:00,140.2167,39.6167,59.00,55.40,87.83,250.00,3.00,0.00,30.30,M,6.21,M,FEW,M,M,M,1000.00,M,M,M,M,M,M,M,M,M,M,M,RJSK 200200Z 25003KT 190V300 9999 FEW010 15/13 Q1026
RJOO,2020-10-20 02:00,135.4392,34.7844,66.20,57.20,72.74,130.00,3.00,0.00,30.27,M,6.21,M,FEW,M,M,M,3000.00,M,M,M,M,M,M,M,M,M,M,M,RJOO 200200Z 13003KT 080V200 9999 FEW030 19/14 Q1025
RJOR,2020-10-20 02:00,134.1650,35.5300,68.00,55.40,64.04,310.00,6.00,0.00,30.30,M,6.21,M,FEW,M,M,M,3500.00,M,M,M,M,M,M,M,M,M,M,M,RJOR 200200Z 31006KT 9999 FEW035 20/13 Q1026
RJOW,2020-10-20 02:00,131.7903,34.6764,68.00,48.20,49.10,30.00,7.00,0.00,30.27,M,6.21,M,M,M,M,M,M,M,M,M,M,M,M,M,M,M,M,M,RJOW 200200Z 03007KT 330V070 CAVOK 20/09 Q1025
RJOY,2020-10-20 02:00,135.6006,34.5967,66.20,55.40,68.15,180.00,3.00,0.00,30.27,M,6.21,M,FEW,M,M,M,2500.00,M,M,M,M,M,M,M,M,M,M,M,RJOY 200200Z 18003KT 080V250 9999 FEW025 19/13 Q1025
RJSA,2020-10-20 02:00,140.6886,40.7333,60.80,41.00,48.00,280.00,8.00,0.00,30.30,M,6.21,M,FEW,SCT,M,M,3000.00,4000.00,M,M,M,M,M,M,M,M,M,M,RJSA 200200Z 28008KT 240V310 9999 FEW030 SCT040 16/05 Q1026
RJSC,2020-10-20 02:00,140.3711,38.4119,57.20,51.80,82.12,M,2.00,0.00,30.30,M,6.21,M,FEW,SCT,M,M,1500.00,4000.00,M,M,M,M,M,M,M,M,M,M,RJSC 200200Z VRB02KT 9999 FEW015 SCT040 14/11 Q1026
RJSF,2020-10-20 02:00,140.4281,37.2275,60.80,50.00,67.54,330.00,5.00,0.00,30.30,M,6.21,M,FEW,BKN,M,M,3000.00,M,M,M,M,M,M,M,M,M,M,M,RJSF 200200Z 33005KT 9999 FEW030 BKN/// 16/10 Q1026
RJSI,2020-10-20 02:00,141.1353,39.4286,60.80,44.60,55.12,40.00,3.00,0.00,30.27,M,6.21,M,FEW,M,M,M,3000.00,M,M,M,M,M,M,M,M,M,M,M,RJSI 200200Z 04003KT 300V120 9999 FEW030 16/07 Q1025
RJSM,2020-10-20 02:00,141.3684,40.7032,60.80,37.40,41.71,320.00,10.00,0.00,30.30,M,6.21,M,FEW,M,M,M,3500.00,M,M,M,M,M,M,M,M,M,M,M,RJSM 200200Z 32010KT 9999 FEW035 16/03 Q1026
RJSN,2020-10-20 02:00,139.1117,37.9558,66.20,53.60,63.82,40.00,4.00,0.00,30.30,M,6.21,M,FEW,M,M,M,3000.00,M,M,M,M,M,M,M,M,M,M,M,RJSN 200200Z 04004KT 9999 FEW030 19/12 Q1026
RJSS,2020-10-20 02:00,140.9169,38.1397,64.40,46.40,51.98,80.00,7.00,0.00,30.27,M,6.21,M,FEW,M,M,M,3000.00,M,M,M,M,M,M,M,M,M,M,M,RJSS 200200Z 08007KT 9999 FEW030 18/08 Q1025
RJTF,2020-10-20 02:00,139.5281,35.6717,64.40,48.20,55.63,30.00,6.00,0.00,30.27,M,6.21,M,FEW,BKN,M,M,3000.00,M,M,M,M,M,M,M,M,M,M,M,RJTF 200200Z 03006KT 9999 FEW030 BKN/// 18/09 Q1025
RJTO,2020-10-20 02:00,139.3603,34.7819,66.20,53.60,63.82,40.00,17.00,0.00,30.24,M,6.21,M,FEW,BKN,BKN,M,2500.00,18000.00,M,M,M,M,M,M,M,M,M,M,RJTO 200200Z 04017KT 9999 FEW025 BKN180 BKN/// 19/12 Q1024
RJTT,2020-10-20 02:00,139.7811,35.5533,64.40,50.00,59.50,360.00,11.00,0.00,30.27,M,6.21,M,FEW,BKN,M,M,3000.00,M,M,M,M,M,M,M,M,M,M,M,RJTT 200200Z 36011KT 9999 FEW030 BKN/// 18/10 Q1025 NOSIG RMK 1CU030 A3028
RORS,2020-10-20 02:00,125.1447,24.8267,84.20,77.00,79.04,60.00,17.00,0.00,29.97,M,6.21,M,FEW,BKN,M,M,1900.00,M,M,M,M,M,M,M,M,M,M,94.16,RORS 200200Z 06017KT 9999 FEW019 BKN/// 29/25 Q1015
RJNS,2020-10-20 02:00,138.1894,34.7961,64.40,46.40,51.98,70.00,3.00,0.00,30.24,M,6.21,M,FEW,SCT,BKN,M,2500.00,18000.00,M,M,M,M,M,M,M,M,M,M,RJNS 200200Z 07003KT 360V130 9999 FEW025 SCT180 BKN/// 18/08 Q1024
RJBD,2020-10-20 02:00,135.3644,33.6622,69.80,48.20,46.16,350.00,5.00,0.00,30.21,M,6.21,M,FEW,SCT,M,M,3000.00,17000.00,M,M,M,M,M,M,M,M,M,M,RJBD 200200Z 35005KT 310V010 9999 FEW030 SCT170 21/09 Q1023
RJFG,2020-10-20 02:00,130.9917,30.6050,68.00,59.00,72.92,60.00,8.00,0.00,30.18,M,6.21,18.00,FEW,BKN,M,M,2500.00,9000.00,M,M,M,M,M,M,M,M,M,M,RJFG 200200Z 06008G18KT 300V120 9999 FEW025 BKN090 20/15 Q1022
RJTI,2020-10-20 02:00,139.8500,35.6300,66.20,50.00,55.88,30.00,8.00,0.00,30.27,M,6.21,M,FEW,BKN,M,M,3000.00,M,M,M,M,M,M,M,M,M,M,M,RJTI 200200Z 03008KT 300V080 9999 FEW030 BKN/// 19/10 Q1025
RJOS,2020-10-20 02:00,134.6092,34.1322,68.00,55.40,64.04,30.00,10.00,0.00,30.27,M,6.21,M,FEW,M,M,M,2500.00,M,M,M,M,M,M,M,M,M,M,M,RJOS 200200Z 03010KT 350V050 9999 FEW025 20/13 Q1025
RJSY,2020-10-20 02:00,139.7872,38.8122,64.40,53.60,67.95,330.00,3.00,0.00,30.30,M,6.21,M,FEW,M,M,M,4000.00,M,M,M,M,M,M,M,M,M,M,M,RJSY 200200Z 33003KT 260V360 9999 FEW040 18/12 Q1026
RORK,2020-10-20 02:00,131.3333,25.9167,82.40,73.40,74.28,60.00,18.00,0.00,29.97,M,6.21,M,FEW,M,M,M,2100.00,M,M,M,M,M,M,M,M,M,M,88.26,RORK 200200Z AUTO 06018KT 9999 FEW021 28/23 Q1015
ROYN,2020-10-20 02:00,122.9780,24.4670,80.60,75.20,83.66,40.00,22.00,0.00,30.00,M,6.21,M,SCT,BKN,BKN,M,1900.00,2200.00,2600.00,M,M,M,M,M,M,M,M,86.17,ROYN 200200Z AUTO 04022KT 9999 SCT019 BKN022 BKN026 27/24 Q1016
ROAH,2020-10-20 02:00,127.6458,26.1958,86.00,71.60,62.25,80.00,14.00,0.00,30.00,M,6.21,M,FEW,M,M,M,2500.00,M,M,M,M,M,M,M,M,M,M,91.92,ROAH 200200Z 08014KT 040V100 9999 FEW025 30/22 Q1016
RJCT,2020-10-20 02:26,143.1585,42.8905,60.80,33.80,36.16,330.00,9.00,0.00,30.24,M,6.21,20.00,FEW,M,M,M,6000.00,M,M,M,M,M,M,M,M,M,M,M,RJCT 200226Z 33009G20KT 9999 FEW060 16/01 Q1024 RMK 2CU060 A3024
RJAA,2020-10-20 02:30,140.3856,35.7653,68.00,55.40,64.04,20.00,11.00,0.00,30.27,M,6.21,M,FEW,BKN,M,M,1500.00,M,M,M,M,M,M,M,M,M,M,M,RJAA 200230Z 02011KT 350V050 9999 FEW015 BKN/// 20/13 Q1025 NOSIG RMK 1CU015 A3027
RJCC,2020-10-20 02:30,141.6926,42.7742,60.80,41.00,48.00,20.00,3.00,0.00,30.21,M,6.21,M,FEW,BKN,M,M,3000.00,6000.00,M,M,M,M,M,M,M,M,M,M,RJCC 200230Z 02003KT 320V080 9999 FEW030 BKN060 16/05 Q1023 RMK 1CU030 5CU060 A3023
RJFF,2020-10-20 02:30,130.4517,33.5844,71.60,50.00,46.43,80.00,9.00,0.00,30.24,M,6.21,M,FEW,M,M,M,3000.00,M,M,M,M,M,M,M,M,M,M,M,RJFF 200230Z 08009KT 010V110 9999 FEW030 22/10 Q1024 BECMG 05009KT RMK 1CU030 A3025
RJBB,2020-10-20 02:30,135.2328,34.4342,66.20,55.40,68.15,40.00,7.00,0.00,30.24,M,6.21,M,FEW,M,M,M,2000.00,M,M,M,M,M,M,M,M,M,M,M,RJBB 200230Z 04007KT 010V070 9999 FEW020 19/13 Q1024 NOSIG
RJGG,2020-10-20 02:30,136.8054,34.8584,62.60,51.80,67.75,320.00,7.00,0.00,30.24,M,6.21,M,FEW,M,M,M,3000.00,M,M,M,M,M,M,M,M,M,M,M,RJGG 200230Z 32007KT 9999 FEW030 17/11 Q1024 NOSIG
RJTT,2020-10-20 02:30,139.7811,35.5533,66.20,51.80,59.74,20.00,9.00,0.00,30.27,M,6.21,M,FEW,BKN,M,M,3000.00,M,M,M,M,M,M,M,M,M,M,M,RJTT 200230Z 02009KT 9999 FEW030 BKN/// 19/11 Q1025 NOSIG RMK 1CU030 A3027
ROAH,2020-10-20 02:30,127.6458,26.1958,86.00,71.60,62.25,70.00,18.00,0.00,29.97,M,6.21,M,FEW,SCT,M,M,2800.00,M,M,M,M,M,M,M,M,M,M,91.92,ROAH 200230Z 07018KT 9999 FEW028 SCT/// 30/22 Q1015 RMK 2CU028 A2999
RJKN,2020-10-20 02:36,128.8813,27.8364,80.60,71.60,74.11,60.00,16.00,0.00,30.03,M,6.21,26.00,SCT,SCT,M,M,2300.00,3800.00,M,M,M,M,M,M,M,M,M,84.57,RJKN 200236Z AUTO 06016G26KT 030V100 9999 SCT023 SCT038 27/22 Q1017 RMK A3004
RJAW,2020-10-20 02:41,141.3227,24.7840,82.40,78.80,88.90,170.00,11.00,0.00,29.85,M,6.21,M,BKN,BKN,M,M,1500.00,23000.00,M,M,VCSH,M,M,M,M,M,M,92.76,RJAW 200241Z 17011KT 9999 VCSH BKN015 BKN230 28/26 Q1011 RMK 5CU015 A2988
RJOI,2020-10-20 02:55,132.2357,34.1439,71.10,45.00,39.13,40.00,6.00,0.00,30.27,1024.90,6.21,M,FEW,M,M,M,2500.00,M,M,M,M,M,M,M,M,M,M,M,RJOI 200255Z 04006KT 9999 FEW025 22/07 A3027 RMK SLP249 T02170072 58014
RJTY,2020-10-20 02:56,139.3485,35.7485,63.90,54.30,70.94,90.00,4.00,0.00,30.31,1026.70,10.00,M,FEW,M,M,M,18000.00,M,M,M,M,M,M,M,M,M,M,M,RJTY 200256Z AUTO 09004KT 10SM FEW180 18/12 A3031 RMK AO2 SLP267 T01770124 57008 FZRANO $
RODN,2020-10-20 02:56,127.7676,26.3556,85.50,72.30,64.77,70.00,17.00,0.00,29.99,M,10.00,27.00,SCT,M,M,M,2100.00,M,M,M,M,M,M,M,27.00,50.00,2020-10-20 02:50,91.84,RODN 200256Z AUTO 07017G27KT 10SM SCT021 30/22 A2999 RMK AO2 PK WND 05027/50 SLPNO T02970224 $
ROTM,2020-10-20 02:56,127.7565,26.2743,82.00,73.00,74.24,60.00,12.00,0.00,30.02,1015.00,6.21,22.00,SCT,SCT,M,M,2000.00,18000.00,M,M,M,M,M,M,M,M,M,87.39,ROTM 200256Z 06012G22KT 9999 SCT020 SCT180 28/23 A3002 RMK SLP150 T02780228 58007
RJFR,2020-10-20 03:00,131.0350,33.8456,69.80,48.20,46.16,120.00,7.00,0.00,30.24,M,6.21,M,M,M,M,M,M,M,M,M,M,M,M,M,M,M,M,M,RJFR 200300Z 12007KT 040V190 CAVOK 21/09 Q1024
RJSR,2020-10-20 03:00,140.3714,40.1919,60.80,46.40,59.01,190.00,4.00,0.00,30.30,M,6.21,M,FEW,M,M,M,4000.00,M,M,M,M,M,M,M,M,M,M,M,RJSR 200300Z 19004KT 140V240 9999 FEW040 16/08 Q1026
RJAA,2020-10-20 03:00,140.3856,35.7653,68.00,53.60,59.97,30.00,12.00,0.00,30.24,M,6.21,M,FEW,BKN,M,M,1500.00,M,M,M,M,M,M,M,M,M,M,M,RJAA 200300Z 03012KT 9999 FEW015 BKN/// 20/12 Q1024 NOSIG
RJAF,2020-10-20 03:00,137.9228,36.1667,55.40,46.40,71.64,360.00,3.00,0.00,30.30,M,6.21,M,FEW,M,M,M,3000.00,M,M,M,M,M,M,M,M,M,M,M,RJAF 200300Z 36003KT 280V050 9999 FEW030 13/08 Q1026
RJAH,2020-10-20 03:00,140.4147,36.1817,66.20,51.80,59.74,50.00,9.00,0.00,30.24,M,6.21,M,FEW,BKN,M,M,3000.00,23000.00,M,M,M,M,M,M,M,M,M,M,RJAH 200300Z 05009KT 010V090 9999 FEW030 BKN230 19/11 Q1024
RJBT,2020-10-20 03:00,134.7869,35.5128,66.20,51.80,59.74,10.00,5.00,0.00,30.27,M,6.21,M,FEW,BKN,M,M,3000.00,4000.00,M,M,M,M,M,M,M,M,M,M,RJBT 200300Z 01005KT 320V060 9999 FEW030 BKN040 19/11 Q1025
RJCB,2020-10-20 03:00,143.2172,42.7333,60.80,35.60,38.85,340.00,10.00,0.00,30.18,M,6.21,M,FEW,M,M,M,5000.00,M,M,M,M,M,M,M,M,M,M,M,RJCB 200300Z 34010KT 9999 FEW050 16/02 Q1022
RJCC,2020-10-20 03:00,141.6926,42.7742,62.60,42.80,48.28,M,2.00,0.00,30.21,M,6.21,M,FEW,SCT,M,M,3000.00,6000.00,M,M,M,M,M,M,M,M,M,M,RJCC 200300Z VRB02KT 9999 FEW030 SCT060 17/06 Q1023
RJCH,2020-10-20 03:00,140.8219,41.7700,62.60,46.40,55.37,210.00,9.00,0.00,30.24,M,6.21,M,FEW,SCT,M,M,3000.00,5000.00,M,M,M,M,M,M,M,M,M,M,RJCH 200300Z 21009KT 9999 FEW030 SCT050 17/08 Q1024
RJCK,2020-10-20 03:00,144.1931,43.0408,57.20,41.00,54.60,210.00,7.00,0.00,30.18,M,6.21,M,FEW,BKN,M,M,5000.00,7000.00,M,M,M,M,M,M,M,M,M,M,RJCK 200300Z 21007KT 160V280 9999 FEW050 BKN070 14/05 Q1022
RJCM,2020-10-20 03:00,144.1642,43.8806,53.60,39.20,58.02,360.00,14.00,0.00,30.21,M,6.21,M,FEW,SCT,M,M,4000.00,6000.00,M,M,VCSH,M,M,M,M,M,M,M,RJCM 200300Z 36014KT 9999 VCSH FEW040 SCT060 12/04 Q1023
RJCN,2020-10-20 03:00,144.9600,43.5775,59.00,35.60,41.42,320.00,6.00,0.00,30.18,M,6.21,M,FEW,SCT,M,M,3000.00,6000.00,M,M,M,M,M,M,M,M,M,M,RJCN 200300Z 32006KT 270V030 9999 FEW030 SCT060 15/02 Q1022
RJCO,2020-10-20 03:00,141.3814,43.1175,60.80,42.80,51.45,330.00,13.00,0.00,30.24,M,6.21,M,FEW,BKN,M,M,2000.00,5000.00,M,M,M,M,M,M,M,M,M,M,RJCO 200300Z 33013KT 9999 FEW020 BKN050 16/06 Q1024
RJCW,2020-10-20 03:00,141.8022,45.4044,51.80,37.40,57.77,40.00,5.00,0.00,30.24,M,6.21,M,FEW,M,M,M,3500.00,M,M,M,M,M,M,M,M,M,M,M,RJCW 200300Z 04005KT 360V110 9999 FEW035 11/03 Q1024
RJDT,2020-10-20 03:00,129.3306,34.2850,69.80,53.60,56.38,70.00,11.00,0.00,30.24,M,6.21,M,SCT,M,M,M,4000.00,M,M,M,M,M,M,M,M,M,M,M,RJDT 200300Z 07011KT 020V110 9999 SCT040 21/12 Q1024
RJEB,2020-10-20 03:00,143.4040,44.3039,53.60,41.00,62.23,340.00,10.00,0.00,30.21,M,6.21,M,FEW,SCT,M,M,3000.00,7000.00,M,M,M,M,M,M,M,M,M,M,RJEB 200300Z 34010KT 9999 FEW030 SCT070 12/05 Q1023
RJEC,2020-10-20 03:00,142.4475,43.6708,55.40,26.60,32.76,290.00,9.00,0.00,30.21,M,6.21,M,FEW,SCT,M,M,3000.00,5000.00,M,M,M,M,M,M,M,M,M,M,RJEC 200300Z 29009KT 260V320 9999 FEW030 SCT050 13/M03 Q1023
RJFE,2020-10-20 03:00,128.8328,32.6664,71.60,51.80,49.64,50.00,11.00,0.00,30.21,M,6.21,M,M,M,M,M,M,M,M,M,M,M,M,M,M,M,M,M,RJFE 200300Z 05011KT 010V110 CAVOK 22/11 Q1023
RJFF,2020-10-20 03:00,130.4517,33.5844,71.60,48.20,43.42,60.00,10.00,0.00,30.24,M,6.21,M,FEW,M,M,M,3000.00,M,M,M,M,M,M,M,M,M,M,M,RJFF 200300Z 06010KT 010V090 9999 FEW030 22/09 Q1024 BECMG 05009KT
RJFK,2020-10-20 03:00,130.7194,31.8033,69.80,50.00,49.37,90.00,7.00,0.00,30.18,M,6.21,M,FEW,M,M,M,2500.00,M,M,M,M,M,M,M,M,M,M,M,RJFK 200300Z 09007KT 050V150 9999 FEW025 21/10 Q1022
RJFM,2020-10-20 03:00,131.4486,31.8772,71.60,55.40,56.63,40.00,14.00,0.00,30.21,M,6.21,M,FEW,M,M,M,4000.00,M,M,M,M,M,M,M,M,M,M,M,RJFM 200300Z 04014KT 9999 FEW040 22/13 Q1023
RJFO,2020-10-20 03:00,131.7372,33.4794,69.80,51.80,52.77,10.00,9.00,0.00,30.24,M,6.21,M,FEW,M,M,M,3000.00,M,M,M,M,M,M,M,M,M,M,M,RJFO 200300Z 01009KT 340V040 9999 FEW030 21/11 Q1024
RJAW,2020-10-20 03:00,141.3227,24.7840,82.40,78.80,88.90,170.00,13.00,0.00,29.85,M,6.21,M,BKN,BKN,M,M,1500.00,23000.00,M,M,-SHRA,M,M,M,M,M,M,92.76,RJAW 200300Z 17013KT 9999 -SHRA BKN015 BKN230 28/26 Q1011 RMK 5CU015 A2987
RJBB,2020-10-20 03:00,135.2328,34.4342,66.20,55.40,68.15,20.00,6.00,0.00,30.24,M,6.21,M,FEW,M,M,M,2500.00,M,M,M,M,M,M,M,M,M,M,M,RJBB 200300Z 02006KT 9999 FEW025 19/13 Q1024 NOSIG
RJBE,2020-10-20 03:00,135.2239,34.6328,66.20,57.20,72.74,M,3.00,0.00,30.24,M,6.21,M,FEW,M,M,M,2500.00,M,M,M,M,M,M,M,M,M,M,M,RJBE 200300Z VRB03KT 9999 FEW025 19/14 Q1024
RJNK,2020-10-20 03:00,136.4075,36.3939,71.60,46.40,40.57,40.00,13.00,0.00,30.24,M,6.21,M,FEW,M,M,M,3000.00,M,M,M,M,M,M,M,M,M,M,M,RJNK 200300Z 04013KT 9999 FEW030 22/08 Q1024
RJNT,2020-10-20 03:00,137.1875,36.6483,69.80,51.80,52.77,10.00,10.00,0.00,30.27,M,6.21,M,FEW,M,M,M,3500.00,M,M,M,M,M,M,M,M,M,M,M,RJNT 200300Z 01010KT 340V040 9999 FEW035 21/11 Q1025
RJNW,2020-10-20 03:00,136.9618,37.2931,68.00,50.00,52.51,40.00,7.00,0.00,30.30,M,6.21,M,FEW,SCT,M,M,3000.00,3500.00,M,M,M,M,M,M,M,M,M,M,RJNW 200300Z 04007KT 320V090 9999 FEW030 SCT035 20/10 Q1026
RJOA,2020-10-20 03:00,132.9194,34.4361,64.40,48.20,55.63,120.00,4.00,0.00,30.27,M,6.21,M,FEW,M,M,M,3500.00,M,M,M,M,M,M,M,M,M,M,M,RJOA 200300Z 12004KT 070V200 9999 FEW035 18/09 Q1025
RJOB,2020-10-20 03:00,133.8553,34.7569,69.80,44.60,40.29,70.00,6.00,0.00,30.27,M,6.21,M,FEW,M,M,M,3000.00,M,M,M,M,M,M,M,M,M,M,M,RJOB 200300Z 07006KT 010V130 9999 FEW030 21/07 Q1025
RJOC,2020-10-20 03:00,132.8900,35.4136,68.00,51.80,56.13,20.00,4.00,0.00,30.27,M,6.21,M,FEW,M,M,M,3500.00,M,M,M,M,M,M,M,M,M,M,M,RJOC 200300Z 02004KT 9999 FEW035 20/11 Q1025
RJOH,2020-10-20 03:00,133.2392,35.4933,69.80,51.80,52.77,40.00,5.00,0.00,30.30,M,6.21,M,FEW,M,M,M,4000.00,M,M,M,M,M,M,M,M,M,M,M,RJOH 200300Z 04005KT 010V080 9999 FEW040 21/11 Q1026
RJKA,2020-10-20 03:00,129.7125,28.4308,82.40,73.40,74.28,60.00,19.00,0.00,30.03,M,6.21,M,FEW,SCT,M,M,1500.00,2000.00,M,M,M,M,M,M,M,M,M,88.26,RJKA 200300Z 06019KT 9999 FEW015 SCT020 28/23 Q1017
RJOK,2020-10-20 03:00,133.6694,33.5461,75.20,51.80,43.97,M,5.00,0.00,30.18,M,6.21,M,FEW,M,M,M,3000.00,M,M,M,M,M,M,M,M,M,M,M,RJOK 200300Z VRB05KT 9999 FEW030 24/11 Q1022
RJFU,2020-10-20 03:00,129.9136,32.9169,73.40,50.00,43.69,10.00,12.00,0.00,30.18,M,6.21,M,FEW,M,M,M,3000.00,M,M,M,M,M,M,M,M,M,M,M,RJFU 200300Z 01012KT 9999 FEW030 23/10 Q1022
RJGG,2020-10-20 03:00,136.8054,34.8584,64.40,51.80,63.60,300.00,7.00,0.00,30.24,M,6.21,M,FEW,M,M,M,3000.00,M,M,M,M,M,M,M,M,M,M,M,RJGG 200300Z 30007KT 9999 FEW030 18/11 Q1024 NOSIG
RJKI,2020-10-20 03:00,129.9281,28.3213,80.60,69.80,69.71,60.00,19.00,0.00,30.03,M,6.21,M,BKN,BKN,M,M,2500.00,3200.00,M,M,M,M,M,M,M,M,M,83.90,RJKI 200300Z AUTO 06019KT 9999 BKN025 BKN032 27/21 Q1017
ROIG,2020-10-20 03:00,124.1633,24.3367,84.20,77.00,79.04,40.00,19.00,0.00,29.94,M,6.21,M,FEW,BKN,M,M,1800.00,M,M,M,M,M,M,M,M,M,M,94.16,ROIG 200300Z 04019KT 9999 FEW018 BKN/// 29/25 Q1014
ROMD,2020-10-20 03:00,131.2286,25.8289,82.40,73.40,74.28,50.00,13.00,0.00,29.97,M,6.21,M,SCT,M,M,M,1800.00,M,M,M,M,M,M,M,M,M,M,88.26,ROMD 200300Z AUTO 05013KT 9999 SCT018 28/23 Q1015
ROMY,2020-10-20 03:00,125.2767,24.7933,84.20,75.20,74.44,50.00,15.00,0.00,29.94,M,6.21,M,FEW,BKN,M,M,1500.00,M,M,M,M,M,M,M,M,M,M,92.45,ROMY 200300Z 05015KT 9999 FEW015 BKN/// 29/24 Q1014
RORY,2020-10-20 03:00,128.4020,27.0440,82.40,71.60,69.90,60.00,14.00,0.00,30.00,M,6.21,M,SCT,SCT,BKN,M,1900.00,2400.00,2900.00,M,M,M,M,M,M,M,M,87.18,RORY 200300Z AUTO 06014KT 040V100 9999 SCT019 SCT024 BKN029 28/22 Q1016
RJDC,2020-10-20 03:00,131.2786,33.9300,69.80,51.80,52.77,110.00,7.00,0.00,30.24,M,6.21,M,FEW,M,M,M,2500.00,M,M,M,M,M,M,M,M,M,M,M,RJDC 200300Z 11007KT 9999 FEW025 21/11 Q1024
RJOM,2020-10-20 03:00,132.6997,33.8272,71.60,53.60,53.03,360.00,13.00,0.00,30.21,M,6.21,M,FEW,M,M,M,3000.00,M,M,M,M,M,M,M,M,M,M,M,RJOM 200300Z 36013KT 9999 FEW030 22/12 Q1023
RJFS,2020-10-20 03:00,130.3000,33.1500,75.20,51.80,43.97,30.00,12.00,0.00,30.18,M,6.21,M,FEW,M,M,M,3500.00,M,M,M,M,M,M,M,M,M,M,M,RJFS 200300Z 03012KT 360V070 9999 FEW035 24/11 Q1022
RJFT,2020-10-20 03:00,130.8553,32.8372,73.40,42.80,33.29,40.00,10.00,0.00,30.18,M,6.21,M,M,M,M,M,M,M,M,M,M,M,M,M,M,M,M,M,RJFT 200300Z 04010KT CAVOK 23/06 Q1022
RJOT,2020-10-20 03:00,134.0167,34.2167,68.00,53.60,59.97,50.00,8.00,0.00,30.27,M,6.21,M,FEW,M,M,M,2500.00,M,M,M,M,M,M,M,M,M,M,M,RJOT 200300Z 05008KT 360V090 9999 FEW025 20/12 Q1025
RJSK,2020-10-20 03:00,140.2167,39.6167,62.60,46.40,55.37,300.00,6.00,0.00,30.30,M,6.21,M,FEW,M,M,M,2000.00,M,M,M,M,M,M,M,M,M,M,M,RJSK 200300Z 30006KT 260V340 9999 FEW020 17/08 Q1026
RJOO,2020-10-20 03:00,135.4392,34.7844,69.80,55.40,60.21,170.00,3.00,0.00,30.24,M,6.21,M,FEW,M,M,M,3000.00,M,M,M,M,M,M,M,M,M,M,M,RJOO 200300Z 17003KT 110V280 9999 FEW030 21/13 Q1024
RJOR,2020-10-20 03:00,134.1650,35.5300,68.00,55.40,64.04,310.00,7.00,0.00,30.27,M,6.21,M,FEW,M,M,M,4000.00,M,M,M,M,M,M,M,M,M,M,M,RJOR 200300Z 31007KT 9999 FEW040 20/13 Q1025
RJOW,2020-10-20 03:00,131.7903,34.6764,69.80,51.80,52.77,10.00,8.00,0.00,30.24,M,6.21,M,FEW,M,M,M,2000.00,M,M,M,M,M,M,M,M,M,M,M,RJOW 200300Z 01008KT 340V050 9999 FEW020 21/11 Q1024
RJOY,2020-10-20 03:00,135.6006,34.5967,69.80,51.80,52.77,M,4.00,0.00,30.24,M,6.21,M,FEW,M,M,M,3000.00,M,M,M,M,M,M,M,M,M,M,M,RJOY 200300Z VRB04KT 9999 FEW030 21/11 Q1024
RJSA,2020-10-20 03:00,140.6886,40.7333,60.80,41.00,48.00,260.00,7.00,0.00,30.27,M,6.21,M,FEW,SCT,M,M,3000.00,4000.00,M,M,M,M,M,M,M,M,M,M,RJSA 200300Z 26007KT 9999 FEW030 SCT040 16/05 Q1025
RJSC,2020-10-20 03:00,140.3711,38.4119,62.60,53.60,72.38,M,2.00,0.00,30.30,M,6.21,M,FEW,SCT,M,M,3000.00,4000.00,M,M,M,M,M,M,M,M,M,M,RJSC 200300Z VRB02KT 9999 FEW030 SCT040 17/12 Q1026
RJSF,2020-10-20 03:00,140.4281,37.2275,62.60,51.80,67.75,340.00,5.00,0.00,30.27,M,6.21,15.00,FEW,M,M,M,2500.00,M,M,M,M,M,M,M,M,M,M,M,RJSF 200300Z 34005G15KT 260V030 9999 FEW025 17/11 Q1025
RJSI,2020-10-20 03:00,141.1353,39.4286,64.40,39.20,39.43,M,2.00,0.00,30.24,M,6.21,M,FEW,M,M,M,3000.00,M,M,M,M,M,M,M,M,M,M,M,RJSI 200300Z VRB02KT 9999 FEW030 18/04 Q1024
RJSM,2020-10-20 03:00,141.3684,40.7032,62.60,41.00,45.04,350.00,9.00,0.00,30.27,M,6.21,M,FEW,M,M,M,4000.00,M,M,M,M,M,M,M,M,M,M,M,RJSM 200300Z 35009KT 310V010 9999 FEW040 17/05 Q1025
RJSN,2020-10-20 03:00,139.1117,37.9558,66.20,53.60,63.82,10.00,5.00,0.00,30.30,M,6.21,M,FEW,M,M,M,3000.00,M,M,M,M,M,M,M,M,M,M,M,RJSN 200300Z 01005KT 340V060 9999 FEW030 19/12 Q1026
RJSS,2020-10-20 03:00,140.9169,38.1397,66.20,46.40,48.83,80.00,4.00,0.00,30.24,M,6.21,M,FEW,SCT,M,M,3000.00,5000.00,M,M,M,M,M,M,M,M,M,M,RJSS 200300Z 08004KT 040V120 9999 FEW030 SCT050 19/08 Q1024
RJTF,2020-10-20 03:00,139.5281,35.6717,68.00,48.20,49.10,10.00,8.00,0.00,30.27,M,6.21,M,FEW,SCT,BKN,M,3000.00,18000.00,M,M,M,M,M,M,M,M,M,M,RJTF 200300Z 01008KT 9999 FEW030 SCT180 BKN/// 20/09 Q1025
RJTO,2020-10-20 03:00,139.3603,34.7819,66.20,53.60,63.82,30.00,17.00,0.00,30.21,M,6.21,M,FEW,BKN,BKN,M,3000.00,17000.00,M,M,M,M,M,M,M,M,M,M,RJTO 200300Z 03017KT 9999 FEW030 BKN170 BKN/// 19/12 Q1023
RJTT,2020-10-20 03:00,139.7811,35.5533,66.20,51.80,59.74,30.00,11.00,0.00,30.24,M,6.21,M,FEW,SCT,BKN,M,3000.00,17000.00,M,M,M,M,M,M,M,M,M,M,RJTT 200300Z 03011KT 9999 FEW030 SCT170 BKN/// 19/11 Q1024 NOSIG
RORS,2020-10-20 03:00,125.1447,24.8267,84.20,75.20,74.44,60.00,17.00,0.00,29.94,M,6.21,M,FEW,BKN,M,M,1700.00,M,M,M,M,M,M,M,M,M,M,92.45,RORS 200300Z 06017KT 9999 FEW017 BKN/// 29/24 Q1014
RJNS,2020-10-20 03:00,138.1894,34.7961,68.00,44.60,42.85,60.00,6.00,0.00,30.21,M,6.21,M,FEW,SCT,M,M,2500.00,18000.00,M,M,M,M,M,M,M,M,M,M,RJNS 200300Z 06006KT 020V100 9999 FEW025 SCT180 20/07 Q1023
RJBD,2020-10-20 03:00,135.3644,33.6622,71.60,50.00,46.43,330.00,3.00,0.00,30.18,M,6.21,M,FEW,SCT,M,M,3000.00,17000.00,M,M,M,M,M,M,M,M,M,M,RJBD 200300Z 33003KT 270V030 9999 FEW030 SCT170 22/10 Q1022
RJFG,2020-10-20 03:00,130.9917,30.6050,69.80,59.00,68.55,60.00,8.00,0.00,30.15,M,6.21,20.00,FEW,SCT,BKN,M,2500.00,9000.00,M,M,M,M,M,M,M,M,M,M,RJFG 200300Z 06008G20KT 350V110 9999 FEW025 SCT090 BKN/// 21/15 Q1021
RJTI,2020-10-20 03:00,139.8500,35.6300,66.20,51.80,59.74,20.00,7.00,0.00,30.24,M,6.21,M,FEW,BKN,M,M,3000.00,18000.00,M,M,M,M,M,M,M,M,M,M,RJTI 200300Z 02007KT 340V040 9999 FEW030 BKN180 19/11 Q1024
RJOS,2020-10-20 03:00,134.6092,34.1322,69.80,53.60,56.38,20.00,10.00,0.00,30.24,M,6.21,M,FEW,M,M,M,2500.00,M,M,M,M,M,M,M,M,M,M,M,RJOS 200300Z 02010KT 9999 FEW025 21/12 Q1024
RJSY,2020-10-20 03:00,139.7872,38.8122,64.40,50.00,59.50,330.00,5.00,0.00,30.30,M,6.21,M,FEW,M,M,M,5000.00,M,M,M,M,M,M,M,M,M,M,M,RJSY 200300Z 33005KT 280V020 9999 FEW050 18/10 Q1026
RORK,2020-10-20 03:00,131.3333,25.9167,84.20,73.40,70.08,60.00,17.00,0.00,29.97,M,6.21,M,NCD,M,M,M,M,M,M,M,M,M,M,M,M,M,M,90.94,RORK 200300Z AUTO 06017KT 9999 NCD 29/23 Q1015
ROYN,2020-10-20 03:00,122.9780,24.4670,82.40,75.20,78.90,40.00,22.00,0.00,29.97,M,6.21,M,BKN,M,M,M,1800.00,M,M,M,M,M,M,M,M,M,M,89.48,ROYN 200300Z AUTO 04022KT 9999 BKN018 28/24 Q1015
ROAH,2020-10-20 03:00,127.6458,26.1958,84.20,73.40,70.08,70.00,16.00,0.00,29.97,M,6.21,M,BKN,M,M,M,2500.00,M,M,M,-SHRA,M,M,M,M,M,M,90.94,ROAH 200300Z 07016KT 9999 -SHRA BKN025 29/23 Q1015
RJKN,2020-10-20 03:02,128.8813,27.8364,82.40,73.40,74.28,70.00,16.00,0.00,30.00,M,6.21,26.00,FEW,SCT,M,M,2100.00,6000.00,M,M,M,M,M,M,M,M,M,88.26,RJKN 200302Z AUTO 07016G26KT 9999 FEW021 SCT060 28/23 Q1016 RMK A3003
ROAH,2020-10-20 03:10,127.6458,26.1958,86.00,71.60,62.25,60.00,16.00,0.00,29.97,M,6.21,26.00,SCT,SCT,M,M,2500.00,M,M,M,M,M,M,M,M,M,M,91.92,ROAH 200310Z 06016G26KT 9999 SCT025 SCT/// 30/22 Q1015 RMK 4CU025 A2997
RODN,2020-10-20 03:14,127.7676,26.3556,86.00,71.60,62.25,60.00,21.00,0.00,29.98,M,10.00,M,SCT,M,M,M,2200.00,M,M,M,-RA,M,M,M,M,M,M,91.92,RODN 200314Z AUTO 06021KT 10SM -RA SCT022 30/22 A2998 RMK AO2 RAB14 SLPNO RVRNO $
RJAW,2020-10-20 03:20,141.3227,24.7840,82.40,77.00,83.77,170.00,11.00,0.00,29.85,M,6.21,M,SCT,SCT,BKN,M,1500.00,15000.00,23000.00,M,M,M,M,M,M,M,M,90.85,RJAW 200320Z 17011KT 9999 SCT015 SCT150 BKN230 28/25 Q1011 RMK 4CU015 4AC150 A2986
RJAA,2020-10-20 03:30,140.3856,35.7653,66.20,53.60,63.82,30.00,13.00,0.00,30.24,M,6.21,M,FEW,BKN,M,M,2000.00,M,M,M,M,M,M,M,M,M,M,M,RJAA 200330Z 03013KT 9999 FEW020 BKN/// 19/12 Q1024 NOSIG RMK 1CU020 A3025
RJCC,2020-10-20 03:30,141.6926,42.7742,60.80,41.00,48.00,360.00,6.00,0.00,30.21,M,6.21,M,FEW,SCT,M,M,3000.00,5000.00,M,M,M,M,M,M,M,M,M,M,RJCC 200330Z 36006KT 290V040 9999 FEW030 SCT050 16/05 Q1023 RMK 1CU030 3CU050 A3022
RJFF,2020-10-20 03:30,130.4517,33.5844,71.60,48.20,43.42,50.00,10.00,0.00,30.21,M,6.21,M,FEW,M,M,M,3000.00,M,M,M,M,M,M,M,M,M,M,M,RJFF 200330Z 05010KT 9999 FEW030 22/09 Q1023 NOSIG RMK 1CU030 A3022
RJBB,2020-10-20 03:30,135.2328,34.4342,68.00,55.40,64.04,20.00,6.00,0.00,30.21,M,6.21,M,FEW,M,M,M,2500.00,M,M,M,M,M,M,M,M,M,M,M,RJBB 200330Z 02006KT 9999 FEW025 20/13 Q1023 NOSIG
RJGG,2020-10-20 03:30,136.8054,34.8584,64.40,51.80,63.60,300.00,7.00,0.00,30.21,M,6.21,M,FEW,M,M,M,3000.00,M,M,M,M,M,M,M,M,M,M,M,RJGG 200330Z 30007KT 9999 FEW030 18/11 Q1023 NOSIG
RJTT,2020-10-20 03:30,139.7811,35.5533,66.20,51.80,59.74,30.00,12.00,0.00,30.24,M,6.21,M,FEW,BKN,M,M,3000.00,M,M,M,M,M,M,M,M,M,M,M,RJTT 200330Z 03012KT 9999 FEW030 BKN/// 19/11 Q1024 NOSIG RMK 1CU030 A3024
ROAH,2020-10-20 03:30,127.6458,26.1958,86.00,71.60,62.25,70.00,18.00,0.00,29.94,M,6.21,M,FEW,BKN,M,M,2500.00,M,M,M,M,M,M,M,M,M,M,91.92,ROAH 200330Z 07018KT 9999 FEW025 BKN/// 30/22 Q1014 RMK 2CU025 A2996
RJOI,2020-10-20 03:55,132.2357,34.1439,72.00,45.00,37.96,30.00,6.00,0.00,30.24,1024.00,6.21,M,FEW,M,M,M,2500.00,M,M,M,M,M,M,M,M,M,M,M,RJOI 200355Z 03006KT 9999 FEW025 22/07 A3024 RMK SLP240 T02220072
RJTY,2020-10-20 03:56,139.3485,35.7485,67.80,50.50,53.87,60.00,6.00,0.00,30.28,1025.60,10.00,M,CLR,M,M,M,M,M,M,M,M,M,M,M,M,M,M,M,RJTY 200356Z AUTO 06006KT 10SM CLR 20/10 A3028 RMK AO2 SLP256 T01990103 FZRANO $
RODN,2020-10-20 03:56,127.7676,26.3556,87.80,73.40,62.47,40.00,15.00,0.00,29.98,M,10.00,M,SCT,BKN,M,M,2000.00,10000.00,M,M,M,M,M,M,26.00,70.00,2020-10-20 03:15,95.86,RODN 200356Z 04015KT 10SM SCT020 BKN100 31/23 A2998 RMK PK WND 07026/15 RAB14 SLPNO RVRNO $
ROTM,2020-10-20 03:56,127.7565,26.2743,84.00,73.90,71.73,60.00,16.00,0.00,29.99,1014.10,6.21,23.00,FEW,SCT,SCT,M,2000.00,8000.00,18000.00,M,M,M,M,M,M,M,M,91.04,ROTM 200356Z 06016G23KT 9999 FEW020 SCT080 SCT180 29/23 A2999 RMK SLP141 T02890233
RJFR,2020-10-20 04:00,131.0350,33.8456,69.80,48.20,46.16,130.00,6.00,0.00,30.21,M,6.21,M,FEW,M,M,M,3000.00,M,M,M,M,M,M,M,M,M,M,M,RJFR 200400Z 13006KT 100V170 9999 FEW030 21/09 Q1023
RJSR,2020-10-20 04:00,140.3714,40.1919,62.60,46.40,55.37,280.00,7.00,0.00,30.27,M,6.21,M,FEW,M,M,M,4000.00,M,M,M,M,M,M,M,M,M,M,M,RJSR 200400Z 28007KT 230V320 9999 FEW040 17/08 Q1025
RJAA,2020-10-20 04:00,140.3856,35.7653,66.20,53.60,63.82,30.00,13.00,0.00,30.21,M,6.21,M,FEW,BKN,M,M,2000.00,M,M,M,M,M,M,M,M,M,M,M,RJAA 200400Z 03013KT 9999 FEW020 BKN/// 19/12 Q1023 NOSIG
RJAF,2020-10-20 04:00,137.9228,36.1667,59.00,44.60,58.77,350.00,5.00,0.00,30.27,M,6.21,M,FEW,M,M,M,3000.00,M,M,M,M,M,M,M,M,M,M,M,RJAF 200400Z 35005KT 290V030 9999 FEW030 15/07 Q1025
RJAH,2020-10-20 04:00,140.4147,36.1817,66.20,50.00,55.88,50.00,12.00,0.00,30.24,M,6.21,M,FEW,BKN,M,M,3000.00,23000.00,M,M,M,M,M,M,M,M,M,M,RJAH 200400Z 05012KT 9999 FEW030 BKN230 19/10 Q1024
RJBT,2020-10-20 04:00,134.7869,35.5128,68.00,51.80,56.13,20.00,5.00,0.00,30.24,M,6.21,M,FEW,SCT,M,M,3000.00,4000.00,M,M,M,M,M,M,M,M,M,M,RJBT 200400Z 02005KT 340V060 9999 FEW030 SCT040 20/11 Q1024
RJCB,2020-10-20 04:00,143.2172,42.7333,60.80,33.80,36.16,360.00,11.00,0.00,30.15,M,6.21,M,FEW,M,M,M,6000.00,M,M,M,M,M,M,M,M,M,M,M,RJCB 200400Z 36011KT 320V030 9999 FEW060 16/01 Q1021
RJCC,2020-10-20 04:00,141.6926,42.7742,60.80,41.00,48.00,340.00,4.00,0.00,30.21,M,6.21,M,FEW,BKN,M,M,3000.00,6000.00,M,M,M,M,M,M,M,M,M,M,RJCC 200400Z 34004KT 300V020 9999 FEW030 BKN060 16/05 Q1023
RJCH,2020-10-20 04:00,140.8219,41.7700,62.60,42.80,48.28,260.00,10.00,0.00,30.24,M,6.21,M,FEW,SCT,M,M,3000.00,6000.00,M,M,M,M,M,M,M,M,M,M,RJCH 200400Z 26010KT 220V300 9999 FEW030 SCT060 17/06 Q1024
RJCK,2020-10-20 04:00,144.1931,43.0408,59.00,42.80,54.86,180.00,12.00,0.00,30.15,M,6.21,M,FEW,SCT,M,M,5000.00,7000.00,M,M,M,M,M,M,M,M,M,M,RJCK 200400Z 18012KT 9999 FEW050 SCT070 15/06 Q1021
RJCM,2020-10-20 04:00,144.1642,43.8806,53.60,39.20,58.02,10.00,9.00,0.00,30.21,M,6.21,M,FEW,SCT,M,M,2000.00,3000.00,M,M,M,M,M,M,M,M,M,M,RJCM 200400Z 01009KT 9999 FEW020 SCT030 12/04 Q1023
RJCN,2020-10-20 04:00,144.9600,43.5775,59.00,41.00,51.18,340.00,6.00,0.00,30.18,M,6.21,M,FEW,M,M,M,3000.00,M,M,M,M,M,M,M,M,M,M,M,RJCN 200400Z 34006KT 290V020 9999 FEW030 15/05 Q1022
RJCO,2020-10-20 04:00,141.3814,43.1175,60.80,44.60,55.12,330.00,12.00,0.00,30.24,M,6.21,M,FEW,BKN,M,M,2000.00,5000.00,M,M,M,M,M,M,M,M,M,M,RJCO 200400Z 33012KT 9999 FEW020 BKN050 16/07 Q1024
RJCW,2020-10-20 04:00,141.8022,45.4044,50.00,35.60,57.52,340.00,3.00,0.00,30.21,M,6.21,M,FEW,M,M,M,3500.00,M,M,M,M,M,M,M,M,M,M,M,RJCW 200400Z 34003KT 270V080 9999 FEW035 10/02 Q1023
RJDT,2020-10-20 04:00,129.3306,34.2850,71.60,51.80,49.64,70.00,9.00,0.00,30.24,M,6.21,M,FEW,M,M,M,4000.00,M,M,M,M,M,M,M,M,M,M,M,RJDT 200400Z 07009KT 010V110 9999 FEW040 22/11 Q1024
RJEB,2020-10-20 04:00,143.4040,44.3039,51.80,39.20,61.99,350.00,7.00,0.00,30.21,M,6.21,M,FEW,SCT,M,M,3000.00,4000.00,M,M,M,M,M,M,M,M,M,M,RJEB 200400Z 35007KT 9999 FEW030 SCT040 11/04 Q1023
RJEC,2020-10-20 04:00,142.4475,43.6708,55.40,32.00,40.84,320.00,11.00,0.00,30.18,M,6.21,M,FEW,SCT,M,M,3000.00,5000.00,M,M,M,M,M,M,M,M,M,M,RJEC 200400Z 32011KT 9999 FEW030 SCT050 13/00 Q1022
RJFE,2020-10-20 04:00,128.8328,32.6664,71.60,51.80,49.64,30.00,12.00,0.00,30.18,M,6.21,M,M,M,M,M,M,M,M,M,M,M,M,M,M,M,M,M,RJFE 200400Z 03012KT CAVOK 22/11 Q1022
RJFF,2020-10-20 04:00,130.4517,33.5844,71.60,41.00,33.00,60.00,10.00,0.00,30.21,M,6.21,M,FEW,M,M,M,3000.00,M,M,M,M,M,M,M,M,M,M,M,RJFF 200400Z 06010KT 030V110 9999 FEW030 22/05 Q1023 BECMG 05009KT
RJFK,2020-10-20 04:00,130.7194,31.8033,71.60,44.60,37.89,100.00,11.00,0.00,30.15,M,6.21,M,FEW,M,M,M,2500.00,M,M,M,M,M,M,M,M,M,M,M,RJFK 200400Z 10011KT 9999 FEW025 22/07 Q1021
RJFM,2020-10-20 04:00,131.4486,31.8772,71.60,55.40,56.63,40.00,13.00,0.00,30.18,M,6.21,M,FEW,M,M,M,4000.00,M,M,M,M,M,M,M,M,M,M,M,RJFM 200400Z 04013KT 9999 FEW040 22/13 Q1022
RJFO,2020-10-20 04:00,131.7372,33.4794,69.80,48.20,46.16,20.00,9.00,0.00,30.21,M,6.21,M,FEW,M,M,M,3000.00,M,M,M,M,M,M,M,M,M,M,M,RJFO 200400Z 02009KT 9999 FEW030 21/09 Q1023
RJAW,2020-10-20 04:00,141.3227,24.7840,82.40,77.00,83.77,170.00,12.00,0.00,29.83,M,6.21,M,SCT,SCT,BKN,M,1500.00,15000.00,23000.00,M,M,M,M,M,M,M,M,90.85,RJAW 200400Z 17012KT 9999 SCT015 SCT150 BKN230 28/25 Q1010 RMK 3CU015 4AC150 A2985
RJBB,2020-10-20 04:00,135.2328,34.4342,68.00,55.40,64.04,20.00,4.00,0.00,30.21,M,6.21,M,FEW,M,M,M,2500.00,M,M,M,M,M,M,M,M,M,M,M,RJBB 200400Z 02004KT 340V050 9999 FEW025 20/13 Q1023 NOSIG
RJBE,2020-10-20 04:00,135.2239,34.6328,66.20,55.40,68.15,190.00,4.00,0.00,30.21,M,6.21,M,FEW,M,M,M,2500.00,M,M,M,M,M,M,M,M,M,M,M,RJBE 200400Z 19004KT 160V230 9999 FEW025 19/13 Q1023
RJNK,2020-10-20 04:00,136.4075,36.3939,71.60,46.40,40.57,40.00,14.00,0.00,30.24,M,6.21,M,FEW,M,M,M,3000.00,M,M,M,M,M,M,M,M,M,M,M,RJNK 200400Z 04014KT 010V070 9999 FEW030 22/08 Q1024
RJNT,2020-10-20 04:00,137.1875,36.6483,69.80,42.80,37.61,360.00,13.00,0.00,30.24,M,6.21,M,FEW,M,M,M,3500.00,M,M,M,M,M,M,M,M,M,M,M,RJNT 200400Z 36013KT 9999 FEW035 21/06 Q1024
RJNW,2020-10-20 04:00,136.9618,37.2931,68.00,50.00,52.51,60.00,9.00,0.00,30.27,M,6.21,M,FEW,SCT,M,M,3000.00,4000.00,M,M,M,M,M,M,M,M,M,M,RJNW 200400Z 06009KT 360V090 9999 FEW030 SCT040 20/10 Q1025
RJOA,2020-10-20 04:00,132.9194,34.4361,68.00,48.20,49.10,140.00,6.00,0.00,30.24,M,6.21,M,FEW,M,M,M,3500.00,M,M,M,M,M,M,M,M,M,M,M,RJOA 200400Z 14006KT 100V200 9999 FEW035 20/09 Q1024
RJOB,2020-10-20 04:00,133.8553,34.7569,69.80,46.40,43.13,M,2.00,0.00,30.24,M,6.21,M,FEW,M,M,M,3000.00,M,M,M,M,M,M,M,M,M,M,M,RJOB 200400Z VRB02KT 9999 FEW030 21/08 Q1024
RJOC,2020-10-20 04:00,132.8900,35.4136,69.80,51.80,52.77,30.00,6.00,0.00,30.24,M,6.21,M,FEW,M,M,M,3500.00,M,M,M,M,M,M,M,M,M,M,M,RJOC 200400Z 03006KT 9999 FEW035 21/11 Q1024
RJOH,2020-10-20 04:00,133.2392,35.4933,69.80,51.80,52.77,40.00,7.00,0.00,30.27,M,6.21,M,FEW,M,M,M,4000.00,M,M,M,M,M,M,M,M,M,M,M,RJOH 200400Z 04007KT 9999 FEW040 21/11 Q1025
RJKA,2020-10-20 04:00,129.7125,28.4308,78.80,71.60,78.62,50.00,21.00,0.00,30.00,M,6.21,M,FEW,BKN,M,M,1500.00,2000.00,M,M,M,M,M,M,M,M,M,M,RJKA 200400Z 05021KT 9999 FEW015 BKN020 26/22 Q1016
RJOK,2020-10-20 04:00,133.6694,33.5461,73.40,48.20,40.85,200.00,9.00,0.00,30.15,M,6.21,M,FEW,M,M,M,3500.00,M,M,M,M,M,M,M,M,M,M,M,RJOK 200400Z 20009KT 9999 FEW035 23/09 Q1021
RJFU,2020-10-20 04:00,129.9136,32.9169,73.40,50.00,43.69,40.00,4.00,0.00,30.15,M,6.21,M,FEW,M,M,M,3000.00,M,M,M,M,M,M,M,M,M,M,M,RJFU 200400Z 04004KT 350V100 9999 FEW030 23/10 Q1021
RJGG,2020-10-20 04:00,136.8054,34.8584,66.20,51.80,59.74,310.00,7.00,0.00,30.21,M,6.21,M,FEW,M,M,M,3000.00,M,M,M,M,M,M,M,M,M,M,M,RJGG 200400Z 31007KT 9999 FEW030 19/11 Q1023 BECMG 24006KT
RJKI,2020-10-20 04:00,129.9281,28.3213,78.80,71.60,78.62,50.00,18.00,0.00,30.00,M,6.21,M,BKN,BKN,OVC,M,2300.00,3600.00,4500.00,M,M,M,M,M,M,M,M,M,RJKI 200400Z AUTO 05018KT 9999 BKN023 BKN036 OVC045 26/22 Q1016
ROIG,2020-10-20 04:00,124.1633,24.3367,86.00,77.00,74.61,50.00,21.00,0.00,29.91,M,6.21,M,FEW,BKN,M,M,1700.00,M,M,M,M,M,M,M,M,M,M,97.15,ROIG 200400Z 05021KT 9999 FEW017 BKN/// 30/25 Q1013
ROMD,2020-10-20 04:00,131.2286,25.8289,82.40,73.40,74.28,50.00,13.00,0.00,29.94,M,6.21,M,SCT,M,M,M,1800.00,M,M,M,M,M,M,M,M,M,M,88.26,ROMD 200400Z AUTO 05013KT 9999 SCT018 28/23 Q1014
ROMY,2020-10-20 04:00,125.2767,24.7933,84.20,75.20,74.44,50.00,17.00,0.00,29.91,M,6.21,M,FEW,SCT,BKN,M,1500.00,2000.00,M,M,M,M,M,M,M,M,M,92.45,ROMY 200400Z 05017KT 9999 FEW015 SCT020 BKN/// 29/24 Q1013
RORY,2020-10-20 04:00,128.4020,27.0440,84.20,73.40,70.08,60.00,14.00,0.00,29.97,M,6.21,M,BKN,M,M,M,1800.00,M,M,M,M,M,M,M,M,M,M,90.94,RORY 200400Z AUTO 06014KT 040V100 9999 BKN018 29/23 Q1015
RJDC,2020-10-20 04:00,131.2786,33.9300,69.80,50.00,49.37,130.00,8.00,0.00,30.21,M,6.21,M,M,M,M,M,M,M,M,M,M,M,M,M,M,M,M,M,RJDC 200400Z 13008KT CAVOK 21/10 Q1023
RJOM,2020-10-20 04:00,132.6997,33.8272,73.40,53.60,49.90,10.00,14.00,0.00,30.18,M,6.21,M,FEW,M,M,M,3000.00,M,M,M,M,M,M,M,M,M,M,M,RJOM 200400Z 01014KT 9999 FEW030 23/12 Q1022
RJFS,2020-10-20 04:00,130.3000,33.1500,75.20,48.20,38.46,40.00,12.00,0.00,30.15,M,6.21,M,M,M,M,M,M,M,M,M,M,M,M,M,M,M,M,M,RJFS 200400Z 04012KT 360V070 CAVOK 24/09 Q1021
RJFT,2020-10-20 04:00,130.8553,32.8372,75.20,42.80,31.34,40.00,11.00,0.00,30.15,M,6.21,M,M,M,M,M,M,M,M,M,M,M,M,M,M,M,M,M,RJFT 200400Z 04011KT CAVOK 24/06 Q1021
RJOT,2020-10-20 04:00,134.0167,34.2167,68.00,51.80,56.13,60.00,8.00,0.00,30.24,M,6.21,M,FEW,M,M,M,2500.00,M,M,M,M,M,M,M,M,M,M,M,RJOT 200400Z 06008KT 010V100 9999 FEW025 20/11 Q1024
RJSK,2020-10-20 04:00,140.2167,39.6167,62.60,44.60,51.72,290.00,10.00,0.00,30.27,M,6.21,M,FEW,M,M,M,3000.00,M,M,M,M,M,M,M,M,M,M,M,RJSK 200400Z 29010KT 260V320 9999 FEW030 17/07 Q1025
RJOO,2020-10-20 04:00,135.4392,34.7844,71.60,55.40,56.63,M,2.00,0.00,30.18,M,6.21,M,FEW,M,M,M,3000.00,M,M,M,M,M,M,M,M,M,M,M,RJOO 200400Z VRB02KT 9999 FEW030 22/13 Q1022
RJOR,2020-10-20 04:00,134.1650,35.5300,69.80,55.40,60.21,320.00,9.00,0.00,30.24,M,6.21,M,FEW,M,M,M,4000.00,M,M,M,M,M,M,M,M,M,M,M,RJOR 200400Z 32009KT 9999 FEW040 21/13 Q1024
RJOW,2020-10-20 04:00,131.7903,34.6764,68.00,50.00,52.51,10.00,8.00,0.00,30.24,M,6.21,M,FEW,M,M,M,2000.00,M,M,M,M,M,M,M,M,M,M,M,RJOW 200400Z 01008KT 330V060 9999 FEW020 20/10 Q1024
RJOY,2020-10-20 04:00,135.6006,34.5967,71.60,51.80,49.64,350.00,6.00,0.00,30.21,M,6.21,M,FEW,M,M,M,3000.00,M,M,M,M,M,M,M,M,M,M,M,RJOY 200400Z 35006KT 300V070 9999 FEW030 22/11 Q1023
RJSA,2020-10-20 04:00,140.6886,40.7333,60.80,41.00,48.00,250.00,9.00,0.00,30.27,M,6.21,M,FEW,SCT,M,M,3000.00,4000.00,M,M,M,M,M,M,M,M,M,M,RJSA 200400Z 25009KT 9999 FEW030 SCT040 16/05 Q1025
RJSC,2020-10-20 04:00,140.3711,38.4119,64.40,50.00,59.50,M,2.00,0.00,30.27,M,6.21,M,FEW,M,M,M,4000.00,M,M,M,M,M,M,M,M,M,M,M,RJSC 200400Z VRB02KT 9999 FEW040 18/10 Q1025
RJSF,2020-10-20 04:00,140.4281,37.2275,64.40,48.20,55.63,360.00,5.00,0.00,30.24,M,6.21,M,FEW,SCT,M,M,3000.00,4000.00,M,M,M,M,M,M,M,M,M,M,RJSF 200400Z 36005KT 310V040 9999 FEW030 SCT040 18/09 Q1024
RJSI,2020-10-20 04:00,141.1353,39.4286,66.20,39.20,37.03,M,2.00,0.00,30.24,M,6.21,M,FEW,M,M,M,3000.00,M,M,M,M,M,M,M,M,M,M,M,RJSI 200400Z VRB02KT 9999 FEW030 19/04 Q1024
RJSM,2020-10-20 04:00,141.3684,40.7032,64.40,41.00,42.28,330.00,8.00,0.00,30.24,M,6.21,M,SCT,M,M,M,4000.00,M,M,M,M,M,M,M,M,M,M,M,RJSM 200400Z 33008KT 300V010 9999 SCT040 18/05 Q1024
RJSN,2020-10-20 04:00,139.1117,37.9558,68.00,51.80,56.13,360.00,7.00,0.00,30.27,M,6.21,M,FEW,M,M,M,2000.00,M,M,M,M,M,M,M,M,M,M,M,RJSN 200400Z 36007KT 9999 FEW020 20/11 Q1025
RJSS,2020-10-20 04:00,140.9169,38.1397,66.20,50.00,55.88,120.00,8.00,0.00,30.24,M,6.21,M,FEW,SCT,M,M,3000.00,5000.00,M,M,M,M,M,M,M,M,M,M,RJSS 200400Z 12008KT 9999 FEW030 SCT050 19/10 Q1024
RJTF,2020-10-20 04:00,139.5281,35.6717,69.80,46.40,43.13,20.00,8.00,0.00,30.24,M,6.21,M,FEW,SCT,M,M,3000.00,M,M,M,M,M,M,M,M,M,M,M,RJTF 200400Z 02008KT 340V050 9999 FEW030 SCT/// 21/08 Q1024
RJTO,2020-10-20 04:00,139.3603,34.7819,66.20,53.60,63.82,40.00,16.00,0.00,30.21,M,6.21,M,FEW,BKN,BKN,M,3000.00,17000.00,M,M,M,M,M,M,M,M,M,M,RJTO 200400Z 04016KT 9999 FEW030 BKN170 BKN/// 19/12 Q1023
RJTT,2020-10-20 04:00,139.7811,35.5533,68.00,51.80,56.13,40.00,12.00,0.00,30.21,M,6.21,M,FEW,SCT,M,M,3000.00,M,M,M,M,M,M,M,M,M,M,M,RJTT 200400Z 04012KT 9999 FEW030 SCT/// 20/11 Q1023 NOSIG
RORS,2020-10-20 04:00,125.1447,24.8267,84.20,75.20,74.44,50.00,19.00,0.00,29.91,M,6.21,M,SCT,BKN,M,M,1900.00,M,M,M,M,M,M,M,M,M,M,92.45,RORS 200400Z 05019KT 9999 SCT019 BKN/// 29/24 Q1013
RJNS,2020-10-20 04:00,138.1894,34.7961,68.00,44.60,42.85,70.00,7.00,0.00,30.18,M,6.21,M,FEW,M,M,M,2500.00,M,M,M,M,M,M,M,M,M,M,M,RJNS 200400Z 07007KT 020V100 9999 FEW025 20/07 Q1022
RJBD,2020-10-20 04:00,135.3644,33.6622,73.40,48.20,40.85,290.00,5.00,0.00,30.15,M,6.21,M,FEW,SCT,M,M,3000.00,17000.00,M,M,M,M,M,M,M,M,M,M,RJBD 200400Z 29005KT 250V340 9999 FEW030 SCT170 23/09 Q1021
RJFG,2020-10-20 04:00,130.9917,30.6050,71.60,59.00,64.48,60.00,10.00,0.00,30.12,M,6.21,20.00,FEW,M,M,M,2500.00,M,M,M,M,M,M,M,M,M,M,M,RJFG 200400Z 06010G20KT 010V100 9999 FEW025 22/15 Q1020
RJTI,2020-10-20 04:00,139.8500,35.6300,69.80,53.60,56.38,50.00,10.00,0.00,30.21,M,6.21,M,FEW,SCT,M,M,3000.00,M,M,M,M,M,M,M,M,M,M,M,RJTI 200400Z 05010KT 9999 FEW030 SCT/// 21/12 Q1023
RJOS,2020-10-20 04:00,134.6092,34.1322,71.60,53.60,53.03,360.00,12.00,0.00,30.21,M,6.21,M,FEW,M,M,M,3000.00,M,M,M,M,M,M,M,M,M,M,M,RJOS 200400Z 36012KT 9999 FEW030 22/12 Q1023
RJSY,2020-10-20 04:00,139.7872,38.8122,66.20,42.80,42.57,310.00,6.00,0.00,30.27,M,6.21,M,FEW,M,M,M,5000.00,M,M,M,M,M,M,M,M,M,M,M,RJSY 200400Z 31006KT 270V010 9999 FEW050 19/06 Q1025
RORK,2020-10-20 04:00,131.3333,25.9167,84.20,73.40,70.08,60.00,18.00,0.00,29.94,M,6.21,M,FEW,M,M,M,1900.00,M,M,M,M,M,M,M,M,M,M,90.94,RORK 200400Z AUTO 06018KT 9999 FEW019 29/23 Q1014
ROYN,2020-10-20 04:00,122.9780,24.4670,80.60,77.00,88.83,30.00,23.00,0.00,29.94,M,4.97,M,SCT,BKN,BKN,M,1700.00,2500.00,3800.00,M,M,M,M,M,M,M,M,87.59,ROYN 200400Z AUTO 03023KT 8000 SCT017 BKN025 BKN038 27/25 Q1014
ROAH,2020-10-20 04:00,127.6458,26.1958,86.00,71.60,62.25,80.00,17.00,0.00,29.94,M,6.21,28.00,SCT,BKN,M,M,2500.00,M,M,M,M,M,M,M,M,M,M,91.92,ROAH 200400Z 08017G28KT 9999 SCT025 BKN/// 30/22 Q1014
RJKI,2020-10-20 04:03,129.9281,28.3213,80.60,71.60,74.11,50.00,17.00,0.00,30.00,M,6.21,27.00,BKN,BKN,OVC,M,2300.00,3200.00,4500.00,M,M,M,M,M,M,M,M,84.57,RJKI 200403Z AUTO 05017G27KT 9999 BKN023 BKN032 OVC045 27/22 Q1016 RMK A3002
RJKN,2020-10-20 04:03,128.8813,27.8364,82.40,71.60,69.90,60.00,15.00,0.00,29.97,M,6.21,25.00,FEW,M,M,M,2200.00,M,M,M,M,M,M,M,M,M,M,87.18,RJKN 200403Z AUTO 06015G25KT 9999 FEW022 28/22 Q1015 RMK A3000
RJAA,2020-10-20 04:30,140.3856,35.7653,66.20,53.60,63.82,30.00,11.00,0.00,30.21,M,6.21,M,FEW,BKN,M,M,2000.00,M,M,M,M,M,M,M,M,M,M,M,RJAA 200430Z 03011KT 010V070 9999 FEW020 BKN/// 19/12 Q1023 NOSIG RMK 2CU020 A3023
RJCC,2020-10-20 04:30,141.6926,42.7742,60.80,42.80,51.45,M,10.00,0.00,30.21,M,6.21,M,FEW,BKN,M,M,3000.00,6000.00,M,M,M,M,M,M,M,M,M,M,RJCC 200430Z VRB10KT 9999 FEW030 BKN060 16/06 Q1023 RMK 1CU030 7CU060 A3022
RJFF,2020-10-20 04:30,130.4517,33.5844,71.60,44.60,37.89,70.00,9.00,0.00,30.18,M,6.21,M,FEW,M,M,M,3000.00,M,M,M,M,M,M,M,M,M,M,M,RJFF 200430Z 07009KT 010V120 9999 FEW030 22/07 Q1022 BECMG 05009KT RMK 1CU030 A3020
RJBB,2020-10-20 04:30,135.2328,34.4342,68.00,53.60,59.97,20.00,5.00,0.00,30.21,M,6.21,M,FEW,M,M,M,2500.00,M,M,M,M,M,M,M,M,M,M,M,RJBB 200430Z 02005KT 340V040 9999 FEW025 20/12 Q1023 NOSIG
RJGG,2020-10-20 04:30,136.8054,34.8584,66.20,51.80,59.74,310.00,5.00,0.00,30.18,M,6.21,M,FEW,M,M,M,3000.00,M,M,M,M,M,M,M,M,M,M,M,RJGG 200430Z 31005KT 9999 FEW030 19/11 Q1022 BECMG TL0600 24006KT
RJTT,2020-10-20 04:30,139.7811,35.5533,68.00,53.60,59.97,40.00,10.00,0.00,30.21,M,6.21,M,FEW,SCT,M,M,3000.00,M,M,M,M,M,M,M,M,M,M,M,RJTT 200430Z 04010KT 9999 FEW030 SCT/// 20/12 Q1023 NOSIG RMK 1CU030 A3023
ROAH,2020-10-20 04:30,127.6458,26.1958,86.00,71.60,62.25,60.00,17.00,0.00,29.94,M,6.21,M,SCT,BKN,M,M,2500.00,M,M,M,M,M,M,M,M,M,M,91.92,ROAH 200430Z 06017KT 9999 SCT025 BKN/// 30/22 Q1014 RMK 3CU025 A2995
RJTK,2020-10-20 04:36,139.9097,35.3983,68.00,51.80,56.13,20.00,12.00,0.00,30.21,M,6.21,M,FEW,SCT,M,M,3000.00,21000.00,M,M,M,M,M,M,M,M,M,M,RJTK 200436Z 02012KT 9999 FEW030 SCT210 20/11 Q1023 RMK 1CU030 4CI210 A3022
RORY,2020-10-20 04:37,128.4020,27.0440,82.40,73.40,74.28,70.00,15.00,0.00,29.97,M,6.21,25.00,FEW,M,M,M,1800.00,M,M,M,M,M,M,M,M,M,M,88.26,RORY 200437Z AUTO 07015G25KT 9999 FEW018 28/23 Q1015 RMK A2997
RJAW,2020-10-20 04:45,141.3227,24.7840,82.40,77.00,83.77,170.00,12.00,0.00,29.83,M,6.21,M,FEW,BKN,BKN,M,1000.00,1500.00,15000.00,M,M,M,M,M,M,M,M,90.85,RJAW 200445Z 17012KT 9999 FEW010 BKN015 BKN150 28/25 Q1010 RMK 1CU010 5CU015 7AC150 A2983
RJOI,2020-10-20 04:55,132.2357,34.1439,72.00,46.90,40.79,70.00,4.00,0.00,30.22,1023.30,6.21,M,FEW,M,M,M,3500.00,M,M,M,M,M,M,M,M,M,M,M,RJOI 200455Z 07004KT 9999 FEW035 22/08 A3022 RMK SLP233 T02220083
RJTY,2020-10-20 04:56,139.3485,35.7485,68.40,48.40,48.79,70.00,9.00,0.00,30.27,1025.40,10.00,M,CLR,M,M,M,M,M,M,M,M,M,M,M,M,M,M,M,RJTY 200456Z AUTO 07009KT 10SM CLR 20/09 A3027 RMK AO2 SLP254 T02020091 FZRANO $
RODN,2020-10-20 04:56,127.7676,26.3556,86.00,73.40,66.15,40.00,14.00,0.00,29.99,M,10.00,M,SCT,BKN,M,M,2000.00,10000.00,M,M,M,M,M,M,M,M,M,93.45,RODN 200456Z 04014KT 10SM SCT020 BKN100 30/23 A2999 RMK AO2A SLPNO RVRNO $
ROTM,2020-10-20 04:56,127.7565,26.2743,82.00,73.00,74.24,70.00,17.00,0.00,29.97,1013.40,6.21,24.00,SCT,SCT,BKN,M,2100.00,8000.00,18000.00,M,M,M,M,M,M,M,M,87.39,ROTM 200456Z 07017G24KT 9999 SCT021 SCT080 BKN180 28/23 A2997 RMK SLP134 T02780228
RJFR,2020-10-20 05:00,131.0350,33.8456,69.80,46.40,43.13,140.00,5.00,0.00,30.21,M,6.21,M,M,M,M,M,M,M,M,M,M,M,M,M,M,M,M,M,RJFR 200500Z 14005KT CAVOK 21/08 Q1023
RJSR,2020-10-20 05:00,140.3714,40.1919,60.80,48.20,63.15,270.00,9.00,0.00,30.27,M,6.21,M,FEW,M,M,M,4000.00,M,M,M,M,M,M,M,M,M,M,M,RJSR 200500Z 27009KT 9999 FEW040 16/09 Q1025
RJAA,2020-10-20 05:00,140.3856,35.7653,68.00,53.60,59.97,40.00,14.00,0.00,30.21,M,6.21,M,FEW,SCT,M,M,3000.00,M,M,M,M,M,M,M,M,M,M,M,RJAA 200500Z 04014KT 9999 FEW030 SCT/// 20/12 Q1023 NOSIG
RJAF,2020-10-20 05:00,137.9228,36.1667,62.60,42.80,48.28,350.00,9.00,0.00,30.24,M,6.21,M,FEW,M,M,M,3500.00,M,M,M,M,M,M,M,M,M,M,M,RJAF 200500Z 35009KT 310V030 9999 FEW035 17/06 Q1024
RJAH,2020-10-20 05:00,140.4147,36.1817,68.00,46.40,45.88,60.00,12.00,0.00,30.21,M,6.21,M,FEW,M,M,M,3000.00,M,M,M,M,M,M,M,M,M,M,M,RJAH 200500Z 06012KT 9999 FEW030 20/08 Q1023
RJBT,2020-10-20 05:00,134.7869,35.5128,66.20,53.60,63.82,30.00,5.00,0.00,30.24,M,6.21,M,FEW,BKN,M,M,3000.00,3500.00,M,M,M,M,M,M,M,M,M,M,RJBT 200500Z 03005KT 010V080 9999 FEW030 BKN035 19/12 Q1024
RJCB,2020-10-20 05:00,143.2172,42.7333,60.80,33.80,36.16,360.00,12.00,0.00,30.18,M,6.21,M,FEW,M,M,M,6000.00,M,M,M,M,M,M,M,M,M,M,M,RJCB 200500Z 36012KT 9999 FEW060 16/01 Q1022
RJCC,2020-10-20 05:00,141.6926,42.7742,60.80,41.00,48.00,10.00,7.00,0.00,30.21,M,6.21,M,FEW,BKN,M,M,3000.00,6000.00,M,M,M,M,M,M,M,M,M,M,RJCC 200500Z 01007KT 9999 FEW030 BKN060 16/05 Q1023
RJCH,2020-10-20 05:00,140.8219,41.7700,62.60,42.80,48.28,260.00,11.00,0.00,30.21,M,6.21,M,FEW,SCT,M,M,2500.00,6000.00,M,M,M,M,M,M,M,M,M,M,RJCH 200500Z 26011KT 9999 FEW025 SCT060 17/06 Q1023
RJCK,2020-10-20 05:00,144.1931,43.0408,57.20,41.00,54.60,190.00,6.00,0.00,30.18,M,6.21,M,FEW,SCT,M,M,5000.00,7000.00,M,M,M,M,M,M,M,M,M,M,RJCK 200500Z 19006KT 9999 FEW050 SCT070 14/05 Q1022
RJCM,2020-10-20 05:00,144.1642,43.8806,53.60,37.40,54.07,350.00,7.00,0.00,30.21,M,6.21,M,FEW,M,M,M,3000.00,M,M,M,M,M,M,M,M,M,M,M,RJCM 200500Z 35007KT 310V020 9999 FEW030 12/03 Q1023
RJCN,2020-10-20 05:00,144.9600,43.5775,55.40,39.20,54.34,360.00,10.00,0.00,30.18,M,6.21,M,FEW,M,M,M,3000.00,M,M,M,M,M,M,M,M,M,M,M,RJCN 200500Z 36010KT 320V030 9999 FEW030 13/04 Q1022
RJCO,2020-10-20 05:00,141.3814,43.1175,59.00,42.80,54.86,330.00,12.00,0.00,30.24,M,6.21,M,FEW,SCT,M,M,3000.00,5000.00,M,M,M,M,M,M,M,M,M,M,RJCO 200500Z 33012KT 9999 FEW030 SCT050 15/06 Q1024
RJCW,2020-10-20 05:00,141.8022,45.4044,50.00,35.60,57.52,350.00,3.00,0.00,30.21,M,6.21,M,FEW,M,M,M,3500.00,M,M,M,M,M,M,M,M,M,M,M,RJCW 200500Z 35003KT 260V040 9999 FEW035 10/02 Q1023
RJDT,2020-10-20 05:00,129.3306,34.2850,69.80,50.00,49.37,70.00,11.00,0.00,30.21,M,6.21,M,SCT,M,M,M,4000.00,M,M,M,M,M,M,M,M,M,M,M,RJDT 200500Z 07011KT 020V110 9999 SCT040 21/10 Q1023
RJEB,2020-10-20 05:00,143.4040,44.3039,51.80,41.00,66.48,20.00,4.00,0.00,30.21,M,6.21,M,SCT,M,M,M,3000.00,M,M,M,M,M,M,M,M,M,M,M,RJEB 200500Z 02004KT 320V080 9999 SCT030 11/05 Q1023
RJEC,2020-10-20 05:00,142.4475,43.6708,57.20,30.20,35.57,280.00,7.00,0.00,30.21,M,6.21,M,FEW,SCT,M,M,3000.00,5000.00,M,M,M,M,M,M,M,M,M,M,RJEC 200500Z 28007KT 9999 FEW030 SCT050 14/M01 Q1023
RJFE,2020-10-20 05:00,128.8328,32.6664,71.60,50.00,46.43,50.00,10.00,0.00,30.15,M,6.21,M,M,M,M,M,M,M,M,M,M,M,M,M,M,M,M,M,RJFE 200500Z 05010KT 360V080 CAVOK 22/10 Q1021
RJFF,2020-10-20 05:00,130.4517,33.5844,73.40,41.00,31.05,60.00,9.00,0.00,30.18,M,6.21,M,FEW,M,M,M,3000.00,M,M,M,M,M,M,M,M,M,M,M,RJFF 200500Z 06009KT 020V120 9999 FEW030 23/05 Q1022 BECMG 08011KT
RJFK,2020-10-20 05:00,130.7194,31.8033,71.60,42.80,35.37,110.00,11.00,0.00,30.12,M,6.21,M,FEW,M,M,M,2500.00,M,M,M,M,M,M,M,M,M,M,M,RJFK 200500Z 11011KT 9999 FEW025 22/06 Q1020
RJFM,2020-10-20 05:00,131.4486,31.8772,71.60,53.60,53.03,50.00,13.00,0.00,30.15,M,6.21,M,FEW,M,M,M,4000.00,M,M,M,M,M,M,M,M,M,M,M,RJFM 200500Z 05013KT 9999 FEW040 22/12 Q1021
RJFO,2020-10-20 05:00,131.7372,33.4794,69.80,48.20,46.16,20.00,9.00,0.00,30.18,M,6.21,M,FEW,M,M,M,3000.00,M,M,M,M,M,M,M,M,M,M,M,RJFO 200500Z 02009KT 9999 FEW030 21/09 Q1022
RJAW,2020-10-20 05:00,141.3227,24.7840,82.40,78.80,88.90,170.00,11.00,0.00,29.83,M,6.21,M,FEW,BKN,BKN,M,1000.00,1500.00,15000.00,M,VCSH,M,M,M,M,M,M,92.76,RJAW 200500Z 17011KT 9999 VCSH FEW010 BKN015 BKN150 28/26 Q1010 RMK 1CU010 5CU015 7AC150 A2983
RJBB,2020-10-20 05:00,135.2328,34.4342,68.00,53.60,59.97,10.00,3.00,0.00,30.18,M,6.21,M,FEW,M,M,M,2500.00,M,M,M,M,M,M,M,M,M,M,M,RJBB 200500Z 01003KT 320V040 9999 FEW025 20/12 Q1022 NOSIG
RJBE,2020-10-20 05:00,135.2239,34.6328,69.80,57.20,64.26,230.00,5.00,0.00,30.18,M,6.21,M,FEW,M,M,M,3000.00,M,M,M,M,M,M,M,M,M,M,M,RJBE 200500Z 23005KT 9999 FEW030 21/14 Q1022
RJNK,2020-10-20 05:00,136.4075,36.3939,73.40,46.40,38.18,40.00,13.00,0.00,30.21,M,6.21,M,FEW,M,M,M,3000.00,M,M,M,M,M,M,M,M,M,M,M,RJNK 200500Z 04013KT 010V070 9999 FEW030 23/08 Q1023
RJNT,2020-10-20 05:00,137.1875,36.6483,69.80,44.60,40.29,360.00,12.00,0.00,30.24,M,6.21,M,FEW,M,M,M,3500.00,M,M,M,M,M,M,M,M,M,M,M,RJNT 200500Z 36012KT 9999 FEW035 21/07 Q1024
RJNW,2020-10-20 05:00,136.9618,37.2931,62.60,50.00,63.38,60.00,8.00,0.00,30.27,M,6.21,M,FEW,SCT,M,M,3000.00,4000.00,M,M,M,M,M,M,M,M,M,M,RJNW 200500Z 06008KT 9999 FEW030 SCT040 17/10 Q1025
RJOA,2020-10-20 05:00,132.9194,34.4361,66.20,44.60,45.60,130.00,4.00,0.00,30.21,M,6.21,M,FEW,M,M,M,4000.00,M,M,M,M,M,M,M,M,M,M,M,RJOA 200500Z 13004KT 9999 FEW040 19/07 Q1023
RJOB,2020-10-20 05:00,133.8553,34.7569,69.80,41.00,35.09,40.00,4.00,0.00,30.21,M,6.21,M,FEW,M,M,M,3000.00,M,M,M,M,M,M,M,M,M,M,M,RJOB 200500Z 04004KT 350V130 9999 FEW030 21/05 Q1023
RJOC,2020-10-20 05:00,132.8900,35.4136,69.80,50.00,49.37,10.00,9.00,0.00,30.24,M,6.21,M,FEW,M,M,M,3500.00,M,M,M,M,M,M,M,M,M,M,M,RJOC 200500Z 01009KT 9999 FEW035 21/10 Q1024
RJOH,2020-10-20 05:00,133.2392,35.4933,69.80,50.00,49.37,40.00,7.00,0.00,30.24,M,6.21,M,FEW,M,M,M,4000.00,M,M,M,M,M,M,M,M,M,M,M,RJOH 200500Z 04007KT 010V080 9999 FEW040 21/10 Q1024
RJKA,2020-10-20 05:00,129.7125,28.4308,80.60,73.40,78.76,60.00,21.00,0.00,30.00,M,6.21,M,FEW,SCT,BKN,M,1800.00,2000.00,5000.00,M,M,M,M,M,M,M,M,85.32,RJKA 200500Z 06021KT 9999 FEW018 SCT020 BKN050 27/23 Q1016
RJOK,2020-10-20 05:00,133.6694,33.5461,73.40,50.00,43.69,190.00,8.00,0.00,30.15,M,6.21,M,FEW,M,M,M,4000.00,M,M,M,M,M,M,M,M,M,M,M,RJOK 200500Z 19008KT 9999 FEW040 23/10 Q1021
RJFU,2020-10-20 05:00,129.9136,32.9169,75.20,48.20,38.46,M,5.00,0.00,30.12,M,6.21,M,M,M,M,M,M,M,M,M,M,M,M,M,M,M,M,M,RJFU 200500Z VRB05KT CAVOK 24/09 Q1020
RJGG,2020-10-20 05:00,136.8054,34.8584,68.00,51.80,56.13,300.00,4.00,0.00,30.18,M,6.21,M,FEW,M,M,M,3000.00,M,M,M,M,M,M,M,M,M,M,M,RJGG 200500Z 30004KT 9999 FEW030 20/11 Q1022 BECMG TL0600 24006KT
RJKI,2020-10-20 05:00,129.9281,28.3213,78.80,71.60,78.62,70.00,16.00,0.00,30.00,M,6.21,M,FEW,SCT,BKN,M,2300.00,3100.00,4000.00,M,M,M,M,M,M,M,M,M,RJKI 200500Z AUTO 07016KT 9999 FEW023 SCT031 BKN040 26/22 Q1016
ROIG,2020-10-20 05:00,124.1633,24.3367,86.00,77.00,74.61,50.00,20.00,0.00,29.88,M,6.21,M,FEW,BKN,M,M,1800.00,M,M,M,M,M,M,M,M,M,M,97.15,ROIG 200500Z 05020KT 9999 FEW018 BKN/// 30/25 Q1012
ROMD,2020-10-20 05:00,131.2286,25.8289,82.40,73.40,74.28,50.00,14.00,0.00,29.91,M,6.21,M,FEW,M,M,M,1900.00,M,M,M,M,M,M,M,M,M,M,88.26,ROMD 200500Z AUTO 05014KT 9999 FEW019 28/23 Q1013
ROMY,2020-10-20 05:00,125.2767,24.7933,82.40,73.40,74.28,50.00,16.00,0.00,29.88,M,6.21,M,SCT,SCT,M,M,1500.00,M,M,M,M,M,M,M,M,M,M,88.26,ROMY 200500Z 05016KT 9999 SCT015 SCT/// 28/23 Q1012
RORY,2020-10-20 05:00,128.4020,27.0440,82.40,71.60,69.90,70.00,15.00,0.00,29.94,M,6.21,M,BKN,M,M,M,1800.00,M,M,M,M,M,M,M,M,M,M,87.18,RORY 200500Z AUTO 07015KT 9999 BKN018 28/22 Q1014
RJDC,2020-10-20 05:00,131.2786,33.9300,71.60,50.00,46.43,140.00,8.00,0.00,30.21,M,6.21,M,M,M,M,M,M,M,M,M,M,M,M,M,M,M,M,M,RJDC 200500Z 14008KT CAVOK 22/10 Q1023
RJOM,2020-10-20 05:00,132.6997,33.8272,71.60,51.80,49.64,10.00,15.00,0.00,30.15,M,6.21,M,FEW,M,M,M,3000.00,M,M,M,M,M,M,M,M,M,M,M,RJOM 200500Z 01015KT 9999 FEW030 22/11 Q1021
RJFS,2020-10-20 05:00,130.3000,33.1500,77.00,46.40,33.85,30.00,11.00,0.00,30.15,M,6.21,M,M,M,M,M,M,M,M,M,M,M,M,M,M,M,M,M,RJFS 200500Z 03011KT 360V070 CAVOK 25/08 Q1021
RJFT,2020-10-20 05:00,130.8553,32.8372,75.20,42.80,31.34,40.00,13.00,0.00,30.12,M,6.21,M,M,M,M,M,M,M,M,M,M,M,M,M,M,M,M,M,RJFT 200500Z 04013KT CAVOK 24/06 Q1020
RJOT,2020-10-20 05:00,134.0167,34.2167,68.00,50.00,52.51,80.00,9.00,0.00,30.21,M,6.21,M,FEW,M,M,M,2500.00,M,M,M,M,M,M,M,M,M,M,M,RJOT 200500Z 08009KT 040V120 9999 FEW025 20/10 Q1023
RJSK,2020-10-20 05:00,140.2167,39.6167,62.60,44.60,51.72,270.00,12.00,0.00,30.27,M,6.21,M,FEW,M,M,M,4000.00,M,M,M,M,M,M,M,M,M,M,M,RJSK 200500Z 27012KT 9999 FEW040 17/07 Q1025
RJOO,2020-10-20 05:00,135.4392,34.7844,73.40,50.00,43.69,20.00,6.00,0.00,30.18,M,6.21,M,FEW,SCT,M,M,3000.00,6000.00,M,M,M,M,M,M,M,M,M,M,RJOO 200500Z 02006KT 350V060 9999 FEW030 SCT060 23/10 Q1022
RJOR,2020-10-20 05:00,134.1650,35.5300,69.80,55.40,60.21,350.00,7.00,0.00,30.24,M,6.21,M,FEW,M,M,M,4000.00,M,M,M,M,M,M,M,M,M,M,M,RJOR 200500Z 35007KT 9999 FEW040 21/13 Q1024
RJOW,2020-10-20 05:00,131.7903,34.6764,69.80,50.00,49.37,10.00,8.00,0.00,30.21,M,6.21,M,FEW,M,M,M,2000.00,M,M,M,M,M,M,M,M,M,M,M,RJOW 200500Z 01008KT 330V050 9999 FEW020 21/10 Q1023
RJOY,2020-10-20 05:00,135.6006,34.5967,73.40,51.80,46.71,60.00,7.00,0.00,30.18,M,6.21,M,FEW,M,M,M,3000.00,M,M,M,M,M,M,M,M,M,M,M,RJOY 200500Z 06007KT 360V100 9999 FEW030 23/11 Q1022
RJSA,2020-10-20 05:00,140.6886,40.7333,59.00,41.00,51.18,270.00,8.00,0.00,30.27,M,6.21,M,FEW,SCT,M,M,3000.00,4000.00,M,M,M,M,M,M,M,M,M,M,RJSA 200500Z 27008KT 220V310 9999 FEW030 SCT040 15/05 Q1025
RJSC,2020-10-20 05:00,140.3711,38.4119,66.20,39.20,37.03,340.00,8.00,0.00,30.24,M,6.21,M,FEW,M,M,M,5000.00,M,M,M,M,M,M,M,M,M,M,M,RJSC 200500Z 34008KT 280V040 9999 FEW050 19/04 Q1024
RJSF,2020-10-20 05:00,140.4281,37.2275,62.60,48.20,59.26,350.00,6.00,0.00,30.24,M,6.21,M,FEW,SCT,BKN,M,2000.00,4500.00,5000.00,M,M,M,M,M,M,M,M,M,RJSF 200500Z 35006KT 310V030 9999 FEW020 SCT045 BKN050 17/09 Q1024
RJSI,2020-10-20 05:00,141.1353,39.4286,64.40,42.80,45.32,350.00,4.00,0.00,30.24,M,6.21,M,FEW,M,M,M,3000.00,M,M,M,M,M,M,M,M,M,M,M,RJSI 200500Z 35004KT 260V050 9999 FEW030 18/06 Q1024
RJSM,2020-10-20 05:00,141.3684,40.7032,64.40,39.20,39.43,310.00,8.00,0.00,30.24,M,6.21,M,SCT,M,M,M,4000.00,M,M,M,M,M,M,M,M,M,M,M,RJSM 200500Z 31008KT 290V350 9999 SCT040 18/04 Q1024
RJSN,2020-10-20 05:00,139.1117,37.9558,68.00,50.00,52.51,360.00,7.00,0.00,30.27,M,6.21,M,FEW,M,M,M,3000.00,M,M,M,M,M,M,M,M,M,M,M,RJSN 200500Z 36007KT 9999 FEW030 20/10 Q1025
RJSS,2020-10-20 05:00,140.9169,38.1397,66.20,48.20,52.25,100.00,6.00,0.00,30.24,M,6.21,M,FEW,M,M,M,3000.00,M,M,M,M,M,M,M,M,M,M,M,RJSS 200500Z 10006KT 9999 FEW030 19/09 Q1024
RJTF,2020-10-20 05:00,139.5281,35.6717,69.80,44.60,40.29,60.00,8.00,0.00,30.21,M,6.21,M,FEW,SCT,M,M,3000.00,M,M,M,M,M,M,M,M,M,M,M,RJTF 200500Z 06008KT 350V090 9999 FEW030 SCT/// 21/07 Q1023
RJTO,2020-10-20 05:00,139.3603,34.7819,66.20,53.60,63.82,40.00,15.00,0.00,30.18,M,6.21,M,FEW,BKN,BKN,M,3000.00,17000.00,M,M,M,M,M,M,M,M,M,M,RJTO 200500Z 04015KT 010V070 9999 FEW030 BKN170 BKN/// 19/12 Q1022
RJTT,2020-10-20 05:00,139.7811,35.5533,68.00,53.60,59.97,60.00,9.00,0.00,30.21,M,6.21,M,FEW,M,M,M,3000.00,M,M,M,M,M,M,M,M,M,M,M,RJTT 200500Z 06009KT 9999 FEW030 20/12 Q1023 BECMG 08010KT
RORS,2020-10-20 05:00,125.1447,24.8267,86.00,77.00,74.61,50.00,18.00,0.00,29.88,M,6.21,M,FEW,SCT,M,M,1800.00,2500.00,M,M,M,M,M,M,M,M,M,97.15,RORS 200500Z 05018KT 9999 FEW018 SCT025 30/25 Q1012
RJNS,2020-10-20 05:00,138.1894,34.7961,68.00,48.20,49.10,60.00,6.00,0.00,30.18,M,6.21,M,FEW,M,M,M,2500.00,M,M,M,M,M,M,M,M,M,M,M,RJNS 200500Z 06006KT 010V120 9999 FEW025 20/09 Q1022
RJBD,2020-10-20 05:00,135.3644,33.6622,71.60,55.40,56.63,170.00,7.00,0.00,30.15,M,6.21,M,FEW,SCT,M,M,3500.00,17000.00,M,M,M,M,M,M,M,M,M,M,RJBD 200500Z 17007KT 120V220 9999 FEW035 SCT170 22/13 Q1021
RJFG,2020-10-20 05:00,130.9917,30.6050,71.60,59.00,64.48,70.00,10.00,0.00,30.09,M,6.21,M,FEW,M,M,M,2500.00,M,M,M,M,M,M,M,M,M,M,M,RJFG 200500Z 07010KT 010V140 9999 FEW025 22/15 Q1019
RJTI,2020-10-20 05:00,139.8500,35.6300,68.00,51.80,56.13,50.00,9.00,0.00,30.21,M,6.21,M,FEW,SCT,M,M,4000.00,M,M,M,M,M,M,M,M,M,M,M,RJTI 200500Z 05009KT 010V090 9999 FEW040 SCT/// 20/11 Q1023
RJOS,2020-10-20 05:00,134.6092,34.1322,71.60,53.60,53.03,20.00,10.00,0.00,30.18,M,6.21,M,FEW,M,M,M,3000.00,M,M,M,M,M,M,M,M,M,M,M,RJOS 200500Z 02010KT 9999 FEW030 22/12 Q1022
RJSY,2020-10-20 05:00,139.7872,38.8122,64.40,42.80,45.32,320.00,6.00,0.00,30.27,M,6.21,M,FEW,M,M,M,5000.00,M,M,M,M,M,M,M,M,M,M,M,RJSY 200500Z 32006KT 240V020 9999 FEW050 18/06 Q1025
RORK,2020-10-20 05:00,131.3333,25.9167,82.40,73.40,74.28,60.00,20.00,0.00,29.91,M,6.21,M,BKN,M,M,M,1900.00,M,M,M,M,M,M,M,M,M,M,88.26,RORK 200500Z AUTO 06020KT 9999 BKN019 28/23 Q1013
ROYN,2020-10-20 05:00,122.9780,24.4670,82.40,75.20,78.90,30.00,20.00,0.00,29.91,M,6.21,M,BKN,BKN,///,M,1400.00,2100.00,M,M,M,M,M,M,M,M,M,89.48,ROYN 200500Z AUTO 03020KT 9999 BKN014 BKN021 //////TCU 28/24 Q1013
ROAH,2020-10-20 05:00,127.6458,26.1958,84.20,71.60,65.95,70.00,17.00,0.00,29.91,M,6.21,27.00,FEW,BKN,M,M,2500.00,M,M,M,M,M,M,M,M,M,M,89.60,ROAH 200500Z 07017G27KT 9999 FEW025 BKN/// 29/22 Q1013
RJKI,2020-10-20 05:04,129.9281,28.3213,78.80,71.60,78.62,70.00,16.00,0.00,30.00,M,6.21,26.00,SCT,SCT,BKN,M,2300.00,3100.00,3800.00,M,M,M,M,M,M,M,M,M,RJKI 200504Z AUTO 07016G26KT 9999 SCT023 SCT031 BKN038 26/22 Q1016 RMK A3002
RJKN,2020-10-20 05:06,128.8813,27.8364,80.60,71.60,74.11,60.00,16.00,0.00,29.97,M,6.21,26.00,FEW,SCT,BKN,M,2100.00,3500.00,6000.00,M,M,M,M,M,M,M,M,84.57,RJKN 200506Z AUTO 06016G26KT 9999 FEW021 SCT035 BKN060 27/22 Q1015 RMK A2999
RJKI,2020-10-20 05:28,129.9281,28.3213,75.20,71.60,88.59,60.00,21.00,0.00,30.00,M,2.24,M,FEW,SCT,BKN,///,2100.00,2400.00,3600.00,M,BR,M,M,M,M,M,M,M,RJKI 200528Z AUTO 06021KT 3600 BR FEW021 SCT024 BKN036 //////TCU 24/22 Q1016 RMK A3002 TCU 40KM NW MOV SW
RJAA,2020-10-20 05:30,140.3856,35.7653,68.00,53.60,59.97,50.00,10.00,0.00,30.24,M,6.21,M,FEW,M,M,M,3000.00,M,M,M,M,M,M,M,M,M,M,M,RJAA 200530Z 05010KT 020V090 9999 FEW030 20/12 Q1024 NOSIG RMK 1CU030 A3024
RJCC,2020-10-20 05:30,141.6926,42.7742,60.80,41.00,48.00,360.00,9.00,0.00,30.21,M,6.21,M,FEW,SCT,M,M,3000.00,6000.00,M,M,M,M,M,M,M,M,M,M,RJCC 200530Z 36009KT 9999 FEW030 SCT060 16/05 Q1023 RMK 1CU030 3CU060 A3023
RJFF,2020-10-20 05:30,130.4517,33.5844,71.60,33.80,24.86,100.00,11.00,0.00,30.18,M,6.21,M,FEW,M,M,M,3000.00,M,M,M,M,M,M,M,M,M,M,M,RJFF 200530Z 10011KT 9999 FEW030 22/01 Q1022 NOSIG RMK 1CU030 A3018
RJBB,2020-10-20 05:30,135.2328,34.4342,69.80,55.40,60.21,350.00,3.00,0.00,30.18,M,6.21,M,FEW,M,M,M,2500.00,M,M,M,M,M,M,M,M,M,M,M,RJBB 200530Z 35003KT 320V040 9999 FEW025 21/13 Q1022 NOSIG
RJGG,2020-10-20 05:30,136.8054,34.8584,68.00,50.00,52.51,290.00,4.00,0.00,30.18,M,6.21,M,FEW,M,M,M,3000.00,M,M,M,M,M,M,M,M,M,M,M,RJGG 200530Z 29004KT 9999 FEW030 20/10 Q1022 BECMG TL0600 24006KT
RJTT,2020-10-20 05:30,139.7811,35.5533,68.00,55.40,64.04,70.00,11.00,0.00,30.21,M,6.21,M,FEW,M,M,M,3000.00,M,M,M,M,M,M,M,M,M,M,M,RJTT 200530Z 07011KT 9999 FEW030 20/13 Q1023 NOSIG RMK 1CU030 A3023
ROAH,2020-10-20 05:30,127.6458,26.1958,84.20,71.60,65.95,70.00,16.00,0.00,29.91,M,6.21,M,FEW,BKN,M,M,2500.00,M,M,M,M,M,M,M,M,M,M,89.60,ROAH 200530Z 07016KT 9999 FEW025 BKN/// 29/22 Q1013 RMK 2CU025 A2992
ROAH,2020-10-20 05:33,127.6458,26.1958,84.20,71.60,65.95,70.00,16.00,0.00,29.91,M,6.21,26.00,FEW,BKN,M,M,2500.00,M,M,M,M,M,M,M,M,M,M,89.60,ROAH 200533Z 07016G26KT 9999 FEW025 BKN/// 29/22 Q1013 RMK 2CU025 A2992
RODN,2020-10-20 05:35,127.7676,26.3556,84.20,71.60,65.95,70.00,23.00,0.00,29.94,M,10.00,27.00,SCT,BKN,M,M,2000.00,10000.00,M,M,M,M,M,M,M,M,M,89.60,RODN 200535Z 07023G27KT 10SM SCT020 BKN100 29/22 A2994 RMK PRESFR SLPNO $
RJAW,2020-10-20 05:50,141.3227,24.7840,80.60,78.80,94.27,180.00,10.00,0.00,29.83,M,6.21,M,FEW,SCT,BKN,M,1000.00,1500.00,15000.00,M,-SHRA,M,M,M,M,M,M,89.33,RJAW 200550Z 18010KT 9999 -SHRA FEW010 SCT015 BKN150 27/26 Q1010 RMK 1CU010 4CU015 7AC150 A2983
RJOI,2020-10-20 05:55,132.2357,34.1439,71.10,46.90,42.05,120.00,3.00,0.00,30.21,1022.90,6.21,M,FEW,M,M,M,3000.00,M,M,M,M,M,M,M,M,M,M,M,RJOI 200555Z 12003KT 9999 FEW030 22/08 A3021 RMK SLP229 T02170083 10228 20183 56020
RODN,2020-10-20 05:55,127.7676,26.3556,82.90,71.60,68.77,60.00,16.00,0.00,29.94,M,10.00,M,FEW,M,M,M,2400.00,M,M,M,M,M,M,M,27.00,70.00,2020-10-20 05:31,87.86,RODN 200555Z 06016KT 10SM FEW024 28/22 A2994 RMK AO2A PK WND 07027/31 SLPNO T02830220 10300 20276 $
RJTY,2020-10-20 05:56,139.3485,35.7485,68.00,47.50,47.82,70.00,6.00,0.00,30.28,1025.70,10.00,M,CLR,M,M,M,M,M,M,M,M,M,M,M,M,M,M,M,RJTY 200556Z AUTO 07006KT 10SM CLR 20/09 A3028 RMK AO2 SLP257 T02000086 10204 20157 55011 FZRANO $
ROTM,2020-10-20 05:56,127.7565,26.2743,84.00,73.00,69.59,60.00,17.00,0.00,29.95,1012.80,6.21,23.00,SCT,BKN,BKN,M,2000.00,8000.00,18000.00,M,M,M,M,M,M,M,M,90.34,ROTM 200556Z 06017G23KT 9999 SCT020 BKN080 BKN180 29/23 A2995 RMK SLP128 T02890228 10289 20278 56024
RJFR,2020-10-20 06:00,131.0350,33.8456,69.80,46.40,43.13,140.00,4.00,0.00,30.18,M,6.21,M,M,M,M,M,M,M,M,M,M,M,M,M,M,M,M,M,RJFR 200600Z 14004KT 110V200 CAVOK 21/08 Q1022
RJSR,2020-10-20 06:00,140.3714,40.1919,60.80,46.40,59.01,270.00,8.00,0.00,30.27,M,6.21,M,FEW,M,M,M,4000.00,M,M,M,M,M,M,M,M,M,M,M,RJSR 200600Z 27008KT 230V300 9999 FEW040 16/08 Q1025
RJAA,2020-10-20 06:00,140.3856,35.7653,68.00,50.00,52.51,40.00,11.00,0.00,30.24,M,6.21,M,FEW,M,M,M,3000.00,M,M,M,M,M,M,M,M,M,M,M,RJAA 200600Z 04011KT 9999 FEW030 20/10 Q1024 NOSIG
RJAF,2020-10-20 06:00,137.9228,36.1667,60.80,42.80,51.45,320.00,10.00,0.00,30.24,M,6.21,M,FEW,M,M,M,5000.00,M,M,M,M,M,M,M,M,M,M,M,RJAF 200600Z 32010KT 9999 FEW050 16/06 Q1024
RJAH,2020-10-20 06:00,140.4147,36.1817,66.20,48.20,52.25,70.00,12.00,0.00,30.21,M,6.21,M,FEW,M,M,M,3000.00,M,M,M,M,M,M,M,M,M,M,M,RJAH 200600Z 07012KT 9999 FEW030 19/09 Q1023
RJBT,2020-10-20 06:00,134.7869,35.5128,64.40,55.40,72.56,360.00,6.00,0.00,30.24,M,6.21,M,FEW,SCT,M,M,3000.00,3500.00,M,M,M,M,M,M,M,M,M,M,RJBT 200600Z 36006KT 9999 FEW030 SCT035 18/13 Q1024
RJCB,2020-10-20 06:00,143.2172,42.7333,59.00,33.80,38.56,350.00,8.00,0.00,30.18,M,6.21,M,FEW,M,M,M,6000.00,M,M,M,M,M,M,M,M,M,M,M,RJCB 200600Z 35008KT 9999 FEW060 15/01 Q1022
RJCC,2020-10-20 06:00,141.6926,42.7742,60.80,41.00,48.00,350.00,9.00,0.00,30.21,M,6.21,M,FEW,M,M,M,3000.00,M,M,M,M,M,M,M,M,M,M,M,RJCC 200600Z 35009KT 9999 FEW030 16/05 Q1023
RJCH,2020-10-20 06:00,140.8219,41.7700,62.60,42.80,48.28,270.00,11.00,0.00,30.24,M,6.21,M,FEW,SCT,M,M,3000.00,5000.00,M,M,M,M,M,M,M,M,M,M,RJCH 200600Z 27011KT 9999 FEW030 SCT050 17/06 Q1024
RJCK,2020-10-20 06:00,144.1931,43.0408,57.20,44.60,62.69,150.00,4.00,0.00,30.18,M,6.21,M,FEW,SCT,M,M,5000.00,8000.00,M,M,M,M,M,M,M,M,M,M,RJCK 200600Z 15004KT 100V200 9999 FEW050 SCT080 14/07 Q1022
RJCM,2020-10-20 06:00,144.1642,43.8806,53.60,39.20,58.02,10.00,9.00,0.00,30.24,M,6.21,M,FEW,SCT,M,M,3000.00,4000.00,M,M,M,M,M,M,M,M,M,M,RJCM 200600Z 01009KT 9999 FEW030 SCT040 12/04 Q1024
RJCN,2020-10-20 06:00,144.9600,43.5775,53.60,39.20,58.02,360.00,6.00,0.00,30.21,M,6.21,M,FEW,M,M,M,3000.00,M,M,M,M,M,M,M,M,M,M,M,RJCN 200600Z 36006KT 320V030 9999 FEW030 12/04 Q1023
RJCO,2020-10-20 06:00,141.3814,43.1175,59.00,42.80,54.86,330.00,12.00,0.00,30.27,M,6.21,M,FEW,SCT,M,M,3000.00,6000.00,M,M,M,M,M,M,M,M,M,M,RJCO 200600Z 33012KT 9999 FEW030 SCT060 15/06 Q1025
RJCW,2020-10-20 06:00,141.8022,45.4044,51.80,35.60,53.81,M,2.00,0.00,30.21,M,6.21,M,FEW,M,M,M,4000.00,M,M,M,M,M,M,M,M,M,M,M,RJCW 200600Z VRB02KT 9999 FEW040 11/02 Q1023
RJDT,2020-10-20 06:00,129.3306,34.2850,68.00,50.00,52.51,70.00,9.00,0.00,30.21,M,6.21,M,SCT,M,M,M,4000.00,M,M,M,M,M,M,M,M,M,M,M,RJDT 200600Z 07009KT 030V110 9999 SCT040 20/10 Q1023
RJEB,2020-10-20 06:00,143.4040,44.3039,50.00,42.80,76.18,M,2.00,0.00,30.24,M,6.21,M,SCT,M,M,M,3000.00,M,M,M,M,M,M,M,M,M,M,M,RJEB 200600Z VRB02KT 9999 SCT030 10/06 Q1024
RJEC,2020-10-20 06:00,142.4475,43.6708,55.40,28.40,35.28,300.00,9.00,0.00,30.21,M,6.21,M,FEW,M,M,M,3000.00,M,M,M,M,M,M,M,M,M,M,M,RJEC 200600Z 30009KT 9999 FEW030 13/M02 Q1023
RJFE,2020-10-20 06:00,128.8328,32.6664,71.60,50.00,46.43,40.00,10.00,0.00,30.15,M,6.21,M,M,M,M,M,M,M,M,M,M,M,M,M,M,M,M,M,RJFE 200600Z 04010KT 010V080 CAVOK 22/10 Q1021
RJFF,2020-10-20 06:00,130.4517,33.5844,71.60,35.60,26.71,70.00,7.00,0.00,30.18,M,6.21,M,FEW,M,M,M,3000.00,M,M,M,M,M,M,M,M,M,M,M,RJFF 200600Z 07007KT 030V100 9999 FEW030 22/02 Q1022 NOSIG
RJFK,2020-10-20 06:00,130.7194,31.8033,71.60,42.80,35.37,110.00,8.00,0.00,30.15,M,6.21,M,FEW,M,M,M,2500.00,M,M,M,M,M,M,M,M,M,M,M,RJFK 200600Z 11008KT 9999 FEW025 22/06 Q1021
RJFM,2020-10-20 06:00,131.4486,31.8772,73.40,51.80,46.71,50.00,12.00,0.00,30.15,M,6.21,M,FEW,M,M,M,4000.00,M,M,M,M,M,M,M,M,M,M,M,RJFM 200600Z 05012KT 9999 FEW040 23/11 Q1021
RJFO,2020-10-20 06:00,131.7372,33.4794,69.80,48.20,46.16,10.00,9.00,0.00,30.18,M,6.21,M,FEW,M,M,M,2500.00,M,M,M,M,M,M,M,M,M,M,M,RJFO 200600Z 01009KT 9999 FEW025 21/09 Q1022
RJAW,2020-10-20 06:00,141.3227,24.7840,80.60,78.80,94.27,180.00,9.00,0.00,29.83,M,6.21,M,FEW,SCT,BKN,M,1000.00,1500.00,15000.00,M,-SHRA,M,M,M,M,M,M,89.33,RJAW 200600Z 18009KT 9999 -SHRA FEW010 SCT015 BKN150 27/26 Q1010 RMK 1CU010 3CU015 7AC150 A2983
RJBB,2020-10-20 06:00,135.2328,34.4342,69.80,55.40,60.21,330.00,5.00,0.00,30.18,M,6.21,M,FEW,M,M,M,2500.00,M,M,M,M,M,M,M,M,M,M,M,RJBB 200600Z 33005KT 310V010 9999 FEW025 21/13 Q1022 NOSIG
RJBE,2020-10-20 06:00,135.2239,34.6328,69.80,57.20,64.26,270.00,6.00,0.00,30.18,M,6.21,M,FEW,M,M,M,3000.00,M,M,M,M,M,M,M,M,M,M,M,RJBE 200600Z 27006KT 9999 FEW030 21/14 Q1022
RJNK,2020-10-20 06:00,136.4075,36.3939,71.60,48.20,43.42,50.00,13.00,0.00,30.21,M,6.21,M,FEW,M,M,M,3000.00,M,M,M,M,M,M,M,M,M,M,M,RJNK 200600Z 05013KT 9999 FEW030 22/09 Q1023
RJNT,2020-10-20 06:00,137.1875,36.6483,69.80,46.40,43.13,10.00,10.00,0.00,30.24,M,6.21,M,FEW,M,M,M,3500.00,M,M,M,M,M,M,M,M,M,M,M,RJNT 200600Z 01010KT 9999 FEW035 21/08 Q1024
RJNW,2020-10-20 06:00,136.9618,37.2931,62.60,51.80,67.75,50.00,9.00,0.00,30.27,M,6.21,M,FEW,SCT,M,M,2500.00,3000.00,M,M,M,M,M,M,M,M,M,M,RJNW 200600Z 05009KT 010V080 9999 FEW025 SCT030 17/11 Q1025
RJOA,2020-10-20 06:00,132.9194,34.4361,66.20,46.40,48.83,150.00,4.00,0.00,30.21,M,6.21,M,FEW,M,M,M,4000.00,M,M,M,M,M,M,M,M,M,M,M,RJOA 200600Z 15004KT 090V210 9999 FEW040 19/08 Q1023
RJOB,2020-10-20 06:00,133.8553,34.7569,69.80,42.80,37.61,360.00,4.00,0.00,30.21,M,6.21,M,FEW,M,M,M,3500.00,M,M,M,M,M,M,M,M,M,M,M,RJOB 200600Z 36004KT 280V050 9999 FEW035 21/06 Q1023
RJOC,2020-10-20 06:00,132.8900,35.4136,69.80,50.00,49.37,10.00,11.00,0.00,30.21,M,6.21,M,FEW,M,M,M,3500.00,M,M,M,M,M,M,M,M,M,M,M,RJOC 200600Z 01011KT 9999 FEW035 21/10 Q1023
RJOH,2020-10-20 06:00,133.2392,35.4933,69.80,50.00,49.37,60.00,9.00,0.00,30.24,M,6.21,M,FEW,M,M,M,4000.00,M,M,M,M,M,M,M,M,M,M,M,RJOH 200600Z 06009KT 9999 FEW040 21/10 Q1024
RJKA,2020-10-20 06:00,129.7125,28.4308,78.80,71.60,78.62,60.00,21.00,0.00,30.00,M,6.21,M,FEW,BKN,M,M,1800.00,2000.00,M,M,VCSH,M,M,M,M,M,M,M,RJKA 200600Z 06021KT 9999 VCSH FEW018 BKN020 26/22 Q1016
RJOK,2020-10-20 06:00,133.6694,33.5461,73.40,51.80,46.71,190.00,5.00,0.00,30.15,M,6.21,M,FEW,M,M,M,4000.00,M,M,M,M,M,M,M,M,M,M,M,RJOK 200600Z 19005KT 160V260 9999 FEW040 23/11 Q1021
RJFU,2020-10-20 06:00,129.9136,32.9169,77.00,50.00,38.74,10.00,14.00,0.00,30.12,M,6.21,M,M,M,M,M,M,M,M,M,M,M,M,M,M,M,M,M,RJFU 200600Z 01014KT CAVOK 25/10 Q1020
RJGG,2020-10-20 06:00,136.8054,34.8584,68.00,50.00,52.51,280.00,3.00,0.00,30.18,M,6.21,M,FEW,M,M,M,3000.00,M,M,M,M,M,M,M,M,M,M,M,RJGG 200600Z 28003KT 240V310 9999 FEW030 20/10 Q1022 BECMG TL0630 24006KT
RJKI,2020-10-20 06:00,129.9281,28.3213,75.20,71.60,88.59,70.00,16.00,0.00,30.00,M,2.92,M,FEW,SCT,BKN,M,1700.00,2500.00,3700.00,M,-RA BR,M,M,M,M,M,M,M,RJKI 200600Z AUTO 07016KT 4700 -RA BR FEW017 SCT025 BKN037 24/22 Q1016
ROIG,2020-10-20 06:00,124.1633,24.3367,84.20,75.20,74.44,50.00,21.00,0.00,29.88,M,6.21,M,FEW,BKN,BKN,M,1700.00,3500.00,M,M,M,M,M,M,M,M,M,92.45,ROIG 200600Z 05021KT 9999 FEW017 BKN035 BKN/// 29/24 Q1012
ROMD,2020-10-20 06:00,131.2286,25.8289,80.60,73.40,78.76,50.00,13.00,0.00,29.91,M,6.21,M,BKN,M,M,M,1800.00,M,M,M,M,M,M,M,M,M,M,85.32,ROMD 200600Z AUTO 05013KT 9999 BKN018 27/23 Q1013
ROMY,2020-10-20 06:00,125.2767,24.7933,82.40,75.20,78.90,50.00,16.00,0.00,29.88,M,6.21,M,FEW,BKN,BKN,M,1500.00,2100.00,M,M,M,M,M,M,M,M,M,89.48,ROMY 200600Z 05016KT 9999 FEW015 BKN021 BKN/// 28/24 Q1012
RORY,2020-10-20 06:00,128.4020,27.0440,82.40,71.60,69.90,70.00,15.00,0.00,29.94,M,6.21,M,FEW,SCT,BKN,M,1900.00,2500.00,4200.00,M,M,M,M,M,M,M,M,87.18,RORY 200600Z AUTO 07015KT 9999 FEW019 SCT025 BKN042 28/22 Q1014
RJDC,2020-10-20 06:00,131.2786,33.9300,69.80,50.00,49.37,150.00,7.00,0.00,30.18,M,6.21,M,M,M,M,M,M,M,M,M,M,M,M,M,M,M,M,M,RJDC 200600Z 15007KT CAVOK 21/10 Q1022
RJOM,2020-10-20 06:00,132.6997,33.8272,73.40,55.40,53.29,20.00,13.00,0.00,30.15,M,6.21,M,FEW,M,M,M,3000.00,M,M,M,M,M,M,M,M,M,M,M,RJOM 200600Z 02013KT 9999 FEW030 23/13 Q1021
RJFS,2020-10-20 06:00,130.3000,33.1500,75.20,44.60,33.57,20.00,12.00,0.00,30.15,M,6.21,M,M,M,M,M,M,M,M,M,M,M,M,M,M,M,M,M,RJFS 200600Z 02012KT CAVOK 24/07 Q1021
RJFT,2020-10-20 06:00,130.8553,32.8372,75.20,44.60,33.57,30.00,12.00,0.00,30.15,M,6.21,M,M,M,M,M,M,M,M,M,M,M,M,M,M,M,M,M,RJFT 200600Z 03012KT CAVOK 24/07 Q1021
RJOT,2020-10-20 06:00,134.0167,34.2167,68.00,50.00,52.51,90.00,7.00,0.00,30.21,M,6.21,M,FEW,M,M,M,3000.00,M,M,M,M,M,M,M,M,M,M,M,RJOT 200600Z 09007KT 040V120 9999 FEW030 20/10 Q1023
RJSK,2020-10-20 06:00,140.2167,39.6167,62.60,44.60,51.72,290.00,10.00,0.00,30.27,M,6.21,M,FEW,M,M,M,4000.00,M,M,M,M,M,M,M,M,M,M,M,RJSK 200600Z 29010KT 9999 FEW040 17/07 Q1025
RJOO,2020-10-20 06:00,135.4392,34.7844,73.40,48.20,40.85,350.00,10.00,0.00,30.18,M,6.21,M,FEW,M,M,M,3000.00,M,M,M,M,M,M,M,M,M,M,M,RJOO 200600Z 35010KT 320V030 9999 FEW030 23/09 Q1022
RJOR,2020-10-20 06:00,134.1650,35.5300,68.00,53.60,59.97,10.00,6.00,0.00,30.24,M,6.21,M,FEW,M,M,M,4000.00,M,M,M,M,M,M,M,M,M,M,M,RJOR 200600Z 01006KT 9999 FEW040 20/12 Q1024
RJOW,2020-10-20 06:00,131.7903,34.6764,68.00,50.00,52.51,30.00,6.00,0.00,30.21,M,6.21,M,FEW,M,M,M,3500.00,M,M,M,M,M,M,M,M,M,M,M,RJOW 200600Z 03006KT 330V100 9999 FEW035 20/10 Q1023
RJOY,2020-10-20 06:00,135.6006,34.5967,73.40,50.00,43.69,30.00,6.00,0.00,30.18,M,6.21,M,FEW,M,M,M,3000.00,M,M,M,M,M,M,M,M,M,M,M,RJOY 200600Z 03006KT 350V090 9999 FEW030 23/10 Q1022
RJSA,2020-10-20 06:00,140.6886,40.7333,59.00,42.80,54.86,280.00,6.00,0.00,30.27,M,6.21,M,FEW,SCT,M,M,3000.00,4000.00,M,M,M,M,M,M,M,M,M,M,RJSA 200600Z 28006KT 240V340 9999 FEW030 SCT040 15/06 Q1025
RJSC,2020-10-20 06:00,140.3711,38.4119,64.40,42.80,45.32,350.00,10.00,0.00,30.27,M,6.21,M,FEW,M,M,M,5000.00,M,M,M,M,M,M,M,M,M,M,M,RJSC 200600Z 35010KT 9999 FEW050 18/06 Q1025
RJSF,2020-10-20 06:00,140.4281,37.2275,62.60,48.20,59.26,360.00,8.00,0.00,30.24,M,6.21,M,FEW,SCT,M,M,2000.00,5000.00,M,M,M,M,M,M,M,M,M,M,RJSF 200600Z 36008KT 9999 FEW020 SCT050 17/09 Q1024
RJSI,2020-10-20 06:00,141.1353,39.4286,64.40,41.00,42.28,20.00,6.00,0.00,30.24,M,6.21,M,FEW,M,M,M,3000.00,M,M,M,M,M,M,M,M,M,M,M,RJSI 200600Z 02006KT 9999 FEW030 18/05 Q1024
RJSM,2020-10-20 06:00,141.3684,40.7032,64.40,41.00,42.28,310.00,10.00,0.00,30.24,M,6.21,M,SCT,M,M,M,4000.00,M,M,M,M,M,M,M,M,M,M,M,RJSM 200600Z 31010KT 9999 SCT040 18/05 Q1024
RJSN,2020-10-20 06:00,139.1117,37.9558,68.00,46.40,45.88,10.00,9.00,0.00,30.27,M,6.21,M,FEW,M,M,M,3000.00,M,M,M,M,M,M,M,M,M,M,M,RJSN 200600Z 01009KT 9999 FEW030 20/08 Q1025
RJSS,2020-10-20 06:00,140.9169,38.1397,66.20,46.40,48.83,100.00,5.00,0.00,30.24,M,6.21,M,FEW,M,M,M,3000.00,M,M,M,M,M,M,M,M,M,M,M,RJSS 200600Z 10005KT 060V140 9999 FEW030 19/08 Q1024
RJTF,2020-10-20 06:00,139.5281,35.6717,69.80,48.20,46.16,80.00,5.00,0.00,30.21,M,6.21,M,FEW,M,M,M,3000.00,M,M,M,M,M,M,M,M,M,M,M,RJTF 200600Z 08005KT 020V130 9999 FEW030 21/09 Q1023
RJTO,2020-10-20 06:00,139.3603,34.7819,66.20,55.40,68.15,40.00,13.00,0.00,30.18,M,6.21,M,FEW,BKN,M,M,2000.00,18000.00,M,M,M,M,M,M,M,M,M,M,RJTO 200600Z 04013KT 9999 FEW020 BKN180 19/13 Q1022
RJTT,2020-10-20 06:00,139.7811,35.5533,68.00,55.40,64.04,70.00,10.00,0.00,30.21,M,6.21,M,FEW,SCT,M,M,3000.00,M,M,M,M,M,M,M,M,M,M,M,RJTT 200600Z 07010KT 9999 FEW030 SCT/// 20/13 Q1023 NOSIG
RORS,2020-10-20 06:00,125.1447,24.8267,84.20,77.00,79.04,60.00,18.00,0.00,29.88,M,6.21,M,SCT,BKN,M,M,1800.00,2300.00,M,M,M,M,M,M,M,M,M,94.16,RORS 200600Z 06018KT 9999 SCT018 BKN023 29/25 Q1012
RJNS,2020-10-20 06:00,138.1894,34.7961,68.00,46.40,45.88,60.00,6.00,0.00,30.18,M,6.21,M,FEW,SCT,M,M,2500.00,M,M,M,M,M,M,M,M,M,M,M,RJNS 200600Z 06006KT 360V090 9999 FEW025 SCT/// 20/08 Q1022
RJBD,2020-10-20 06:00,135.3644,33.6622,71.60,51.80,49.64,190.00,5.00,0.00,30.15,M,6.21,M,FEW,SCT,M,M,3000.00,18000.00,M,M,M,M,M,M,M,M,M,M,RJBD 200600Z 19005KT 110V230 9999 FEW030 SCT180 22/11 Q1021
RJFG,2020-10-20 06:00,130.9917,30.6050,69.80,59.00,68.55,70.00,8.00,0.00,30.12,M,6.21,M,FEW,M,M,M,2500.00,M,M,M,M,M,M,M,M,M,M,M,RJFG 200600Z 07008KT 310V120 9999 FEW025 21/15 Q1020
RJTI,2020-10-20 06:00,139.8500,35.6300,68.00,50.00,52.51,70.00,11.00,0.00,30.21,M,6.21,M,FEW,SCT,M,M,4000.00,M,M,M,M,M,M,M,M,M,M,M,RJTI 200600Z 07011KT 040V100 9999 FEW040 SCT/// 20/10 Q1023
RJOS,2020-10-20 06:00,134.6092,34.1322,71.60,53.60,53.03,10.00,8.00,0.00,30.18,M,6.21,M,FEW,M,M,M,3000.00,M,M,M,M,M,M,M,M,M,M,M,RJOS 200600Z 01008KT 340V040 9999 FEW030 22/12 Q1022
RJSY,2020-10-20 06:00,139.7872,38.8122,64.40,42.80,45.32,340.00,5.00,0.00,30.30,M,6.21,M,FEW,M,M,M,3000.00,M,M,M,M,M,M,M,M,M,M,M,RJSY 200600Z 34005KT 290V030 9999 FEW030 18/06 Q1026
RORK,2020-10-20 06:00,131.3333,25.9167,82.40,73.40,74.28,60.00,20.00,0.00,29.91,M,6.21,M,SCT,SCT,M,M,2000.00,2700.00,M,M,M,M,M,M,M,M,M,88.26,RORK 200600Z AUTO 06020KT 9999 SCT020 SCT027 28/23 Q1013
ROYN,2020-10-20 06:00,122.9780,24.4670,80.60,77.00,88.83,30.00,19.00,0.00,29.91,M,2.49,M,BKN,BKN,M,M,1400.00,2500.00,M,M,-RA BR,M,M,M,M,M,M,87.59,ROYN 200600Z AUTO 03019KT 4000 -RA BR BKN014 BKN025 27/25 Q1013
ROAH,2020-10-20 06:00,127.6458,26.1958,86.00,73.40,66.15,70.00,17.00,0.00,29.91,M,6.21,M,SCT,BKN,M,M,2500.00,M,M,M,M,M,M,M,M,M,M,93.45,ROAH 200600Z 07017KT 9999 SCT025 BKN/// 30/23 Q1013
RJKI,2020-10-20 06:05,129.9281,28.3213,75.20,71.60,88.59,70.00,14.00,0.00,30.00,M,6.21,M,FEW,SCT,BKN,M,1700.00,3100.00,4800.00,M,M,M,M,M,M,M,M,M,RJKI 200605Z AUTO 07014KT 9999 FEW017 SCT031 BKN048 24/22 Q1016 RMK A3001
ROYN,2020-10-20 06:05,122.9780,24.4670,78.80,77.00,94.23,30.00,18.00,0.00,29.91,M,4.35,M,BKN,M,M,M,1300.00,M,M,M,M,M,M,M,M,M,M,M,ROYN 200605Z AUTO 03018KT 7000 BKN013 26/25 Q1013 RMK A2992
ROYN,2020-10-20 06:07,122.9780,24.4670,78.80,77.00,94.23,30.00,18.00,0.00,29.91,M,2.49,M,BKN,BKN,BKN,M,1300.00,2000.00,2800.00,M,-RA BR,M,M,M,M,M,M,M,ROYN 200607Z AUTO 03018KT 4000 -RA BR BKN013 BKN020 BKN028 26/25 Q1013 RMK A2992
RJAT,2020-10-20 06:12,138.8764,35.3150,60.80,46.40,59.01,60.00,6.00,0.00,30.24,M,6.21,M,FEW,BKN,M,M,1500.00,5000.00,M,M,M,M,M,M,M,M,M,M,RJAT 200612Z 06006KT 9999 FEW015 BKN050 16/08 Q1024 RMK 2CU015 5SC050 A3024
ROYN,2020-10-20 06:25,122.9780,24.4670,78.80,77.00,94.23,40.00,21.00,0.00,29.91,M,6.21,M,FEW,SCT,BKN,///,1300.00,1700.00,2200.00,M,M,M,M,M,M,M,M,M,ROYN 200625Z AUTO 04021KT 9999 FEW013 SCT017 BKN022 //////TCU 26/25 Q1013 RMK A2991 TCU 35KM N MOV UNKNOWN
RJAA,2020-10-20 06:30,140.3856,35.7653,66.20,50.00,55.88,40.00,12.00,0.00,30.24,M,6.21,M,FEW,M,M,M,3000.00,M,M,M,M,M,M,M,M,M,M,M,RJAA 200630Z 04012KT 9999 FEW030 19/10 Q1024 NOSIG RMK 1CU030 A3024
RJCC,2020-10-20 06:30,141.6926,42.7742,59.00,42.80,54.86,360.00,9.00,0.00,30.24,M,6.21,M,FEW,M,M,M,3000.00,M,M,M,M,M,M,M,M,M,M,M,RJCC 200630Z 36009KT 9999 FEW030 15/06 Q1024 RMK 1CU030 A3025
RJFF,2020-10-20 06:30,130.4517,33.5844,71.60,39.20,30.77,100.00,10.00,0.00,30.18,M,6.21,M,FEW,M,M,M,3000.00,M,M,M,M,M,M,M,M,M,M,M,RJFF 200630Z 10010KT 9999 FEW030 22/04 Q1022 NOSIG RMK 1CU030 A3019
RJBB,2020-10-20 06:30,135.2328,34.4342,69.80,55.40,60.21,320.00,6.00,0.00,30.18,M,6.21,M,FEW,M,M,M,3000.00,M,M,M,M,M,M,M,M,M,M,M,RJBB 200630Z 32006KT 9999 FEW030 21/13 Q1022 BECMG 36008KT
RJGG,2020-10-20 06:30,136.8054,34.8584,68.00,48.20,49.10,220.00,3.00,0.00,30.18,M,6.21,M,FEW,M,M,M,3000.00,M,M,M,M,M,M,M,M,M,M,M,RJGG 200630Z 22003KT 9999 FEW030 20/09 Q1022 NOSIG
RJTT,2020-10-20 06:30,139.7811,35.5533,68.00,55.40,64.04,70.00,12.00,0.00,30.21,M,6.21,M,FEW,M,M,M,3000.00,M,M,M,M,M,M,M,M,M,M,M,RJTT 200630Z 07012KT 9999 FEW030 20/13 Q1023 NOSIG RMK 1CU030 A3023
ROAH,2020-10-20 06:30,127.6458,26.1958,84.20,71.60,65.95,70.00,17.00,0.00,29.91,M,6.21,M,SCT,BKN,M,M,2500.00,M,M,M,M,M,M,M,M,M,M,89.60,ROAH 200630Z 07017KT 9999 SCT025 BKN/// 29/22 Q1013 RMK 3CU025 A2992
ROAH,2020-10-20 06:33,127.6458,26.1958,84.20,73.40,70.08,70.00,17.00,0.00,29.91,M,6.21,28.00,SCT,BKN,M,M,2500.00,M,M,M,M,M,M,M,M,M,M,90.94,ROAH 200633Z 07017G28KT 9999 SCT025 BKN/// 29/23 Q1013 RMK 3CU025 A2992
RODN,2020-10-20 06:46,127.7676,26.3556,82.40,73.40,74.28,60.00,20.00,0.00,29.94,M,10.00,25.00,SCT,BKN,M,M,1900.00,2500.00,M,M,M,M,M,M,M,M,M,88.26,RODN 200646Z AUTO 06020G25KT 10SM SCT019 BKN025 28/23 A2994 RMK AO2 CIG 019V025 SLPNO $
RJOI,2020-10-20 06:55,132.2357,34.1439,71.10,48.00,43.83,110.00,3.00,0.00,30.21,1022.80,6.21,M,FEW,M,M,M,3000.00,M,M,M,M,M,M,M,M,M,M,M,RJOI 200655Z 11003KT 9999 FEW030 22/09 A3021 RMK SLP228 T02170089
RJTY,2020-10-20 06:56,139.3485,35.7485,66.20,49.10,54.04,70.00,6.00,0.00,30.28,1025.70,10.00,M,CLR,M,M,M,M,M,M,M,M,M,M,M,M,M,M,M,RJTY 200656Z AUTO 07006KT 10SM CLR 19/10 A3028 RMK AO2 SLP257 T01900095 FZRANO $
RODN,2020-10-20 06:56,127.7676,26.3556,82.80,72.30,70.65,60.00,18.00,0.00,29.94,M,10.00,27.00,SCT,M,M,M,1900.00,M,M,M,M,M,M,M,27.00,50.00,2020-10-20 06:47,88.16,RODN 200656Z AUTO 06018G27KT 10SM SCT019 28/22 A2994 RMK AO2 PK WND 05027/47 SLPNO T02820224 $
ROTM,2020-10-20 06:56,127.7565,26.2743,81.00,73.90,79.06,60.00,16.00,0.00,29.97,1013.20,6.21,22.00,SCT,BKN,BKN,M,2000.00,8000.00,18000.00,M,M,M,M,M,M,M,M,86.25,ROTM 200656Z 06016G22KT 9999 SCT020 BKN080 BKN180 27/23 A2997 RMK SLP132 T02720233
RJFR,2020-10-20 07:00,131.0350,33.8456,69.80,50.00,49.37,150.00,4.00,0.00,30.18,M,6.21,M,M,M,M,M,M,M,M,M,M,M,M,M,M,M,M,M,RJFR 200700Z 15004KT CAVOK 21/10 Q1022
RJSR,2020-10-20 07:00,140.3714,40.1919,57.20,48.20,71.83,250.00,6.00,0.00,30.27,M,6.21,M,FEW,M,M,M,4000.00,M,M,M,M,M,M,M,M,M,M,M,RJSR 200700Z 25006KT 9999 FEW040 14/09 Q1025
RJAA,2020-10-20 07:00,140.3856,35.7653,66.20,48.20,52.25,40.00,9.00,0.00,30.24,M,6.21,M,FEW,M,M,M,3000.00,M,M,M,M,M,M,M,M,M,M,M,RJAA 200700Z 04009KT 360V070 9999 FEW030 19/09 Q1024 NOSIG
RJAF,2020-10-20 07:00,137.9228,36.1667,59.00,42.80,54.86,320.00,6.00,0.00,30.27,M,6.21,M,FEW,M,M,M,5000.00,M,M,M,M,M,M,M,M,M,M,M,RJAF 200700Z 32006KT 9999 FEW050 15/06 Q1025
RJAH,2020-10-20 07:00,140.4147,36.1817,66.20,50.00,55.88,60.00,10.00,0.00,30.21,M,6.21,M,FEW,M,M,M,3000.00,M,M,M,M,M,M,M,M,M,M,M,RJAH 200700Z 06010KT 030V090 9999 FEW030 19/10 Q1023
RJBT,2020-10-20 07:00,134.7869,35.5128,64.40,55.40,72.56,360.00,5.00,0.00,30.24,M,6.21,M,FEW,M,M,M,2500.00,M,M,M,M,M,M,M,M,M,M,M,RJBT 200700Z 36005KT 320V030 9999 FEW025 18/13 Q1024
RJCB,2020-10-20 07:00,143.2172,42.7333,57.20,35.60,44.19,350.00,5.00,0.00,30.21,M,6.21,M,FEW,M,M,M,6000.00,M,M,M,M,M,M,M,M,M,M,M,RJCB 200700Z 35005KT 9999 FEW060 14/02 Q1023
RJCC,2020-10-20 07:00,141.6926,42.7742,57.20,41.00,54.60,360.00,7.00,0.00,30.24,M,6.21,M,FEW,M,M,M,3000.00,M,M,M,M,M,M,M,M,M,M,M,RJCC 200700Z 36007KT 9999 FEW030 14/05 Q1024
RJCH,2020-10-20 07:00,140.8219,41.7700,60.80,42.80,51.45,290.00,11.00,0.00,30.24,M,6.21,M,FEW,SCT,M,M,3000.00,6000.00,M,M,M,M,M,M,M,M,M,M,RJCH 200700Z 29011KT 9999 FEW030 SCT060 16/06 Q1024
RJCK,2020-10-20 07:00,144.1931,43.0408,55.40,39.20,54.34,80.00,5.00,0.00,30.21,M,6.21,M,FEW,SCT,M,M,4000.00,7000.00,M,M,M,M,M,M,M,M,M,M,RJCK 200700Z 08005KT 9999 FEW040 SCT070 13/04 Q1023
RJCM,2020-10-20 07:00,144.1642,43.8806,50.00,37.40,61.76,360.00,6.00,0.00,30.24,M,6.21,M,FEW,M,M,M,3000.00,M,M,M,M,M,M,M,M,M,M,M,RJCM 200700Z 36006KT 9999 FEW030 10/03 Q1024
RJCN,2020-10-20 07:00,144.9600,43.5775,50.00,37.40,61.76,360.00,4.00,0.00,30.21,M,6.21,M,FEW,M,M,M,3000.00,M,M,M,M,M,M,M,M,M,M,M,RJCN 200700Z 36004KT 300V050 9999 FEW030 10/03 Q1023
RJCO,2020-10-20 07:00,141.3814,43.1175,55.40,42.80,62.46,330.00,10.00,0.00,30.27,M,6.21,M,FEW,M,M,M,3000.00,M,M,M,M,M,M,M,M,M,M,M,RJCO 200700Z 33010KT 9999 FEW030 13/06 Q1025
RJCW,2020-10-20 07:00,141.8022,45.4044,50.00,35.60,57.52,150.00,2.00,0.00,30.24,M,6.21,M,FEW,M,M,M,3500.00,M,M,M,M,M,M,M,M,M,M,M,RJCW 200700Z 15002KT 9999 FEW035 10/02 Q1024
RJDT,2020-10-20 07:00,129.3306,34.2850,68.00,51.80,56.13,70.00,9.00,0.00,30.21,M,6.21,M,SCT,M,M,M,3500.00,M,M,M,M,M,M,M,M,M,M,M,RJDT 200700Z 07009KT 020V110 9999 SCT035 20/11 Q1023
RJEB,2020-10-20 07:00,143.4040,44.3039,50.00,42.80,76.18,M,2.00,0.00,30.24,M,6.21,M,FEW,M,M,M,2500.00,M,M,M,M,M,M,M,M,M,M,M,RJEB 200700Z VRB02KT 9999 FEW025 10/06 Q1024
RJEC,2020-10-20 07:00,142.4475,43.6708,51.80,30.20,43.32,310.00,7.00,0.00,30.24,M,6.21,M,FEW,M,M,M,3000.00,M,M,M,M,M,M,M,M,M,M,M,RJEC 200700Z 31007KT 9999 FEW030 11/M01 Q1024
RJFE,2020-10-20 07:00,128.8328,32.6664,71.60,51.80,49.64,40.00,10.00,0.00,30.15,M,6.21,M,M,M,M,M,M,M,M,M,M,M,M,M,M,M,M,M,RJFE 200700Z 04010KT CAVOK 22/11 Q1021
RJFF,2020-10-20 07:00,130.4517,33.5844,71.60,37.40,28.68,90.00,9.00,0.00,30.18,M,6.21,M,FEW,M,M,M,3500.00,M,M,M,M,M,M,M,M,M,M,M,RJFF 200700Z 09009KT 060V120 9999 FEW035 22/03 Q1022 BECMG 02005KT
RJFK,2020-10-20 07:00,130.7194,31.8033,69.80,44.60,40.29,100.00,6.00,0.00,30.15,M,6.21,M,FEW,M,M,M,2500.00,M,M,M,M,M,M,M,M,M,M,M,RJFK 200700Z 10006KT 9999 FEW025 21/07 Q1021
RJFM,2020-10-20 07:00,131.4486,31.8772,71.60,50.00,46.43,60.00,14.00,0.00,30.15,M,6.21,M,FEW,M,M,M,4000.00,M,M,M,M,M,M,M,M,M,M,M,RJFM 200700Z 06014KT 9999 FEW040 22/10 Q1021
RJFO,2020-10-20 07:00,131.7372,33.4794,71.60,46.40,40.57,30.00,7.00,0.00,30.18,M,6.21,M,FEW,M,M,M,3000.00,M,M,M,M,M,M,M,M,M,M,M,RJFO 200700Z 03007KT 9999 FEW030 22/08 Q1022
RJAW,2020-10-20 07:00,141.3227,24.7840,80.60,78.80,94.27,180.00,8.00,0.00,29.83,M,6.21,M,FEW,SCT,BKN,M,1000.00,1500.00,15000.00,M,-SHRA,M,M,M,M,M,M,89.33,RJAW 200700Z 18008KT 9999 -SHRA FEW010 SCT015 BKN150 27/26 Q1010 RMK 1CU010 3CU015 7AC150 A2984
RJBB,2020-10-20 07:00,135.2328,34.4342,69.80,57.20,64.26,330.00,7.00,0.00,30.18,M,6.21,M,FEW,M,M,M,3000.00,M,M,M,M,M,M,M,M,M,M,M,RJBB 200700Z 33007KT 9999 FEW030 21/14 Q1022 NOSIG
RJBE,2020-10-20 07:00,135.2239,34.6328,68.00,55.40,64.04,260.00,6.00,0.00,30.18,M,6.21,M,FEW,SCT,M,M,3000.00,7000.00,M,M,M,M,M,M,M,M,M,M,RJBE 200700Z 26006KT 9999 FEW030 SCT070 20/13 Q1022
RJNK,2020-10-20 07:00,136.4075,36.3939,69.80,44.60,40.29,40.00,12.00,0.00,30.21,M,6.21,M,FEW,M,M,M,5000.00,M,M,M,M,M,M,M,M,M,M,M,RJNK 200700Z 04012KT 9999 FEW050 21/07 Q1023
RJNT,2020-10-20 07:00,137.1875,36.6483,68.00,48.20,49.10,30.00,8.00,0.00,30.24,M,6.21,M,FEW,M,M,M,3500.00,M,M,M,M,M,M,M,M,M,M,M,RJNT 200700Z 03008KT 350V060 9999 FEW035 20/09 Q1024
RJNW,2020-10-20 07:00,136.9618,37.2931,62.60,50.00,63.38,50.00,7.00,0.00,30.27,M,6.21,M,FEW,M,M,M,2500.00,M,M,M,M,M,M,M,M,M,M,M,RJNW 200700Z 05007KT 010V080 9999 FEW025 17/10 Q1025
RJOA,2020-10-20 07:00,132.9194,34.4361,66.20,44.60,45.60,130.00,4.00,0.00,30.21,M,6.21,M,FEW,M,M,M,4500.00,M,M,M,M,M,M,M,M,M,M,M,RJOA 200700Z 13004KT 090V170 9999 FEW045 19/07 Q1023
RJOB,2020-10-20 07:00,133.8553,34.7569,69.80,44.60,40.29,70.00,6.00,0.00,30.21,M,6.21,M,FEW,M,M,M,3500.00,M,M,M,M,M,M,M,M,M,M,M,RJOB 200700Z 07006KT 040V100 9999 FEW035 21/07 Q1023
RJOC,2020-10-20 07:00,132.8900,35.4136,68.00,51.80,56.13,60.00,11.00,0.00,30.21,M,6.21,M,M,M,M,M,M,M,M,M,M,M,M,M,M,M,M,M,RJOC 200700Z 06011KT CAVOK 20/11 Q1023
RJOH,2020-10-20 07:00,133.2392,35.4933,68.00,50.00,52.51,40.00,9.00,0.00,30.24,M,6.21,M,FEW,M,M,M,4000.00,M,M,M,M,M,M,M,M,M,M,M,RJOH 200700Z 04009KT 9999 FEW040 20/10 Q1024
RJKA,2020-10-20 07:00,129.7125,28.4308,78.80,69.80,73.95,60.00,22.00,0.00,30.00,M,6.21,M,FEW,BKN,BKN,M,2000.00,2200.00,4000.00,M,M,M,M,M,M,M,M,M,RJKA 200700Z 06022KT 9999 FEW020 BKN022 BKN040 26/21 Q1016
RJOK,2020-10-20 07:00,133.6694,33.5461,73.40,51.80,46.71,170.00,5.00,0.00,30.15,M,6.21,M,FEW,M,M,M,4000.00,M,M,M,M,M,M,M,M,M,M,M,RJOK 200700Z 17005KT 130V240 9999 FEW040 23/11 Q1021
RJFU,2020-10-20 07:00,129.9136,32.9169,75.20,44.60,33.57,30.00,11.00,0.00,30.12,M,6.21,M,M,M,M,M,M,M,M,M,M,M,M,M,M,M,M,M,RJFU 200700Z 03011KT CAVOK 24/07 Q1020
RJGG,2020-10-20 07:00,136.8054,34.8584,68.00,48.20,49.10,230.00,4.00,0.00,30.18,M,6.21,M,FEW,M,M,M,3000.00,M,M,M,M,M,M,M,M,M,M,M,RJGG 200700Z 23004KT 9999 FEW030 20/09 Q1022 NOSIG
RJKI,2020-10-20 07:00,129.9281,28.3213,77.00,69.80,78.48,70.00,17.00,0.00,30.00,M,6.21,M,FEW,SCT,BKN,M,2100.00,4600.00,5000.00,M,M,M,M,M,M,M,M,M,RJKI 200700Z AUTO 07017KT 9999 FEW021 SCT046 BKN050 25/21 Q1016
ROIG,2020-10-20 07:00,124.1633,24.3367,82.40,77.00,83.77,40.00,21.00,0.00,29.88,M,6.21,M,FEW,BKN,BKN,M,1700.00,3500.00,M,M,M,M,M,M,M,M,M,90.85,ROIG 200700Z 04021KT 9999 FEW017 BKN035 BKN/// 28/25 Q1012
ROMD,2020-10-20 07:00,131.2286,25.8289,80.60,73.40,78.76,50.00,16.00,0.00,29.94,M,6.21,M,BKN,BKN,M,M,1900.00,4900.00,M,M,M,M,M,M,M,M,M,85.32,ROMD 200700Z AUTO 05016KT 9999 BKN019 BKN049 27/23 Q1014
ROMY,2020-10-20 07:00,125.2767,24.7933,80.60,73.40,78.76,50.00,15.00,0.00,29.88,M,6.21,26.00,SCT,SCT,BKN,M,1700.00,2500.00,M,M,VCSH,M,M,M,M,M,M,85.32,ROMY 200700Z 05015G26KT 9999 VCSH SCT017 SCT025 BKN/// 27/23 Q1012
RORY,2020-10-20 07:00,128.4020,27.0440,80.60,71.60,74.11,70.00,15.00,0.00,29.97,M,6.21,M,SCT,BKN,BKN,M,1900.00,2900.00,4600.00,M,-RA,M,M,M,M,M,M,84.57,RORY 200700Z AUTO 07015KT 030V100 9999 -RA SCT019 BKN029 BKN046 27/22 Q1015
RJDC,2020-10-20 07:00,131.2786,33.9300,69.80,50.00,49.37,210.00,4.00,0.00,30.18,M,6.21,M,M,M,M,M,M,M,M,M,M,M,M,M,M,M,M,M,RJDC 200700Z 21004KT 180V240 CAVOK 21/10 Q1022
RJOM,2020-10-20 07:00,132.6997,33.8272,71.60,53.60,53.03,30.00,13.00,0.00,30.15,M,6.21,M,FEW,M,M,M,3500.00,M,M,M,M,M,M,M,M,M,M,M,RJOM 200700Z 03013KT 9999 FEW035 22/12 Q1021
RJFS,2020-10-20 07:00,130.3000,33.1500,73.40,42.80,33.29,30.00,13.00,0.00,30.12,M,6.21,M,M,M,M,M,M,M,M,M,M,M,M,M,M,M,M,M,RJFS 200700Z 03013KT CAVOK 23/06 Q1020
RJFT,2020-10-20 07:00,130.8553,32.8372,73.40,46.40,38.18,40.00,13.00,0.00,30.12,M,6.21,M,M,M,M,M,M,M,M,M,M,M,M,M,M,M,M,M,RJFT 200700Z 04013KT CAVOK 23/08 Q1020
RJOT,2020-10-20 07:00,134.0167,34.2167,68.00,51.80,56.13,90.00,4.00,0.00,30.21,M,6.21,M,FEW,M,M,M,3000.00,M,M,M,M,M,M,M,M,M,M,M,RJOT 200700Z 09004KT 050V130 9999 FEW030 20/11 Q1023
RJSK,2020-10-20 07:00,140.2167,39.6167,60.80,44.60,55.12,270.00,7.00,0.00,30.30,M,6.21,M,FEW,M,M,M,4000.00,M,M,M,M,M,M,M,M,M,M,M,RJSK 200700Z 27007KT 9999 FEW040 16/07 Q1026
RJOO,2020-10-20 07:00,135.4392,34.7844,71.60,48.20,43.42,350.00,10.00,0.00,30.18,M,6.21,M,FEW,M,M,M,3000.00,M,M,M,M,M,M,M,M,M,M,M,RJOO 200700Z 35010KT 9999 FEW030 22/09 Q1022
RJOR,2020-10-20 07:00,134.1650,35.5300,68.00,53.60,59.97,30.00,8.00,0.00,30.24,M,6.21,M,FEW,M,M,M,4000.00,M,M,M,M,M,M,M,M,M,M,M,RJOR 200700Z 03008KT 9999 FEW040 20/12 Q1024
RJOW,2020-10-20 07:00,131.7903,34.6764,68.00,53.60,59.97,30.00,4.00,0.00,30.21,M,6.21,M,FEW,M,M,M,3500.00,M,M,M,M,M,M,M,M,M,M,M,RJOW 200700Z 03004KT 330V090 9999 FEW035 20/12 Q1023
RJOY,2020-10-20 07:00,135.6006,34.5967,71.60,48.20,43.42,50.00,7.00,0.00,30.18,M,6.21,M,FEW,SCT,M,M,3000.00,5000.00,M,M,M,M,M,M,M,M,M,M,RJOY 200700Z 05007KT 020V080 9999 FEW030 SCT050 22/09 Q1022
RJSA,2020-10-20 07:00,140.6886,40.7333,57.20,42.80,58.52,270.00,8.00,0.00,30.27,M,6.21,M,FEW,M,M,M,4000.00,M,M,M,M,M,M,M,M,M,M,M,RJSA 200700Z 27008KT 9999 FEW040 14/06 Q1025
RJSC,2020-10-20 07:00,140.3711,38.4119,62.60,41.00,45.04,340.00,7.00,0.00,30.27,M,6.21,M,FEW,M,M,M,5000.00,M,M,M,M,M,M,M,M,M,M,M,RJSC 200700Z 34007KT 9999 FEW050 17/05 Q1025
RJSF,2020-10-20 07:00,140.4281,37.2275,62.60,48.20,59.26,320.00,6.00,0.00,30.24,M,6.21,M,FEW,SCT,M,M,2000.00,7000.00,M,M,M,M,M,M,M,M,M,M,RJSF 200700Z 32006KT 9999 FEW020 SCT070 17/09 Q1024
RJSI,2020-10-20 07:00,141.1353,39.4286,62.60,41.00,45.04,340.00,4.00,0.00,30.24,M,6.21,M,FEW,M,M,M,3000.00,M,M,M,M,M,M,M,M,M,M,M,RJSI 200700Z 34004KT 290V020 9999 FEW030 17/05 Q1024
RJSM,2020-10-20 07:00,141.3684,40.7032,60.80,41.00,48.00,300.00,10.00,0.00,30.27,M,6.21,M,FEW,M,M,M,4000.00,M,M,M,M,M,M,M,M,M,M,M,RJSM 200700Z 30010KT 9999 FEW040 16/05 Q1025
RJSN,2020-10-20 07:00,139.1117,37.9558,66.20,44.60,45.60,20.00,9.00,0.00,30.27,M,6.21,M,FEW,M,M,M,3000.00,M,M,M,M,M,M,M,M,M,M,M,RJSN 200700Z 02009KT 9999 FEW030 19/07 Q1025
RJSS,2020-10-20 07:00,140.9169,38.1397,64.40,48.20,55.63,130.00,5.00,0.00,30.24,M,6.21,M,FEW,M,M,M,3000.00,M,M,M,M,M,M,M,M,M,M,M,RJSS 200700Z 13005KT 9999 FEW030 18/09 Q1024
RJTF,2020-10-20 07:00,139.5281,35.6717,68.00,48.20,49.10,40.00,5.00,0.00,30.21,M,6.21,M,FEW,M,M,M,3000.00,M,M,M,M,M,M,M,M,M,M,M,RJTF 200700Z 04005KT 350V080 9999 FEW030 20/09 Q1023
RJTO,2020-10-20 07:00,139.3603,34.7819,66.20,53.60,63.82,40.00,14.00,0.00,30.21,M,6.21,M,FEW,SCT,M,M,1500.00,18000.00,M,M,M,M,M,M,M,M,M,M,RJTO 200700Z 04014KT 9999 FEW015 SCT180 19/12 Q1023
RJTT,2020-10-20 07:00,139.7811,35.5533,66.20,55.40,68.15,70.00,13.00,0.00,30.21,M,6.21,M,FEW,M,M,M,3000.00,M,M,M,M,M,M,M,M,M,M,M,RJTT 200700Z 07013KT 9999 FEW030 19/13 Q1023 NOSIG
RORS,2020-10-20 07:00,125.1447,24.8267,82.40,77.00,83.77,50.00,18.00,0.00,29.88,M,6.21,M,FEW,SCT,BKN,M,1800.00,2300.00,4200.00,M,M,M,M,M,M,M,M,90.85,RORS 200700Z 05018KT 9999 FEW018 SCT023 BKN042 28/25 Q1012
RJNS,2020-10-20 07:00,138.1894,34.7961,66.20,48.20,52.25,70.00,6.00,0.00,30.18,M,6.21,M,FEW,SCT,M,M,3000.00,M,M,M,M,M,M,M,M,M,M,M,RJNS 200700Z 07006KT 030V110 9999 FEW030 SCT/// 19/09 Q1022
RJBD,2020-10-20 07:00,135.3644,33.6622,69.80,53.60,56.38,170.00,4.00,0.00,30.18,M,6.21,M,FEW,SCT,M,M,3000.00,M,M,M,M,M,M,M,M,M,M,M,RJBD 200700Z 17004KT 130V250 9999 FEW030 SCT/// 21/12 Q1022
RJFG,2020-10-20 07:00,130.9917,30.6050,69.80,57.20,64.26,70.00,7.00,0.00,30.12,M,6.21,M,FEW,M,M,M,2500.00,M,M,M,M,M,M,M,M,M,M,M,RJFG 200700Z 07007KT 030V130 9999 FEW025 21/14 Q1020
RJTI,2020-10-20 07:00,139.8500,35.6300,66.20,51.80,59.74,70.00,9.00,0.00,30.21,M,6.21,M,FEW,M,M,M,3000.00,M,M,M,M,M,M,M,M,M,M,M,RJTI 200700Z 07009KT 030V200 9999 FEW030 19/11 Q1023
RJOS,2020-10-20 07:00,134.6092,34.1322,69.80,51.80,52.77,10.00,7.00,0.00,30.21,M,6.21,M,FEW,M,M,M,3000.00,M,M,M,M,M,M,M,M,M,M,M,RJOS 200700Z 01007KT 340V040 9999 FEW030 21/11 Q1023
RJSY,2020-10-20 07:00,139.7872,38.8122,62.60,42.80,48.28,340.00,4.00,0.00,30.30,M,6.21,M,FEW,M,M,M,3000.00,M,M,M,M,M,M,M,M,M,M,M,RJSY 200700Z 34004KT 290V030 9999 FEW030 17/06 Q1026
RORK,2020-10-20 07:00,131.3333,25.9167,80.60,73.40,78.76,60.00,19.00,0.00,29.94,M,6.21,M,SCT,M,M,M,2100.00,M,M,M,M,M,M,M,M,M,M,85.32,RORK 200700Z AUTO 06019KT 9999 SCT021 27/23 Q1014
ROYN,2020-10-20 07:00,122.9780,24.4670,80.60,77.00,88.83,40.00,21.00,0.00,29.91,M,4.97,M,BKN,BKN,BKN,///,1500.00,2100.00,3100.00,M,M,M,M,M,M,M,M,87.59,ROYN 200700Z AUTO 04021KT 8000 BKN015 BKN021 BKN031 //////TCU 27/25 Q1013
ROAH,2020-10-20 07:00,127.6458,26.1958,84.20,71.60,65.95,70.00,17.00,0.00,29.91,M,6.21,M,SCT,BKN,M,M,2500.00,M,M,M,M,M,M,M,M,M,M,89.60,ROAH 200700Z 07017KT 9999 SCT025 BKN/// 29/22 Q1013
RORY,2020-10-20 07:01,128.4020,27.0440,80.60,71.60,74.11,70.00,15.00,0.00,29.97,M,6.21,25.00,SCT,SCT,BKN,M,1900.00,2500.00,2900.00,M,-RA,M,M,M,M,M,M,84.57,RORY 200701Z AUTO 07015G25KT 030V100 9999 -RA SCT019 SCT025 BKN029 27/22 Q1015 RMK A2997
RJKN,2020-10-20 07:04,128.8813,27.8364,78.80,71.60,78.62,70.00,15.00,0.00,29.97,M,6.21,25.00,BKN,BKN,OVC,M,2100.00,7000.00,8000.00,M,-RA,M,M,M,M,M,M,M,RJKN 200704Z AUTO 07015G25KT 040V100 9999 -RA BKN021 BKN070 OVC080 26/22 Q1015 RMK A2999
RJKN,2020-10-20 07:07,128.8813,27.8364,77.00,71.60,83.44,70.00,17.00,0.00,29.97,M,1.49,35.00,BKN,BKN,OVC,M,2100.00,7000.00,8000.00,M,-RA BR,M,M,M,M,M,M,M,RJKN 200707Z AUTO 07017G35KT 040V100 2400 -RA BR BKN021 BKN070 OVC080 25/22 Q1015 RMK A2999
RJKN,2020-10-20 07:09,128.8813,27.8364,75.20,71.60,88.59,70.00,18.00,0.00,29.97,M,0.99,35.00,SCT,BKN,BKN,M,2100.00,3200.00,7000.00,M,-RA BR,M,M,M,M,M,M,M,RJKN 200709Z AUTO 07018G35KT 040V100 1600 -RA BR SCT021 BKN032 BKN070 24/22 Q1015 RMK A3000
RJAW,2020-10-20 07:11,141.3227,24.7840,80.60,77.00,88.83,190.00,8.00,0.00,29.83,M,6.21,M,FEW,BKN,FEW,BKN,1000.00,1500.00,1500.00,15000.00,-SHRA,M,M,M,M,M,M,87.59,RJAW 200711Z 19008KT 9999 -SHRA FEW010 BKN015 FEW015TCU BKN150 27/25 Q1010 RMK 1CU010 5CU015 1TCU015 7AC150 A2984 TCU 10KM W MOV N
RJKN,2020-10-20 07:13,128.8813,27.8364,75.20,71.60,88.59,60.00,20.00,0.00,29.97,M,1.30,35.00,FEW,SCT,BKN,M,1700.00,3200.00,4400.00,M,RA BR,M,M,M,M,M,M,M,RJKN 200713Z AUTO 06020G35KT 2100 RA BR FEW017 SCT032 BKN044 24/22 Q1015 RMK A3000 RI008
ROAH,2020-10-20 07:13,127.6458,26.1958,84.20,71.60,65.95,70.00,16.00,0.00,29.91,M,6.21,26.00,SCT,BKN,M,M,2500.00,M,M,M,M,M,M,M,M,M,M,89.60,ROAH 200713Z 07016G26KT 9999 SCT025 BKN/// 29/22 Q1013 RMK 4CU025 A2994
RJKN,2020-10-20 07:19,128.8813,27.8364,75.20,69.80,83.32,60.00,18.00,0.00,29.97,M,4.97,30.00,FEW,SCT,BKN,M,1000.00,4100.00,4400.00,M,-RA,M,M,M,M,M,M,M,RJKN 200719Z AUTO 06018G30KT 8000 -RA FEW010 SCT041 BKN044 24/21 Q1015 RMK A3000
RJAA,2020-10-20 07:30,140.3856,35.7653,64.40,50.00,59.50,40.00,8.00,0.00,30.24,M,6.21,M,FEW,M,M,M,3000.00,M,M,M,M,M,M,M,M,M,M,M,RJAA 200730Z 04008KT 9999 FEW030 18/10 Q1024 NOSIG RMK 1CU030 A3024
RJCC,2020-10-20 07:30,141.6926,42.7742,55.40,41.00,58.27,360.00,5.00,0.00,30.24,M,6.21,M,FEW,M,M,M,3000.00,M,M,M,M,M,M,M,M,M,M,M,RJCC 200730Z 36005KT 9999 FEW030 13/05 Q1024 RMK 1CU030 A3026
RJFF,2020-10-20 07:30,130.4517,33.5844,71.60,35.60,26.71,60.00,6.00,0.00,30.18,M,6.21,M,M,M,M,M,M,M,M,M,M,M,M,M,M,M,M,M,RJFF 200730Z 06006KT 020V100 CAVOK 22/02 Q1022 BECMG 02005KT RMK A3019
RJBB,2020-10-20 07:30,135.2328,34.4342,69.80,55.40,60.21,320.00,7.00,0.00,30.18,M,6.21,M,FEW,M,M,M,3000.00,M,M,M,M,M,M,M,M,M,M,M,RJBB 200730Z 32007KT 9999 FEW030 21/13 Q1022 BECMG 36008KT
RJGG,2020-10-20 07:30,136.8054,34.8584,68.00,50.00,52.51,220.00,5.00,0.00,30.21,M,6.21,M,FEW,M,M,M,3000.00,M,M,M,M,M,M,M,M,M,M,M,RJGG 200730Z 22005KT 9999 FEW030 20/10 Q1023 NOSIG
RJTT,2020-10-20 07:30,139.7811,35.5533,66.20,53.60,63.82,60.00,12.00,0.00,30.21,M,6.21,M,FEW,M,M,M,3000.00,M,M,M,M,M,M,M,M,M,M,M,RJTT 200730Z 06012KT 9999 FEW030 19/12 Q1023 BECMG 08014KT RMK 1CU030 A3023
ROAH,2020-10-20 07:30,127.6458,26.1958,82.40,71.60,69.90,70.00,16.00,0.00,29.91,M,6.21,M,FEW,SCT,M,M,2500.00,4500.00,M,M,M,M,M,M,M,M,M,87.18,ROAH 200730Z 07016KT 360V100 9999 FEW025 SCT045 28/22 Q1013 RMK 2CU025 3SC045 A2994
RODN,2020-10-20 07:36,127.7676,26.3556,82.40,71.60,69.90,50.00,20.00,0.00,29.95,M,10.00,M,BKN,M,M,M,2000.00,M,M,M,M,M,M,M,M,M,M,87.18,RODN 200736Z AUTO 05020KT 10SM BKN020 28/22 A2995 RMK AO2 BKN V SCT SLPNO $
ROAH,2020-10-20 07:44,127.6458,26.1958,82.40,69.80,65.74,70.00,17.00,0.00,29.94,M,6.21,27.00,FEW,SCT,M,M,2500.00,M,M,M,M,M,M,M,M,M,M,86.22,ROAH 200744Z 07017G27KT 9999 FEW025 SCT/// 28/21 Q1014 RMK 1CU025 A2994
RJOI,2020-10-20 07:55,132.2357,34.1439,71.10,48.00,43.83,0.00,0.00,0.00,30.20,1022.70,6.21,M,FEW,M,M,M,3000.00,M,M,M,M,M,M,M,M,M,M,M,RJOI 200755Z 00000KT 9999 FEW030 22/09 A3020 RMK SLP227 T02170089
RJTY,2020-10-20 07:56,139.3485,35.7485,63.90,50.20,61.00,0.00,0.00,0.00,30.28,1025.80,10.00,M,CLR,M,M,M,M,M,M,M,M,M,M,M,M,M,M,M,RJTY 200756Z AUTO 00000KT 10SM CLR 18/10 A3028 RMK AO2 SLP258 T01770101 FZRANO $
RODN,2020-10-20 07:56,127.7676,26.3556,80.80,72.00,74.64,50.00,18.00,0.00,29.95,M,10.00,25.00,BKN,BKN,M,M,1900.00,2800.00,M,M,M,M,M,M,26.00,40.00,2020-10-20 07:07,85.04,RODN 200756Z 05018G25KT 10SM BKN019 BKN028 27/22 A2995 RMK AO2A PK WND 04026/07 SLPNO T02710222 $
RJFR,2020-10-20 08:00,131.0350,33.8456,68.00,48.20,49.10,170.00,3.00,0.00,30.18,M,6.21,M,M,M,M,M,M,M,M,M,M,M,M,M,M,M,M,M,RJFR 200800Z 17003KT CAVOK 20/09 Q1022
RJSR,2020-10-20 08:00,140.3714,40.1919,55.40,48.20,76.66,230.00,3.00,0.00,30.30,M,6.21,M,FEW,M,M,M,4000.00,M,M,M,M,M,M,M,M,M,M,M,RJSR 200800Z 23003KT 9999 FEW040 13/09 Q1026
RJAA,2020-10-20 08:00,140.3856,35.7653,62.60,50.00,63.38,50.00,4.00,0.00,30.24,M,6.21,M,FEW,M,M,M,3000.00,M,M,M,M,M,M,M,M,M,M,M,RJAA 200800Z 05004KT 360V090 9999 FEW030 17/10 Q1024 NOSIG
RJAH,2020-10-20 08:00,140.4147,36.1817,60.80,50.00,67.54,60.00,6.00,0.00,30.24,M,6.21,M,FEW,M,M,M,3000.00,M,M,M,M,M,M,M,M,M,M,M,RJAH 200800Z 06006KT 9999 FEW030 16/10 Q1024
RJBT,2020-10-20 08:00,134.7869,35.5128,62.60,55.40,77.29,10.00,3.00,0.00,30.24,M,6.21,M,FEW,SCT,M,M,2500.00,6000.00,M,M,M,M,M,M,M,M,M,M,RJBT 200800Z 01003KT 340V050 9999 FEW025 SCT060 17/13 Q1024
RJCB,2020-10-20 08:00,143.2172,42.7333,53.60,37.40,54.07,100.00,3.00,0.00,30.21,M,6.21,M,FEW,M,M,M,5000.00,M,M,M,M,M,M,M,M,M,M,M,RJCB 200800Z 10003KT 050V150 9999 FEW050 12/03 Q1023
RJCC,2020-10-20 08:00,141.6926,42.7742,53.60,41.00,62.23,350.00,4.00,0.00,30.24,M,6.21,M,FEW,M,M,M,3000.00,M,M,M,M,M,M,M,M,M,M,M,RJCC 200800Z 35004KT 9999 FEW030 12/05 Q1024 RMK 1CU030 A3026
RJCH,2020-10-20 08:00,140.8219,41.7700,59.00,41.00,51.18,290.00,10.00,0.00,30.27,M,6.21,M,FEW,M,M,M,3500.00,M,M,M,M,M,M,M,M,M,M,M,RJCH 200800Z 29010KT 9999 FEW035 15/05 Q1025
RJCK,2020-10-20 08:00,144.1931,43.0408,51.80,41.00,66.48,70.00,3.00,0.00,30.24,M,6.21,M,FEW,M,M,M,4000.00,M,M,M,M,M,M,M,M,M,M,M,RJCK 200800Z 07003KT 040V100 9999 FEW040 11/05 Q1024
RJCM,2020-10-20 08:00,144.1642,43.8806,48.20,39.20,70.88,60.00,3.00,0.00,30.27,M,6.21,M,FEW,M,M,M,2000.00,M,M,M,M,M,M,M,M,M,M,47.21,RJCM 200800Z 06003KT 9999 FEW020 09/04 Q1025
RJCN,2020-10-20 08:00,144.9600,43.5775,46.40,39.20,75.84,M,1.00,0.00,30.24,M,6.21,M,FEW,M,M,M,3000.00,M,M,M,M,M,M,M,M,M,M,M,RJCN 200800Z VRB01KT 9999 FEW030 08/04 Q1024
RJCO,2020-10-20 08:00,141.3814,43.1175,53.60,41.00,62.23,320.00,7.00,0.00,30.27,M,6.21,M,FEW,M,M,M,3000.00,M,M,M,M,M,M,M,M,M,M,M,RJCO 200800Z 32007KT 9999 FEW030 12/05 Q1025
RJCW,2020-10-20 08:00,141.8022,45.4044,44.60,35.60,70.48,160.00,3.00,0.00,30.24,M,6.21,M,FEW,M,M,M,3000.00,M,M,M,M,M,M,M,M,M,M,43.09,RJCW 200800Z 16003KT 9999 FEW030 07/02 Q1024
RJDT,2020-10-20 08:00,129.3306,34.2850,66.20,50.00,55.88,50.00,7.00,0.00,30.21,M,6.21,M,FEW,M,M,M,4000.00,M,M,M,M,M,M,M,M,M,M,M,RJDT 200800Z 05007KT 010V090 9999 FEW040 19/10 Q1023
RJEC,2020-10-20 08:00,142.4475,43.6708,48.20,28.40,46.02,290.00,4.00,0.00,30.24,M,6.21,M,FEW,M,M,M,3000.00,M,M,M,M,M,M,M,M,M,M,46.34,RJEC 200800Z 29004KT 9999 FEW030 09/M02 Q1024
RJFE,2020-10-20 08:00,128.8328,32.6664,69.80,51.80,52.77,30.00,10.00,0.00,30.15,M,6.21,M,FEW,M,M,M,4000.00,M,M,M,M,M,M,M,M,M,M,M,RJFE 200800Z 03010KT 9999 FEW040 21/11 Q1021
RJFF,2020-10-20 08:00,130.4517,33.5844,69.80,37.40,30.49,80.00,6.00,0.00,30.18,M,6.21,M,FEW,M,M,M,3500.00,M,M,M,M,M,M,M,M,M,M,M,RJFF 200800Z 08006KT 030V120 9999 FEW035 21/03 Q1022 BECMG 02005KT RMK 1CU035 A3019
RJFK,2020-10-20 08:00,130.7194,31.8033,68.00,46.40,45.88,110.00,7.00,0.00,30.15,M,6.21,M,FEW,M,M,M,3000.00,M,M,M,M,M,M,M,M,M,M,M,RJFK 200800Z 11007KT 080V160 9999 FEW030 20/08 Q1021
RJFM,2020-10-20 08:00,131.4486,31.8772,71.60,51.80,49.64,70.00,14.00,0.00,30.15,M,6.21,M,FEW,M,M,M,4000.00,M,M,M,M,M,M,M,M,M,M,M,RJFM 200800Z 07014KT 9999 FEW040 22/11 Q1021
RJFO,2020-10-20 08:00,131.7372,33.4794,69.80,46.40,43.13,40.00,6.00,0.00,30.18,M,6.21,M,M,M,M,M,M,M,M,M,M,M,M,M,M,M,M,M,RJFO 200800Z 04006KT CAVOK 21/08 Q1022
RJAW,2020-10-20 08:00,141.3227,24.7840,78.80,75.20,88.75,200.00,6.00,0.00,29.83,M,6.21,M,FEW,BKN,BKN,M,1000.00,1500.00,15000.00,M,M,M,M,M,M,M,M,M,RJAW 200800Z 20006KT 9999 FEW010 BKN015 BKN150 26/24 Q1010 RMK 1CU010 5CU015 7AC150 A2985
RJBB,2020-10-20 08:00,135.2328,34.4342,69.80,57.20,64.26,330.00,8.00,0.00,30.18,M,6.21,M,FEW,SCT,M,M,3000.00,M,M,M,M,M,M,M,M,M,M,M,RJBB 200800Z 33008KT 9999 FEW030 SCT/// 21/14 Q1022 NOSIG
RJBE,2020-10-20 08:00,135.2239,34.6328,69.80,53.60,56.38,M,3.00,0.00,30.18,M,6.21,M,FEW,M,M,M,3000.00,M,M,M,M,M,M,M,M,M,M,M,RJBE 200800Z VRB03KT 9999 FEW030 21/12 Q1022
RJNK,2020-10-20 08:00,136.4075,36.3939,66.20,48.20,52.25,50.00,12.00,0.00,30.21,M,6.21,M,FEW,M,M,M,5000.00,M,M,M,M,M,M,M,M,M,M,M,RJNK 200800Z 05012KT 9999 FEW050 19/09 Q1023
RJNT,2020-10-20 08:00,137.1875,36.6483,66.20,50.00,55.88,30.00,7.00,0.00,30.24,M,6.21,M,FEW,M,M,M,3500.00,M,M,M,M,M,M,M,M,M,M,M,RJNT 200800Z 03007KT 350V080 9999 FEW035 19/10 Q1024
RJNW,2020-10-20 08:00,136.9618,37.2931,60.80,46.40,59.01,50.00,5.00,0.00,30.27,M,6.21,M,FEW,M,M,M,2000.00,M,M,M,M,M,M,M,M,M,M,M,RJNW 200800Z 05005KT 010V070 9999 FEW020 16/08 Q1025
RJOA,2020-10-20 08:00,132.9194,34.4361,62.60,46.40,55.37,110.00,4.00,0.00,30.21,M,6.21,M,FEW,M,M,M,4500.00,M,M,M,M,M,M,M,M,M,M,M,RJOA 200800Z 11004KT 9999 FEW045 17/08 Q1023
RJOB,2020-10-20 08:00,133.8553,34.7569,66.20,46.40,48.83,30.00,3.00,0.00,30.21,M,6.21,M,FEW,M,M,M,3500.00,M,M,M,M,M,M,M,M,M,M,M,RJOB 200800Z 03003KT 9999 FEW035 19/08 Q1023
RJOC,2020-10-20 08:00,132.8900,35.4136,66.20,51.80,59.74,60.00,13.00,0.00,30.21,M,6.21,M,M,M,M,M,M,M,M,M,M,M,M,M,M,M,M,M,RJOC 200800Z 06013KT CAVOK 19/11 Q1023
RJOH,2020-10-20 08:00,133.2392,35.4933,66.20,51.80,59.74,50.00,10.00,0.00,30.24,M,6.21,M,FEW,M,M,M,4000.00,M,M,M,M,M,M,M,M,M,M,M,RJOH 200800Z 05010KT 9999 FEW040 19/11 Q1024
RJKA,2020-10-20 08:00,129.7125,28.4308,77.00,69.80,78.48,60.00,20.00,0.00,30.00,M,6.21,M,FEW,BKN,M,M,2000.00,2200.00,M,M,M,M,M,M,M,M,M,M,RJKA 200800Z 06020KT 9999 FEW020 BKN022 25/21 Q1016
RJOK,2020-10-20 08:00,133.6694,33.5461,69.80,50.00,49.37,170.00,3.00,0.00,30.18,M,6.21,M,FEW,M,M,M,4500.00,M,M,M,M,M,M,M,M,M,M,M,RJOK 200800Z 17003KT 130V210 9999 FEW045 21/10 Q1022
RJFU,2020-10-20 08:00,129.9136,32.9169,73.40,41.00,31.05,50.00,10.00,0.00,30.12,M,6.21,M,M,M,M,M,M,M,M,M,M,M,M,M,M,M,M,M,RJFU 200800Z 05010KT CAVOK 23/05 Q1020
RJGG,2020-10-20 08:00,136.8054,34.8584,68.00,48.20,49.10,210.00,8.00,0.00,30.18,M,6.21,M,FEW,M,M,M,3000.00,M,M,M,M,M,M,M,M,M,M,M,RJGG 200800Z 21008KT 9999 FEW030 20/09 Q1022 NOSIG
RJKI,2020-10-20 08:00,129.9281,28.3213,77.00,69.80,78.48,70.00,16.00,0.00,30.03,M,6.21,M,FEW,SCT,BKN,M,2300.00,3000.00,3800.00,M,M,M,M,M,M,M,M,M,RJKI 200800Z AUTO 07016KT 9999 FEW023 SCT030 BKN038 25/21 Q1017
ROIG,2020-10-20 08:00,124.1633,24.3367,82.40,77.00,83.77,40.00,20.00,0.00,29.88,M,6.21,M,FEW,BKN,M,M,1700.00,2500.00,M,M,M,M,M,M,M,M,M,90.85,ROIG 200800Z 04020KT 9999 FEW017 BKN025 28/25 Q1012
ROMD,2020-10-20 08:00,131.2286,25.8289,78.80,73.40,83.55,50.00,15.00,0.00,29.94,M,6.21,M,FEW,M,M,M,1900.00,M,M,M,M,M,M,M,M,M,M,M,ROMD 200800Z AUTO 05015KT 9999 FEW019 26/23 Q1014
ROMY,2020-10-20 08:00,125.2767,24.7933,80.60,75.20,83.66,50.00,16.00,0.00,29.88,M,6.21,M,FEW,SCT,BKN,M,1800.00,4000.00,M,M,VCSH,M,M,M,M,M,M,86.17,ROMY 200800Z 05016KT 9999 VCSH FEW018 SCT040 BKN/// 27/24 Q1012
RORY,2020-10-20 08:00,128.4020,27.0440,78.80,69.80,73.95,70.00,15.00,0.00,29.97,M,6.21,M,FEW,M,M,M,1700.00,M,M,M,M,M,M,M,M,M,M,M,RORY 200800Z AUTO 07015KT 9999 FEW017 26/21 Q1015
RJDC,2020-10-20 08:00,131.2786,33.9300,68.00,50.00,52.51,M,2.00,0.00,30.18,M,6.21,M,M,M,M,M,M,M,M,M,M,M,M,M,M,M,M,M,RJDC 200800Z VRB02KT CAVOK 20/10 Q1022
RJOM,2020-10-20 08:00,132.6997,33.8272,69.80,51.80,52.77,20.00,9.00,0.00,30.18,M,6.21,M,FEW,M,M,M,3500.00,M,M,M,M,M,M,M,M,M,M,M,RJOM 200800Z 02009KT 9999 FEW035 21/11 Q1022
RJFS,2020-10-20 08:00,130.3000,33.1500,69.80,41.00,35.09,30.00,12.00,0.00,30.15,M,6.21,M,M,M,M,M,M,M,M,M,M,M,M,M,M,M,M,M,RJFS 200800Z 03012KT CAVOK 21/05 Q1021
RJFT,2020-10-20 08:00,130.8553,32.8372,69.80,48.20,46.16,40.00,10.00,0.00,30.15,M,6.21,M,M,M,M,M,M,M,M,M,M,M,M,M,M,M,M,M,RJFT 200800Z 04010KT CAVOK 21/09 Q1021
RJOT,2020-10-20 08:00,134.0167,34.2167,64.40,51.80,63.60,140.00,3.00,0.00,30.21,M,6.21,M,FEW,M,M,M,3000.00,M,M,M,M,M,M,M,M,M,M,M,RJOT 200800Z 14003KT 9999 FEW030 18/11 Q1023
RJSK,2020-10-20 08:00,140.2167,39.6167,57.20,42.80,58.52,320.00,5.00,0.00,30.30,M,6.21,M,M,M,M,M,M,M,M,M,M,M,M,M,M,M,M,M,RJSK 200800Z 32005KT CAVOK 14/06 Q1026
RJOO,2020-10-20 08:00,135.4392,34.7844,69.80,46.40,43.13,10.00,8.00,0.00,30.18,M,6.21,M,FEW,SCT,M,M,3000.00,6000.00,M,M,M,M,M,M,M,M,M,M,RJOO 200800Z 01008KT 9999 FEW030 SCT060 21/08 Q1022 RMK 1CU030 3SC060 A3021
RJOR,2020-10-20 08:00,134.1650,35.5300,66.20,53.60,63.82,40.00,8.00,0.00,30.24,M,6.21,M,FEW,M,M,M,3500.00,M,M,M,M,M,M,M,M,M,M,M,RJOR 200800Z 04008KT 9999 FEW035 19/12 Q1024
RJOW,2020-10-20 08:00,131.7903,34.6764,66.20,51.80,59.74,40.00,4.00,0.00,30.21,M,6.21,M,FEW,M,M,M,3000.00,M,M,M,M,M,M,M,M,M,M,M,RJOW 200800Z 04004KT 330V090 9999 FEW030 19/11 Q1023
RJOY,2020-10-20 08:00,135.6006,34.5967,68.00,50.00,52.51,90.00,5.00,0.00,30.18,M,6.21,M,FEW,SCT,M,M,3000.00,6000.00,M,M,M,M,M,M,M,M,M,M,RJOY 200800Z 09005KT 9999 FEW030 SCT060 20/10 Q1022
RJSA,2020-10-20 08:00,140.6886,40.7333,50.00,42.80,76.18,250.00,7.00,0.00,30.30,M,6.21,M,FEW,M,M,M,3000.00,M,M,M,M,M,M,M,M,M,M,M,RJSA 200800Z 25007KT 9999 FEW030 10/06 Q1026
RJSC,2020-10-20 08:00,140.3711,38.4119,57.20,42.80,58.52,350.00,4.00,0.00,30.27,M,6.21,M,FEW,M,M,M,5000.00,M,M,M,M,M,M,M,M,M,M,M,RJSC 200800Z 35004KT 9999 FEW050 14/06 Q1025
RJSF,2020-10-20 08:00,140.4281,37.2275,59.00,48.20,67.33,350.00,6.00,0.00,30.27,M,6.21,M,FEW,BKN,BKN,M,2500.00,4000.00,5000.00,M,M,M,M,M,M,M,M,M,RJSF 200800Z 35006KT 9999 FEW025 BKN040 BKN050 15/09 Q1025
RJSI,2020-10-20 08:00,141.1353,39.4286,57.20,44.60,62.69,330.00,4.00,0.00,30.27,M,6.21,M,FEW,M,M,M,3000.00,M,M,M,M,M,M,M,M,M,M,M,RJSI 200800Z 33004KT 290V360 9999 FEW030 14/07 Q1025
RJSM,2020-10-20 08:00,141.3684,40.7032,57.20,42.80,58.52,300.00,9.00,0.00,30.27,M,6.21,M,FEW,M,M,M,4000.00,M,M,M,M,M,M,M,M,M,M,M,RJSM 200800Z 30009KT 9999 FEW040 14/06 Q1025
RJSN,2020-10-20 08:00,139.1117,37.9558,64.40,44.60,48.55,20.00,10.00,0.00,30.27,M,6.21,M,FEW,M,M,M,4000.00,M,M,M,M,M,M,M,M,M,M,M,RJSN 200800Z 02010KT 9999 FEW040 18/07 Q1025
RJSS,2020-10-20 08:00,140.9169,38.1397,64.40,46.40,51.98,M,1.00,0.00,30.27,M,6.21,M,FEW,M,M,M,3000.00,M,M,M,M,M,M,M,M,M,M,M,RJSS 200800Z VRB01KT 9999 FEW030 18/08 Q1025
RJTT,2020-10-20 08:00,139.7811,35.5533,66.20,51.80,59.74,60.00,11.00,0.00,30.21,M,6.21,M,FEW,M,M,M,3000.00,M,M,M,M,M,M,M,M,M,M,M,RJTT 200800Z 06011KT 9999 FEW030 19/11 Q1023 BECMG 08014KT
RORS,2020-10-20 08:00,125.1447,24.8267,82.40,75.20,78.90,60.00,17.00,0.00,29.88,M,6.21,M,SCT,BKN,M,M,1700.00,4900.00,M,M,VCSH,M,M,M,M,M,M,89.48,RORS 200800Z 06017KT 9999 VCSH SCT017 BKN049 28/24 Q1012
RJNS,2020-10-20 08:00,138.1894,34.7961,64.40,48.20,55.63,60.00,4.00,0.00,30.21,M,6.21,M,FEW,SCT,M,M,3000.00,7000.00,M,M,M,M,M,M,M,M,M,M,RJNS 200800Z 06004KT 030V090 9999 FEW030 SCT070 18/09 Q1023
RJBD,2020-10-20 08:00,135.3644,33.6622,68.00,50.00,52.51,110.00,6.00,0.00,30.18,M,6.21,M,FEW,M,M,M,3000.00,M,M,M,M,M,M,M,M,M,M,M,RJBD 200800Z 11006KT 9999 FEW030 20/10 Q1022
RJFG,2020-10-20 08:00,130.9917,30.6050,68.00,57.20,68.35,70.00,7.00,0.00,30.12,M,6.21,17.00,FEW,M,M,M,2500.00,M,M,M,M,M,M,M,M,M,M,M,RJFG 200800Z 07007G17KT 360V140 9999 FEW025 20/14 Q1020
RJOS,2020-10-20 08:00,134.6092,34.1322,68.00,51.80,56.13,350.00,6.00,0.00,30.21,M,6.21,M,FEW,M,M,M,3000.00,M,M,M,M,M,M,M,M,M,M,M,RJOS 200800Z 35006KT 9999 FEW030 20/11 Q1023
RJSY,2020-10-20 08:00,139.7872,38.8122,60.80,44.60,55.12,M,2.00,0.00,30.30,M,6.21,M,FEW,M,M,M,4000.00,M,M,M,M,M,M,M,M,M,M,M,RJSY 200800Z VRB02KT 9999 FEW040 16/07 Q1026
RORK,2020-10-20 08:00,131.3333,25.9167,80.60,73.40,78.76,70.00,19.00,0.00,29.94,M,6.21,M,BKN,M,M,M,1900.00,M,M,M,M,M,M,M,M,M,M,85.32,RORK 200800Z AUTO 07019KT 9999 BKN019 27/23 Q1014
ROYN,2020-10-20 08:00,122.9780,24.4670,80.60,77.00,88.83,30.00,21.00,0.00,29.91,M,4.97,M,BKN,BKN,M,M,1400.00,2300.00,M,M,M,M,M,M,M,M,M,87.59,ROYN 200800Z AUTO 03021KT 8000 BKN014 BKN023 27/25 Q1013
ROAH,2020-10-20 08:00,127.6458,26.1958,82.40,71.60,69.90,70.00,17.00,0.00,29.91,M,6.21,M,FEW,BKN,M,M,2500.00,M,M,M,M,M,M,M,M,M,M,87.18,ROAH 200800Z 07017KT 9999 FEW025 BKN/// 28/22 Q1013
RJKN,2020-10-20 08:12,128.8813,27.8364,75.20,71.60,88.59,50.00,13.00,0.00,30.00,M,2.80,M,SCT,BKN,BKN,M,1500.00,1700.00,2300.00,M,-RA BR,M,M,M,M,M,M,M,RJKN 200812Z AUTO 05013KT 4500 -RA BR SCT015 BKN017 BKN023 24/22 Q1016 RMK A3001
RODN,2020-10-20 08:14,127.7676,26.3556,80.60,71.60,74.11,50.00,19.00,0.00,29.95,M,10.00,23.00,SCT,M,M,M,1800.00,M,M,M,M,M,M,M,M,M,M,84.57,RODN 200814Z AUTO 05019G23KT 10SM SCT018 27/22 A2995 RMK AO2 SLPNO $
RJKN,2020-10-20 08:23,128.8813,27.8364,75.20,71.60,88.59,50.00,11.00,0.00,30.00,M,3.73,M,FEW,BKN,BKN,M,1400.00,1700.00,2300.00,M,-RA,M,M,M,M,M,M,M,RJKN 200823Z AUTO 05011KT 010V100 6000 -RA FEW014 BKN017 BKN023 24/22 Q1016 RMK A3001
ROAH,2020-10-20 08:27,127.6458,26.1958,82.40,71.60,69.90,70.00,17.00,0.00,29.91,M,6.21,27.00,FEW,BKN,M,M,2500.00,M,M,M,VCSH,M,M,M,M,M,M,87.18,ROAH 200827Z 07017G27KT 9999 VCSH FEW025 BKN/// 28/22 Q1013 RMK 2CU025 A2994
RJAA,2020-10-20 08:30,140.3856,35.7653,62.60,51.80,67.75,50.00,4.00,0.00,30.24,M,6.21,M,FEW,M,M,M,3000.00,M,M,M,M,M,M,M,M,M,M,M,RJAA 200830Z 05004KT 010V080 9999 FEW030 17/11 Q1024 NOSIG RMK 1CU030 A3025
RJCC,2020-10-20 08:30,141.6926,42.7742,51.80,41.00,66.48,330.00,5.00,0.00,30.27,M,6.21,M,FEW,M,M,M,3000.00,M,M,M,M,M,M,M,M,M,M,M,RJCC 200830Z 33005KT 9999 FEW030 11/05 Q1025 RMK 1CU030 A3027
RJFF,2020-10-20 08:30,130.4517,33.5844,69.80,39.20,32.72,80.00,5.00,0.00,30.18,M,6.21,M,M,M,M,M,M,M,M,M,M,M,M,M,M,M,M,M,RJFF 200830Z 08005KT 010V110 CAVOK 21/04 Q1022 BECMG 02005KT RMK A3019
RJBB,2020-10-20 08:30,135.2328,34.4342,69.80,57.20,64.26,320.00,8.00,0.00,30.18,M,6.21,M,FEW,SCT,M,M,3000.00,6000.00,M,M,M,M,M,M,M,M,M,M,RJBB 200830Z 32008KT 9999 FEW030 SCT060 21/14 Q1022 BECMG 03010KT
RJGG,2020-10-20 08:30,136.8054,34.8584,68.00,44.60,42.85,210.00,9.00,0.00,30.21,M,6.21,M,FEW,M,M,M,3000.00,M,M,M,M,M,M,M,M,M,M,M,RJGG 200830Z 21009KT 9999 FEW030 20/07 Q1023 NOSIG
RJTT,2020-10-20 08:30,139.7811,35.5533,66.20,51.80,59.74,50.00,12.00,0.00,30.24,M,6.21,M,FEW,M,M,M,3000.00,M,M,M,M,M,M,M,M,M,M,M,RJTT 200830Z 05012KT 9999 FEW030 19/11 Q1024 BECMG 08014KT RMK 1CU030 A3025
ROAH,2020-10-20 08:30,127.6458,26.1958,82.40,71.60,69.90,70.00,17.00,0.00,29.94,M,6.21,27.00,FEW,BKN,M,M,2500.00,M,M,M,VCSH,M,M,M,M,M,M,87.18,ROAH 200830Z 07017G27KT 9999 VCSH FEW025 BKN/// 28/22 Q1014 RMK 2CU025 A2994
RJOI,2020-10-20 08:55,132.2357,34.1439,70.00,48.90,47.06,80.00,7.00,0.00,30.20,1022.60,6.21,M,FEW,M,M,M,2500.00,M,M,M,M,M,M,M,M,M,M,M,RJOI 200855Z 08007KT 9999 FEW025 21/09 A3020 RMK SLP226 T02110094 54000
RJTY,2020-10-20 08:56,139.3485,35.7485,60.60,52.00,73.25,270.00,3.00,0.00,30.30,1026.50,10.00,M,CLR,M,M,M,M,M,M,M,M,M,M,M,M,M,M,M,RJTY 200856Z AUTO 27003KT 10SM CLR 16/11 A3030 RMK AO2 SLP265 T01590111 53009 FZRANO $
RODN,2020-10-20 08:56,127.7676,26.3556,79.30,71.40,76.82,60.00,16.00,0.00,29.96,M,10.00,23.00,CLR,M,M,M,M,M,M,M,M,M,M,M,M,M,M,M,RODN 200856Z AUTO 06016G23KT 10SM CLR 26/22 A2996 RMK AO2 SLPNO T02630219 52007 $
ROTM,2020-10-20 08:56,127.7565,26.2743,80.10,73.90,81.42,70.00,16.00,0.00,29.98,1013.30,6.21,22.00,SCT,BKN,BKN,M,2000.00,8000.00,18000.00,M,M,M,M,M,M,M,M,84.64,ROTM 200856Z 07016G22KT 9999 SCT020 BKN080 BKN180 27/23 A2998 RMK SLP133 T02670233 51010
RJFR,2020-10-20 09:00,131.0350,33.8456,66.20,48.20,52.25,0.00,0.00,0.00,30.18,M,6.21,M,FEW,M,M,M,2000.00,M,M,M,M,M,M,M,M,M,M,M,RJFR 200900Z 00000KT 9999 FEW020 19/09 Q1022
RJSR,2020-10-20 09:00,140.3714,40.1919,50.00,46.40,87.37,140.00,3.00,0.00,30.30,M,6.21,M,FEW,M,M,M,4000.00,M,M,M,M,M,M,M,M,M,M,M,RJSR 200900Z 14003KT 9999 FEW040 10/08 Q1026
RJAA,2020-10-20 09:00,140.3856,35.7653,60.80,51.80,72.20,20.00,4.00,0.00,30.24,M,6.21,M,FEW,M,M,M,3000.00,M,M,M,M,M,M,M,M,M,M,M,RJAA 200900Z 02004KT 9999 FEW030 16/11 Q1024 NOSIG
RJAH,2020-10-20 09:00,140.4147,36.1817,59.00,51.80,76.98,20.00,3.00,0.00,30.24,M,6.21,M,FEW,M,M,M,3000.00,M,M,M,M,M,M,M,M,M,M,M,RJAH 200900Z 02003KT 9999 FEW030 15/11 Q1024
RJBT,2020-10-20 09:00,134.7869,35.5128,60.80,53.60,77.14,10.00,2.00,0.00,30.24,M,6.21,M,FEW,M,M,M,2000.00,M,M,M,M,M,M,M,M,M,M,M,RJBT 200900Z 01002KT 9999 FEW020 16/12 Q1024
RJCB,2020-10-20 09:00,143.2172,42.7333,48.20,37.40,66.05,M,2.00,0.00,30.24,M,6.21,M,FEW,M,M,M,5000.00,M,M,M,M,M,M,M,M,M,M,M,RJCB 200900Z VRB02KT 9999 FEW050 09/03 Q1024
RJCC,2020-10-20 09:00,141.6926,42.7742,50.00,41.00,71.07,340.00,4.00,0.00,30.27,M,6.21,M,FEW,M,M,M,3000.00,M,M,M,M,M,M,M,M,M,M,M,RJCC 200900Z 34004KT 9999 FEW030 10/05 Q1025
RJCH,2020-10-20 09:00,140.8219,41.7700,55.40,41.00,58.27,10.00,5.00,0.00,30.27,M,6.21,M,FEW,M,M,M,3000.00,M,M,M,M,M,M,M,M,M,M,M,RJCH 200900Z 01005KT 320V040 9999 FEW030 13/05 Q1025
RJCK,2020-10-20 09:00,144.1931,43.0408,50.00,41.00,71.07,60.00,4.00,0.00,30.27,M,6.21,M,FEW,M,M,M,3000.00,M,M,M,M,M,M,M,M,M,M,M,RJCK 200900Z 06004KT 030V100 9999 FEW030 10/05 Q1025
RJCM,2020-10-20 09:00,144.1642,43.8806,46.40,39.20,75.84,190.00,3.00,0.00,30.27,M,6.21,M,FEW,M,M,M,2000.00,M,M,M,M,M,M,M,M,M,M,45.15,RJCM 200900Z 19003KT 160V250 9999 FEW020 08/04 Q1025
RJCN,2020-10-20 09:00,144.9600,43.5775,42.80,37.40,81.07,150.00,3.00,0.00,30.24,M,6.21,M,FEW,M,M,M,3000.00,M,M,M,M,M,M,M,M,M,M,41.03,RJCN 200900Z 15003KT 110V190 9999 FEW030 06/03 Q1024
RJCO,2020-10-20 09:00,141.3814,43.1175,53.60,42.80,66.70,290.00,4.00,0.00,30.30,M,6.21,M,FEW,M,M,M,3000.00,M,M,M,M,M,M,M,M,M,M,M,RJCO 200900Z 29004KT 9999 FEW030 12/06 Q1026
RJCW,2020-10-20 09:00,141.8022,45.4044,41.00,35.60,80.93,160.00,4.00,0.00,30.27,M,6.21,M,FEW,M,M,M,3000.00,M,M,M,M,M,M,M,M,M,M,37.93,RJCW 200900Z 16004KT 9999 FEW030 05/02 Q1025
RJDT,2020-10-20 09:00,129.3306,34.2850,64.40,50.00,59.50,30.00,8.00,0.00,30.21,M,6.21,M,FEW,M,M,M,3500.00,M,M,M,M,M,M,M,M,M,M,M,RJDT 200900Z 03008KT 340V060 9999 FEW035 18/10 Q1023
RJEC,2020-10-20 09:00,142.4475,43.6708,39.20,21.20,48.10,150.00,2.00,0.00,30.27,M,6.21,M,FEW,M,M,M,3000.00,M,M,M,M,M,M,M,M,M,M,M,RJEC 200900Z 15002KT 9999 FEW030 04/M06 Q1025
RJFE,2020-10-20 09:00,128.8328,32.6664,66.20,51.80,59.74,10.00,7.00,0.00,30.15,M,6.21,M,M,M,M,M,M,M,M,M,M,M,M,M,M,M,M,M,RJFE 200900Z 01007KT CAVOK 19/11 Q1021
RJFF,2020-10-20 09:00,130.4517,33.5844,66.20,42.80,42.57,30.00,6.00,0.00,30.18,M,6.21,M,M,M,M,M,M,M,M,M,M,M,M,M,M,M,M,M,RJFF 200900Z 03006KT 330V080 CAVOK 19/06 Q1022 NOSIG
RJFK,2020-10-20 09:00,130.7194,31.8033,64.40,44.60,48.55,110.00,8.00,0.00,30.15,M,6.21,M,FEW,M,M,M,3500.00,M,M,M,M,M,M,M,M,M,M,M,RJFK 200900Z 11008KT 080V150 9999 FEW035 18/07 Q1021
RJFM,2020-10-20 09:00,131.4486,31.8772,69.80,51.80,52.77,80.00,14.00,0.00,30.15,M,6.21,M,FEW,M,M,M,4000.00,M,M,M,M,M,M,M,M,M,M,M,RJFM 200900Z 08014KT 9999 FEW040 21/11 Q1021
RJFO,2020-10-20 09:00,131.7372,33.4794,64.40,50.00,59.50,M,4.00,0.00,30.18,M,6.21,M,M,M,M,M,M,M,M,M,M,M,M,M,M,M,M,M,RJFO 200900Z VRB04KT CAVOK 18/10 Q1022
RJAW,2020-10-20 09:00,141.3227,24.7840,80.60,77.00,88.83,200.00,7.00,0.00,29.83,M,6.21,M,FEW,BKN,BKN,M,1000.00,1500.00,15000.00,M,M,M,M,M,M,M,M,87.59,RJAW 200900Z 20007KT 9999 FEW010 BKN015 BKN150 27/25 Q1010 RMK 1CU010 5CU015 7AC150 A2985
RJBB,2020-10-20 09:00,135.2328,34.4342,69.80,55.40,60.21,340.00,8.00,0.00,30.21,M,6.21,M,FEW,SCT,M,M,3000.00,6000.00,M,M,M,M,M,M,M,M,M,M,RJBB 200900Z 34008KT 9999 FEW030 SCT060 21/13 Q1023 NOSIG
RJBE,2020-10-20 09:00,135.2239,34.6328,69.80,48.20,46.16,20.00,9.00,0.00,30.21,M,6.21,M,FEW,M,M,M,3000.00,M,M,M,M,M,M,M,M,M,M,M,RJBE 200900Z 02009KT 9999 FEW030 21/09 Q1023
RJNK,2020-10-20 09:00,136.4075,36.3939,64.40,50.00,59.50,50.00,9.00,0.00,30.24,M,6.21,M,FEW,M,M,M,5000.00,M,M,M,M,M,M,M,M,M,M,M,RJNK 200900Z 05009KT 9999 FEW050 18/10 Q1024
RJNT,2020-10-20 09:00,137.1875,36.6483,62.60,51.80,67.75,360.00,4.00,0.00,30.24,M,6.21,M,FEW,M,M,M,3000.00,M,M,M,M,M,M,M,M,M,M,M,RJNT 200900Z 36004KT 320V040 9999 FEW030 17/11 Q1024
RJNW,2020-10-20 09:00,136.9618,37.2931,57.20,46.40,67.12,50.00,6.00,0.00,30.27,M,6.21,M,FEW,M,M,M,2000.00,M,M,M,M,M,M,M,M,M,M,M,RJNW 200900Z 05006KT 9999 FEW020 14/08 Q1025
RJOA,2020-10-20 09:00,132.9194,34.4361,60.80,46.40,59.01,M,2.00,0.00,30.24,M,6.21,M,FEW,M,M,M,4500.00,M,M,M,M,M,M,M,M,M,M,M,RJOA 200900Z VRB02KT 9999 FEW045 16/08 Q1024
RJOB,2020-10-20 09:00,133.8553,34.7569,60.80,46.40,59.01,M,2.00,0.00,30.21,M,6.21,M,FEW,M,M,M,3500.00,M,M,M,M,M,M,M,M,M,M,M,RJOB 200900Z VRB02KT 9999 FEW035 16/08 Q1023
RJOC,2020-10-20 09:00,132.8900,35.4136,66.20,51.80,59.74,30.00,9.00,0.00,30.24,M,6.21,M,M,M,M,M,M,M,M,M,M,M,M,M,M,M,M,M,RJOC 200900Z 03009KT CAVOK 19/11 Q1024
RJOH,2020-10-20 09:00,133.2392,35.4933,64.40,53.60,67.95,70.00,11.00,0.00,30.24,M,6.21,M,FEW,M,M,M,4000.00,M,M,M,M,M,M,M,M,M,M,M,RJOH 200900Z 07011KT 9999 FEW040 18/12 Q1024
RJKA,2020-10-20 09:00,129.7125,28.4308,77.00,69.80,78.48,60.00,20.00,0.00,30.03,M,6.21,M,FEW,SCT,M,M,2000.00,2200.00,M,M,M,M,M,M,M,M,M,M,RJKA 200900Z 06020KT 9999 FEW020 SCT022 25/21 Q1017
RJOK,2020-10-20 09:00,133.6694,33.5461,66.20,51.80,59.74,20.00,5.00,0.00,30.18,M,6.21,M,FEW,M,M,M,4000.00,M,M,M,M,M,M,M,M,M,M,M,RJOK 200900Z 02005KT 9999 FEW040 19/11 Q1022
RJFU,2020-10-20 09:00,129.9136,32.9169,69.80,42.80,37.61,40.00,9.00,0.00,30.12,M,6.21,M,M,M,M,M,M,M,M,M,M,M,M,M,M,M,M,M,RJFU 200900Z 04009KT CAVOK 21/06 Q1020
RJGG,2020-10-20 09:00,136.8054,34.8584,68.00,46.40,45.88,200.00,8.00,0.00,30.21,M,6.21,M,FEW,M,M,M,3000.00,M,M,M,M,M,M,M,M,M,M,M,RJGG 200900Z 20008KT 9999 FEW030 20/08 Q1023 NOSIG
RJKI,2020-10-20 09:00,129.9281,28.3213,77.00,69.80,78.48,60.00,17.00,0.00,30.03,M,6.21,M,SCT,BKN,OVC,M,2300.00,3100.00,5000.00,M,M,M,M,M,M,M,M,M,RJKI 200900Z AUTO 06017KT 9999 SCT023 BKN031 OVC050 25/21 Q1017
ROIG,2020-10-20 09:00,124.1633,24.3367,80.60,77.00,88.83,40.00,21.00,0.00,29.88,M,6.21,M,FEW,SCT,BKN,M,1700.00,2200.00,5000.00,M,M,M,M,M,M,M,M,87.59,ROIG 200900Z 04021KT 9999 FEW017 SCT022 BKN050 27/25 Q1012
ROMD,2020-10-20 09:00,131.2286,25.8289,78.80,73.40,83.55,60.00,13.00,0.00,29.94,M,6.21,M,SCT,M,M,M,1900.00,M,M,M,M,M,M,M,M,M,M,M,ROMD 200900Z AUTO 06013KT 9999 SCT019 26/23 Q1014
ROMY,2020-10-20 09:00,125.2767,24.7933,80.60,75.20,83.66,50.00,15.00,0.00,29.91,M,6.21,M,SCT,SCT,BKN,M,1800.00,4000.00,M,M,M,M,M,M,M,M,M,86.17,ROMY 200900Z 05015KT 9999 SCT018 SCT040 BKN/// 27/24 Q1013
RORY,2020-10-20 09:00,128.4020,27.0440,78.80,71.60,78.62,70.00,14.00,0.00,29.97,M,6.21,M,FEW,SCT,BKN,M,2000.00,2300.00,2700.00,M,M,M,M,M,M,M,M,M,RORY 200900Z AUTO 07014KT 9999 FEW020 SCT023 BKN027 26/22 Q1015
RJDC,2020-10-20 09:00,131.2786,33.9300,66.20,50.00,55.88,300.00,1.00,0.00,30.18,M,6.21,M,FEW,M,M,M,3500.00,M,M,M,M,M,M,M,M,M,M,M,RJDC 200900Z 30001KT 9999 FEW035 19/10 Q1022
RJOM,2020-10-20 09:00,132.6997,33.8272,68.00,51.80,56.13,40.00,4.00,0.00,30.18,M,6.21,M,FEW,M,M,M,4000.00,M,M,M,M,M,M,M,M,M,M,M,RJOM 200900Z 04004KT 9999 FEW040 20/11 Q1022
RJFS,2020-10-20 09:00,130.3000,33.1500,66.20,41.00,39.72,20.00,10.00,0.00,30.15,M,6.21,M,M,M,M,M,M,M,M,M,M,M,M,M,M,M,M,M,RJFS 200900Z 02010KT CAVOK 19/05 Q1021
RJFT,2020-10-20 09:00,130.8553,32.8372,64.40,46.40,51.98,50.00,8.00,0.00,30.15,M,6.21,M,M,M,M,M,M,M,M,M,M,M,M,M,M,M,M,M,RJFT 200900Z 05008KT 010V070 CAVOK 18/08 Q1021
RJOT,2020-10-20 09:00,134.0167,34.2167,59.00,51.80,76.98,130.00,3.00,0.00,30.21,M,6.21,M,FEW,M,M,M,3000.00,M,M,M,M,M,M,M,M,M,M,M,RJOT 200900Z 13003KT 090V170 9999 FEW030 15/11 Q1023
RJSK,2020-10-20 09:00,140.2167,39.6167,53.60,44.60,71.45,360.00,4.00,0.00,30.30,M,6.21,M,M,M,M,M,M,M,M,M,M,M,M,M,M,M,M,M,RJSK 200900Z 36004KT CAVOK 12/07 Q1026
RJOO,2020-10-20 09:00,135.4392,34.7844,66.20,48.20,52.25,350.00,9.00,0.00,30.21,M,6.21,M,FEW,M,M,M,3000.00,M,M,M,M,M,M,M,M,M,M,M,RJOO 200900Z 35009KT 310V010 9999 FEW030 19/09 Q1023
RJOR,2020-10-20 09:00,134.1650,35.5300,66.20,55.40,68.15,30.00,3.00,0.00,30.24,M,6.21,M,FEW,SCT,M,M,3500.00,6000.00,M,M,M,M,M,M,M,M,M,M,RJOR 200900Z 03003KT 360V110 9999 FEW035 SCT060 19/13 Q1024
RJOW,2020-10-20 09:00,131.7903,34.6764,64.40,53.60,67.95,70.00,4.00,0.00,30.21,M,6.21,M,FEW,M,M,M,3000.00,M,M,M,M,M,M,M,M,M,M,M,RJOW 200900Z 07004KT 020V110 9999 FEW030 18/12 Q1023
RJOY,2020-10-20 09:00,135.6006,34.5967,68.00,51.80,56.13,10.00,4.00,0.00,30.21,M,6.21,M,FEW,SCT,M,M,3000.00,6000.00,M,M,M,M,M,M,M,M,M,M,RJOY 200900Z 01004KT 330V080 9999 FEW030 SCT060 20/11 Q1023
RJSA,2020-10-20 09:00,140.6886,40.7333,44.60,41.00,87.09,230.00,7.00,0.00,30.30,M,6.21,M,FEW,M,M,M,3000.00,M,M,M,M,M,M,M,M,M,M,40.14,RJSA 200900Z 23007KT 9999 FEW030 07/05 Q1026
RJSC,2020-10-20 09:00,140.3711,38.4119,51.80,44.60,76.34,90.00,4.00,0.00,30.30,M,6.21,M,FEW,M,M,M,5000.00,M,M,M,M,M,M,M,M,M,M,M,RJSC 200900Z 09004KT 9999 FEW050 11/07 Q1026
RJSF,2020-10-20 09:00,140.4281,37.2275,59.00,48.20,67.33,360.00,6.00,0.00,30.27,M,6.21,M,FEW,BKN,M,M,2000.00,4500.00,M,M,M,M,M,M,M,M,M,M,RJSF 200900Z 36006KT 9999 FEW020 BKN045 15/09 Q1025
RJSI,2020-10-20 09:00,141.1353,39.4286,55.40,44.60,66.91,330.00,4.00,0.00,30.27,M,6.21,M,FEW,M,M,M,3000.00,M,M,M,M,M,M,M,M,M,M,M,RJSI 200900Z 33004KT 9999 FEW030 13/07 Q1025
RJSM,2020-10-20 09:00,141.3684,40.7032,53.60,44.60,71.45,280.00,7.00,0.00,30.30,M,6.21,M,FEW,M,M,M,4000.00,M,M,M,M,M,M,M,M,M,M,M,RJSM 200900Z 28007KT 9999 FEW040 12/07 Q1026
RJSN,2020-10-20 09:00,139.1117,37.9558,64.40,48.20,55.63,20.00,10.00,0.00,30.30,M,6.21,M,FEW,M,M,M,4000.00,M,M,M,M,M,M,M,M,M,M,M,RJSN 200900Z 02010KT 9999 FEW040 18/09 Q1026
RJSS,2020-10-20 09:00,140.9169,38.1397,60.80,46.40,59.01,280.00,3.00,0.00,30.27,M,6.21,M,FEW,SCT,M,M,3000.00,5000.00,M,M,M,M,M,M,M,M,M,M,RJSS 200900Z 28003KT 9999 FEW030 SCT050 16/08 Q1025
RJTT,2020-10-20 09:00,139.7811,35.5533,66.20,53.60,63.82,60.00,9.00,0.00,30.24,M,6.21,M,FEW,M,M,M,3000.00,M,M,M,M,M,M,M,M,M,M,M,RJTT 200900Z 06009KT 9999 FEW030 19/12 Q1024 BECMG 05014KT
RORS,2020-10-20 09:00,125.1447,24.8267,80.60,75.20,83.66,60.00,16.00,0.00,29.91,M,6.21,M,FEW,BKN,M,M,1900.00,M,M,M,M,M,M,M,M,M,M,86.17,RORS 200900Z 06016KT 9999 FEW019 BKN/// 27/24 Q1013
RJNS,2020-10-20 09:00,138.1894,34.7961,60.80,51.80,72.20,360.00,4.00,0.00,30.21,M,6.21,M,FEW,M,M,M,3000.00,M,M,M,M,M,M,M,M,M,M,M,RJNS 200900Z 36004KT 9999 FEW030 16/11 Q1023
RJBD,2020-10-20 09:00,135.3644,33.6622,64.40,51.80,63.60,100.00,5.00,0.00,30.21,M,6.21,M,FEW,M,M,M,3000.00,M,M,M,M,M,M,M,M,M,M,M,RJBD 200900Z 10005KT 9999 FEW030 18/11 Q1023
RJFG,2020-10-20 09:00,130.9917,30.6050,66.20,57.20,72.74,70.00,6.00,0.00,30.12,M,6.21,M,FEW,M,M,M,2500.00,M,M,M,M,M,M,M,M,M,M,M,RJFG 200900Z 07006KT 020V140 9999 FEW025 19/14 Q1020
RJOS,2020-10-20 09:00,134.6092,34.1322,66.20,53.60,63.82,310.00,3.00,0.00,30.21,M,6.21,M,FEW,M,M,M,3000.00,M,M,M,M,M,M,M,M,M,M,M,RJOS 200900Z 31003KT 9999 FEW030 19/12 Q1023
RJSY,2020-10-20 09:00,139.7872,38.8122,55.40,44.60,66.91,60.00,2.00,0.00,30.30,M,6.21,M,M,M,M,M,M,M,M,M,M,M,M,M,M,M,M,M,RJSY 200900Z 06002KT CAVOK 13/07 Q1026
RORK,2020-10-20 09:00,131.3333,25.9167,80.60,73.40,78.76,60.00,20.00,0.00,29.94,M,6.21,M,FEW,M,M,M,1900.00,M,M,M,M,M,M,M,M,M,M,85.32,RORK 200900Z AUTO 06020KT 9999 FEW019 27/23 Q1014
ROYN,2020-10-20 09:00,122.9780,24.4670,80.60,75.20,83.66,40.00,21.00,0.00,29.91,M,4.97,M,SCT,SCT,BKN,M,1400.00,1900.00,2100.00,M,M,M,M,M,M,M,M,86.17,ROYN 200900Z AUTO 04021KT 8000 SCT014 SCT019 BKN021 27/24 Q1013
ROAH,2020-10-20 09:00,127.6458,26.1958,80.60,71.60,74.11,70.00,17.00,0.00,29.94,M,6.21,M,FEW,BKN,M,M,2000.00,M,M,M,VCSH,M,M,M,M,M,M,84.57,ROAH 200900Z 07017KT 9999 VCSH FEW020 BKN/// 27/22 Q1014
ROAH,2020-10-20 09:11,127.6458,26.1958,80.60,71.60,74.11,60.00,16.00,0.00,29.94,M,6.21,26.00,FEW,BKN,M,M,2000.00,M,M,M,M,M,M,M,M,M,M,84.57,ROAH 200911Z 06016G26KT 9999 FEW020 BKN/// 27/22 Q1014 RMK 2CU020 A2995
ROAH,2020-10-20 09:30,127.6458,26.1958,80.60,71.60,74.11,70.00,16.00,0.00,29.94,M,6.21,M,SCT,BKN,M,M,2000.00,M,M,M,-SHRA,M,M,M,M,M,M,84.57,ROAH 200930Z 07016KT 9999 -SHRA SCT020 BKN/// 27/22 Q1014
RJAA,2020-10-20 09:30,140.3856,35.7653,60.80,50.00,67.54,30.00,5.00,0.00,30.27,M,6.21,M,FEW,M,M,M,3000.00,M,M,M,M,M,M,M,M,M,M,M,RJAA 200930Z 03005KT 9999 FEW030 16/10 Q1025 NOSIG
RJCC,2020-10-20 09:30,141.6926,42.7742,48.20,42.80,81.47,M,1.00,0.00,30.30,M,6.21,M,M,M,M,M,M,M,M,M,M,M,M,M,M,M,M,M,RJCC 200930Z VRB01KT CAVOK 09/06 Q1026
RJFF,2020-10-20 09:30,130.4517,33.5844,66.20,46.40,48.83,30.00,5.00,0.00,30.18,M,6.21,M,M,M,M,M,M,M,M,M,M,M,M,M,M,M,M,M,RJFF 200930Z 03005KT 340V070 CAVOK 19/08 Q1022 NOSIG
RJBB,2020-10-20 09:30,135.2328,34.4342,69.80,53.60,56.38,20.00,15.00,0.00,30.21,M,6.21,M,FEW,SCT,M,M,3000.00,6000.00,M,M,M,M,M,M,M,M,M,M,RJBB 200930Z 02015KT 9999 FEW030 SCT060 21/12 Q1023 NOSIG
RJGG,2020-10-20 09:30,136.8054,34.8584,66.20,48.20,52.25,200.00,8.00,0.00,30.21,M,6.21,M,FEW,M,M,M,3000.00,M,M,M,M,M,M,M,M,M,M,M,RJGG 200930Z 20008KT 9999 FEW030 19/09 Q1023 NOSIG
RJTT,2020-10-20 09:30,139.7811,35.5533,64.40,53.60,67.95,50.00,9.00,0.00,30.24,M,6.21,M,FEW,M,M,M,3000.00,M,M,M,M,M,M,M,M,M,M,M,RJTT 200930Z 05009KT 9999 FEW030 18/12 Q1024 NOSIG
RJOI,2020-10-20 09:55,132.2357,34.1439,69.10,46.90,45.02,60.00,8.00,0.00,30.21,1023.00,6.21,M,FEW,M,M,M,2500.00,M,M,M,M,M,M,M,M,M,M,M,RJOI 200955Z 06008KT 9999 FEW025 21/08 A3021 RMK SLP230 T02060083
RJTY,2020-10-20 09:56,139.3485,35.7485,57.90,51.10,78.03,270.00,3.00,0.00,30.32,1027.30,10.00,M,CLR,M,M,M,M,M,M,M,M,M,M,M,M,M,M,M,RJTY 200956Z AUTO 27003KT 10SM CLR 14/11 A3032 RMK AO2 SLP273 T01440106 FZRANO $
RODN,2020-10-20 09:56,127.7676,26.3556,79.50,71.20,75.80,60.00,17.00,0.00,29.97,M,10.00,24.00,FEW,SCT,BKN,M,2100.00,3200.00,4400.00,M,M,M,M,M,M,M,M,M,RODN 200956Z AUTO 06017G24KT 10SM FEW021 SCT032 BKN044 26/22 A2997 RMK AO2 SLPNO T02640218 $
ROTM,2020-10-20 09:56,127.7565,26.2743,79.00,73.00,81.89,80.00,14.00,0.00,29.99,1013.90,6.21,21.00,SCT,BKN,M,M,2000.00,3000.00,M,M,M,M,M,M,M,M,M,M,ROTM 200956Z 08014G21KT 9999 SCT020 BKN030 26/23 A2999 RMK SLP139 T02610228
RJNS,2020-10-20 10:00,138.1894,34.7961,59.00,51.80,76.98,350.00,4.00,0.00,30.24,M,6.21,M,FEW,M,M,M,3000.00,M,M,M,M,M,M,M,M,M,M,M,RJNS 201000Z 35004KT 9999 FEW030 15/11 Q1024
RJBD,2020-10-20 10:00,135.3644,33.6622,62.60,50.00,63.38,70.00,8.00,0.00,30.21,M,6.21,M,FEW,M,M,M,3000.00,M,M,M,M,M,M,M,M,M,M,M,RJBD 201000Z 07008KT 9999 FEW030 17/10 Q1023
RJOS,2020-10-20 10:00,134.6092,34.1322,62.60,53.60,72.38,320.00,5.00,0.00,30.21,M,6.21,M,FEW,M,M,M,3000.00,M,M,M,M,M,M,M,M,M,M,M,RJOS 201000Z 32005KT 9999 FEW030 17/12 Q1023
RJSY,2020-10-20 10:00,139.7872,38.8122,55.40,44.60,66.91,M,2.00,0.00,30.33,M,6.21,M,M,M,M,M,M,M,M,M,M,M,M,M,M,M,M,M,RJSY 201000Z VRB02KT CAVOK 13/07 Q1027
RORK,2020-10-20 10:00,131.3333,25.9167,80.60,73.40,78.76,60.00,22.00,0.00,29.94,M,6.21,M,SCT,M,M,M,2000.00,M,M,M,M,M,M,M,M,M,M,85.32,RORK 201000Z AUTO 06022KT 9999 SCT020 27/23 Q1014
ROYN,2020-10-20 10:00,122.9780,24.4670,80.60,75.20,83.66,50.00,21.00,0.00,29.91,M,6.21,M,FEW,SCT,M,M,1500.00,5000.00,M,M,M,M,M,M,M,M,M,86.17,ROYN 201000Z AUTO 05021KT 9999 FEW015 SCT050 27/24 Q1013
ROAH,2020-10-20 10:00,127.6458,26.1958,78.80,73.40,83.55,70.00,13.00,0.00,29.94,M,6.21,M,SCT,BKN,M,M,2000.00,M,M,M,-SHRA,M,M,M,M,M,M,M,ROAH 201000Z 07013KT 9999 -SHRA SCT020 BKN/// 26/23 Q1014
RJFR,2020-10-20 10:00,131.0350,33.8456,64.40,55.40,72.56,330.00,6.00,0.00,30.21,M,6.21,M,FEW,M,M,M,2000.00,M,M,M,M,M,M,M,M,M,M,M,RJFR 201000Z 33006KT 9999 FEW020 18/13 Q1023
RJSR,2020-10-20 10:00,140.3714,40.1919,48.20,46.40,93.45,0.00,0.00,0.00,30.33,M,6.21,M,FEW,M,M,M,4000.00,M,M,M,M,M,M,M,M,M,M,M,RJSR 201000Z 00000KT 9999 FEW040 09/08 Q1027
RJAA,2020-10-20 10:00,140.3856,35.7653,60.80,51.80,72.20,20.00,5.00,0.00,30.27,M,6.21,M,FEW,M,M,M,3000.00,M,M,M,M,M,M,M,M,M,M,M,RJAA 201000Z 02005KT 9999 FEW030 16/11 Q1025 NOSIG
RJAH,2020-10-20 10:00,140.4147,36.1817,55.40,51.80,87.65,350.00,2.00,0.00,30.27,M,6.21,M,FEW,M,M,M,3000.00,M,M,M,M,M,M,M,M,M,M,M,RJAH 201000Z 35002KT 9999 FEW030 13/11 Q1025
RJCB,2020-10-20 10:00,143.2172,42.7333,44.60,37.40,75.68,M,1.00,0.00,30.27,M,6.21,M,FEW,M,M,M,5000.00,M,M,M,M,M,M,M,M,M,M,M,RJCB 201000Z VRB01KT 9999 FEW050 07/03 Q1025
RJCC,2020-10-20 10:00,141.6926,42.7742,46.40,42.80,87.19,M,2.00,0.00,30.30,M,6.21,M,M,M,M,M,M,M,M,M,M,M,M,M,M,M,M,M,RJCC 201000Z VRB02KT CAVOK 08/06 Q1026
RJCH,2020-10-20 10:00,140.8219,41.7700,50.00,42.80,76.18,30.00,5.00,0.00,30.30,M,6.21,M,FEW,M,M,M,3000.00,M,M,M,M,M,M,M,M,M,M,M,RJCH 201000Z 03005KT 9999 FEW030 10/06 Q1026
RJCK,2020-10-20 10:00,144.1931,43.0408,48.20,39.20,70.88,40.00,4.00,0.00,30.27,M,6.21,M,FEW,M,M,M,3000.00,M,M,M,M,M,M,M,M,M,M,46.34,RJCK 201000Z 04004KT 9999 FEW030 09/04 Q1025
RJCM,2020-10-20 10:00,144.1642,43.8806,42.80,37.40,81.07,210.00,3.00,0.00,30.30,M,6.21,M,FEW,SCT,M,M,2000.00,6000.00,M,M,M,M,M,M,M,M,M,41.03,RJCM 201000Z 21003KT 170V250 9999 FEW020 SCT060 06/03 Q1026
RJCO,2020-10-20 10:00,141.3814,43.1175,48.20,41.00,76.01,230.00,2.00,0.00,30.30,M,6.21,M,FEW,M,M,M,3000.00,M,M,M,M,M,M,M,M,M,M,M,RJCO 201000Z 23002KT 9999 FEW030 09/05 Q1026
RJDT,2020-10-20 10:00,129.3306,34.2850,64.40,48.20,55.63,30.00,9.00,0.00,30.21,M,6.21,M,FEW,M,M,M,3500.00,M,M,M,M,M,M,M,M,M,M,M,RJDT 201000Z 03009KT 9999 FEW035 18/09 Q1023
RJEC,2020-10-20 10:00,142.4475,43.6708,37.40,23.00,55.68,170.00,6.00,0.00,30.27,M,6.21,M,FEW,M,M,M,3000.00,M,M,M,M,M,M,M,M,M,M,32.03,RJEC 201000Z 17006KT 9999 FEW030 03/M05 Q1025
RJFE,2020-10-20 10:00,128.8328,32.6664,66.20,51.80,59.74,30.00,8.00,0.00,30.15,M,6.21,M,M,M,M,M,M,M,M,M,M,M,M,M,M,M,M,M,RJFE 201000Z 03008KT CAVOK 19/11 Q1021
RJFF,2020-10-20 10:00,130.4517,33.5844,64.40,48.20,55.63,60.00,4.00,0.00,30.21,M,6.21,M,M,M,M,M,M,M,M,M,M,M,M,M,M,M,M,M,RJFF 201000Z 06004KT CAVOK 18/09 Q1023 NOSIG
RJFK,2020-10-20 10:00,130.7194,31.8033,62.60,50.00,63.38,120.00,7.00,0.00,30.18,M,6.21,M,FEW,M,M,M,3500.00,M,M,M,M,M,M,M,M,M,M,M,RJFK 201000Z 12007KT 070V150 9999 FEW035 17/10 Q1022
RJFM,2020-10-20 10:00,131.4486,31.8772,69.80,51.80,52.77,70.00,13.00,0.00,30.15,M,6.21,M,FEW,M,M,M,4000.00,M,M,M,M,M,M,M,M,M,M,M,RJFM 201000Z 07013KT 9999 FEW040 21/11 Q1021
RJFO,2020-10-20 10:00,131.7372,33.4794,59.00,50.00,72.01,250.00,4.00,0.00,30.18,M,6.21,M,M,M,M,M,M,M,M,M,M,M,M,M,M,M,M,M,RJFO 201000Z 25004KT CAVOK 15/10 Q1022
RJBB,2020-10-20 10:00,135.2328,34.4342,69.80,53.60,56.38,20.00,19.00,0.00,30.21,M,6.21,M,FEW,M,M,M,3000.00,M,M,M,M,M,M,M,M,M,M,M,RJBB 201000Z 02019KT 9999 FEW030 21/12 Q1023 NOSIG
RJBE,2020-10-20 10:00,135.2239,34.6328,68.00,46.40,45.88,40.00,7.00,0.00,30.21,M,6.21,M,FEW,M,M,M,3000.00,M,M,M,M,M,M,M,M,M,M,M,RJBE 201000Z 04007KT 9999 FEW030 20/08 Q1023
RJNK,2020-10-20 10:00,136.4075,36.3939,60.80,50.00,67.54,40.00,7.00,0.00,30.24,M,6.21,M,FEW,M,M,M,5000.00,M,M,M,M,M,M,M,M,M,M,M,RJNK 201000Z 04007KT 9999 FEW050 16/10 Q1024
RJNT,2020-10-20 10:00,137.1875,36.6483,59.00,51.80,76.98,180.00,5.00,0.00,30.24,M,6.21,M,FEW,M,M,M,3000.00,M,M,M,M,M,M,M,M,M,M,M,RJNT 201000Z 18005KT 9999 FEW030 15/11 Q1024
RJNW,2020-10-20 10:00,136.9618,37.2931,57.20,46.40,67.12,50.00,6.00,0.00,30.30,M,6.21,M,FEW,M,M,M,2000.00,M,M,M,M,M,M,M,M,M,M,M,RJNW 201000Z 05006KT 9999 FEW020 14/08 Q1026
RJOA,2020-10-20 10:00,132.9194,34.4361,60.80,48.20,63.15,50.00,5.00,0.00,30.24,M,6.21,M,FEW,M,M,M,4500.00,M,M,M,M,M,M,M,M,M,M,M,RJOA 201000Z 05005KT 9999 FEW045 16/09 Q1024
RJOB,2020-10-20 10:00,133.8553,34.7569,60.80,51.80,72.20,20.00,4.00,0.00,30.24,M,6.21,M,FEW,M,M,M,3000.00,M,M,M,M,M,M,M,M,M,M,M,RJOB 201000Z 02004KT 350V060 9999 FEW030 16/11 Q1024
RJOC,2020-10-20 10:00,132.8900,35.4136,59.00,51.80,76.98,150.00,4.00,0.00,30.24,M,6.21,M,M,M,M,M,M,M,M,M,M,M,M,M,M,M,M,M,RJOC 201000Z 15004KT 120V180 CAVOK 15/11 Q1024
RJOH,2020-10-20 10:00,133.2392,35.4933,64.40,53.60,67.95,70.00,10.00,0.00,30.24,M,6.21,M,FEW,M,M,M,4000.00,M,M,M,M,M,M,M,M,M,M,M,RJOH 201000Z 07010KT 9999 FEW040 18/12 Q1024
RJKA,2020-10-20 10:00,129.7125,28.4308,77.00,69.80,78.48,60.00,19.00,0.00,30.03,M,6.21,M,FEW,SCT,M,M,2000.00,6000.00,M,M,M,M,M,M,M,M,M,M,RJKA 201000Z 06019KT 9999 FEW020 SCT060 25/21 Q1017
RJOK,2020-10-20 10:00,133.6694,33.5461,64.40,51.80,63.60,10.00,6.00,0.00,30.18,M,6.21,M,FEW,M,M,M,3000.00,M,M,M,M,M,M,M,M,M,M,M,RJOK 201000Z 01006KT 9999 FEW030 18/11 Q1022
RJFU,2020-10-20 10:00,129.9136,32.9169,68.00,37.40,32.43,10.00,11.00,0.00,30.15,M,6.21,M,M,M,M,M,M,M,M,M,M,M,M,M,M,M,M,M,RJFU 201000Z 01011KT CAVOK 20/03 Q1021
RJGG,2020-10-20 10:00,136.8054,34.8584,68.00,50.00,52.51,190.00,8.00,0.00,30.21,M,6.21,M,FEW,M,M,M,3000.00,M,M,M,M,M,M,M,M,M,M,M,RJGG 201000Z 19008KT 9999 FEW030 20/10 Q1023 NOSIG
RJKI,2020-10-20 10:00,129.9281,28.3213,77.00,69.80,78.48,70.00,17.00,0.00,30.03,M,6.21,M,FEW,BKN,M,M,2400.00,4700.00,M,M,M,M,M,M,M,M,M,M,RJKI 201000Z AUTO 07017KT 9999 FEW024 BKN047 25/21 Q1017
ROIG,2020-10-20 10:00,124.1633,24.3367,80.60,77.00,88.83,40.00,20.00,0.00,29.88,M,6.21,M,FEW,SCT,BKN,M,1700.00,2500.00,6000.00,M,M,M,M,M,M,M,M,87.59,ROIG 201000Z 04020KT 9999 FEW017 SCT025 BKN060 27/25 Q1012
ROMD,2020-10-20 10:00,131.2286,25.8289,78.80,73.40,83.55,50.00,14.00,0.00,29.94,M,6.21,M,SCT,BKN,M,M,1700.00,5000.00,M,M,M,M,M,M,M,M,M,M,ROMD 201000Z AUTO 05014KT 9999 SCT017 BKN050 26/23 Q1014
ROMY,2020-10-20 10:00,125.2767,24.7933,80.60,75.20,83.66,60.00,14.00,0.00,29.91,M,6.21,M,SCT,BKN,M,M,1500.00,M,M,M,M,M,M,M,M,M,M,86.17,ROMY 201000Z 06014KT 9999 SCT015 BKN/// 27/24 Q1013
RORY,2020-10-20 10:00,128.4020,27.0440,78.80,71.60,78.62,80.00,15.00,0.00,29.97,M,6.21,M,FEW,M,M,M,1800.00,M,M,M,M,M,M,M,M,M,M,M,RORY 201000Z AUTO 08015KT 9999 FEW018 26/22 Q1015
RJDC,2020-10-20 10:00,131.2786,33.9300,64.40,50.00,59.50,350.00,3.00,0.00,30.21,M,6.21,M,M,M,M,M,M,M,M,M,M,M,M,M,M,M,M,M,RJDC 201000Z 35003KT 290V030 CAVOK 18/10 Q1023
RJOM,2020-10-20 10:00,132.6997,33.8272,66.20,51.80,59.74,M,2.00,0.00,30.18,M,6.21,M,FEW,M,M,M,4000.00,M,M,M,M,M,M,M,M,M,M,M,RJOM 201000Z VRB02KT 9999 FEW040 19/11 Q1022
RJFS,2020-10-20 10:00,130.3000,33.1500,64.40,41.00,42.28,30.00,11.00,0.00,30.15,M,6.21,M,M,M,M,M,M,M,M,M,M,M,M,M,M,M,M,M,RJFS 201000Z 03011KT CAVOK 18/05 Q1021
RJFT,2020-10-20 10:00,130.8553,32.8372,62.60,46.40,55.37,60.00,11.00,0.00,30.15,M,6.21,M,M,M,M,M,M,M,M,M,M,M,M,M,M,M,M,M,RJFT 201000Z 06011KT CAVOK 17/08 Q1021
RJOT,2020-10-20 10:00,134.0167,34.2167,59.00,51.80,76.98,140.00,5.00,0.00,30.24,M,6.21,M,FEW,M,M,M,3000.00,M,M,M,M,M,M,M,M,M,M,M,RJOT 201000Z 14005KT 090V180 9999 FEW030 15/11 Q1024
RJSK,2020-10-20 10:00,140.2167,39.6167,50.00,44.60,81.61,10.00,4.00,0.00,30.33,M,6.21,M,M,M,M,M,M,M,M,M,M,M,M,M,M,M,M,M,RJSK 201000Z 01004KT CAVOK 10/07 Q1027
RJOO,2020-10-20 10:00,135.4392,34.7844,64.40,50.00,59.50,350.00,8.00,0.00,30.21,M,6.21,M,FEW,M,M,M,3000.00,M,M,M,M,M,M,M,M,M,M,M,RJOO 201000Z 35008KT 9999 FEW030 18/10 Q1023
RJOR,2020-10-20 10:00,134.1650,35.5300,60.80,55.40,82.37,190.00,4.00,0.00,30.27,M,6.21,M,FEW,SCT,M,M,3500.00,6000.00,M,M,M,M,M,M,M,M,M,M,RJOR 201000Z 19004KT 150V220 9999 FEW035 SCT060 16/13 Q1025
RJOW,2020-10-20 10:00,131.7903,34.6764,59.00,53.60,82.25,110.00,2.00,0.00,30.24,M,6.21,M,M,M,M,M,M,M,M,M,M,M,M,M,M,M,M,M,RJOW 201000Z 11002KT CAVOK 15/12 Q1024
RJOY,2020-10-20 10:00,135.6006,34.5967,66.20,48.20,52.25,30.00,7.00,0.00,30.21,M,6.21,M,FEW,M,M,M,3000.00,M,M,M,M,M,M,M,M,M,M,M,RJOY 201000Z 03007KT 360V060 9999 FEW030 19/09 Q1023
RJSA,2020-10-20 10:00,140.6886,40.7333,48.20,44.60,87.28,210.00,6.00,0.00,30.33,M,6.21,M,FEW,M,M,M,3000.00,M,M,M,M,M,M,M,M,M,M,45.04,RJSA 201000Z 21006KT 9999 FEW030 09/07 Q1027
RJSC,2020-10-20 10:00,140.3711,38.4119,50.00,44.60,81.61,120.00,5.00,0.00,30.33,M,6.21,M,FEW,M,M,M,5000.00,M,M,M,M,M,M,M,M,M,M,M,RJSC 201000Z 12005KT 9999 FEW050 10/07 Q1027
RJSF,2020-10-20 10:00,140.4281,37.2275,55.40,48.20,76.66,20.00,3.00,0.00,30.30,M,6.21,M,FEW,SCT,BKN,M,1500.00,5000.00,6000.00,M,M,M,M,M,M,M,M,M,RJSF 201000Z 02003KT 9999 FEW015 SCT050 BKN060 13/09 Q1026
RJSI,2020-10-20 10:00,141.1353,39.4286,50.00,44.60,81.61,110.00,3.00,0.00,30.30,M,6.21,M,FEW,M,M,M,3000.00,M,M,M,M,M,M,M,M,M,M,M,RJSI 201000Z 11003KT 350V130 9999 FEW030 10/07 Q1026
RJSM,2020-10-20 10:00,141.3684,40.7032,53.60,42.80,66.70,270.00,7.00,0.00,30.30,M,6.21,M,FEW,M,M,M,4000.00,M,M,M,M,M,M,M,M,M,M,M,RJSM 201000Z 27007KT 9999 FEW040 12/06 Q1026
RJSN,2020-10-20 10:00,139.1117,37.9558,64.40,48.20,55.63,20.00,10.00,0.00,30.30,M,6.21,M,FEW,M,M,M,4000.00,M,M,M,M,M,M,M,M,M,M,M,RJSN 201000Z 02010KT 9999 FEW040 18/09 Q1026
RJSS,2020-10-20 10:00,140.9169,38.1397,60.80,48.20,63.15,70.00,8.00,0.00,30.30,M,6.21,M,FEW,M,M,M,3000.00,M,M,M,M,M,M,M,M,M,M,M,RJSS 201000Z 07008KT 9999 FEW030 16/09 Q1026
RJTT,2020-10-20 10:00,139.7811,35.5533,64.40,55.40,72.56,50.00,10.00,0.00,30.27,M,6.21,M,FEW,M,M,M,3000.00,M,M,M,M,M,M,M,M,M,M,M,RJTT 201000Z 05010KT 9999 FEW030 18/13 Q1025 NOSIG
RORS,2020-10-20 10:00,125.1447,24.8267,80.60,75.20,83.66,60.00,16.00,0.00,29.91,M,6.21,M,SCT,BKN,M,M,2000.00,M,M,M,M,M,M,M,M,M,M,86.17,RORS 201000Z 06016KT 9999 SCT020 BKN/// 27/24 Q1013
ROAH,2020-10-20 10:07,127.6458,26.1958,78.80,73.40,83.55,70.00,15.00,0.00,29.94,M,6.21,25.00,SCT,BKN,M,M,2000.00,M,M,M,-SHRA,M,M,M,M,M,M,M,ROAH 201007Z 07015G25KT 040V100 9999 -SHRA SCT020 BKN/// 26/23 Q1014 RMK 3CU020 A2996
RJSN,2020-10-20 10:23,139.1117,37.9558,64.40,48.20,55.63,90.00,7.00,0.00,30.30,M,6.21,M,FEW,M,M,M,4000.00,M,M,M,M,M,M,M,M,M,M,M,RJSN 201023Z 09007KT 9999 FEW040 18/09 Q1026 RMK 1CU040 A3032
RJAA,2020-10-20 10:30,140.3856,35.7653,57.20,51.80,82.12,20.00,4.00,0.00,30.27,M,6.21,M,FEW,M,M,M,3000.00,M,M,M,M,M,M,M,M,M,M,M,RJAA 201030Z 02004KT 9999 FEW030 14/11 Q1025 NOSIG RMK 1CU030 A3027
RJCC,2020-10-20 10:30,141.6926,42.7742,44.60,41.00,87.09,M,2.00,0.00,30.30,M,6.21,M,M,M,M,M,M,M,M,M,M,M,M,M,M,M,M,M,RJCC 201030Z VRB02KT CAVOK 07/05 Q1026 RMK A3030
RJFF,2020-10-20 10:30,130.4517,33.5844,62.60,48.20,59.26,40.00,3.00,0.00,30.21,M,6.21,M,M,M,M,M,M,M,M,M,M,M,M,M,M,M,M,M,RJFF 201030Z 04003KT 330V080 CAVOK 17/09 Q1023 NOSIG RMK A3021
RJBB,2020-10-20 10:30,135.2328,34.4342,68.00,51.80,56.13,30.00,19.00,0.00,30.21,M,6.21,M,FEW,M,M,M,3000.00,M,M,M,M,M,M,M,M,M,M,M,RJBB 201030Z 03019KT 9999 FEW030 20/11 Q1023 NOSIG
RJGG,2020-10-20 10:30,136.8054,34.8584,68.00,50.00,52.51,190.00,8.00,0.00,30.21,M,6.21,M,FEW,M,M,M,3000.00,M,M,M,M,M,M,M,M,M,M,M,RJGG 201030Z 19008KT 9999 FEW030 20/10 Q1023 NOSIG
RJTT,2020-10-20 10:30,139.7811,35.5533,64.40,55.40,72.56,50.00,9.00,0.00,30.27,M,6.21,M,FEW,M,M,M,3000.00,M,M,M,M,M,M,M,M,M,M,M,RJTT 201030Z 05009KT 9999 FEW030 18/13 Q1025 NOSIG RMK 1CU030 A3027
ROAH,2020-10-20 10:30,127.6458,26.1958,80.60,71.60,74.11,70.00,13.00,0.00,29.94,M,6.21,M,FEW,BKN,M,M,2000.00,M,M,M,VCSH,M,M,M,M,M,M,84.57,ROAH 201030Z 07013KT 030V090 9999 VCSH FEW020 BKN/// 27/22 Q1014 RMK 2CU020 A2997
RODN,2020-10-20 10:46,127.7676,26.3556,78.80,71.60,78.62,60.00,16.00,0.00,29.98,M,10.00,23.00,SCT,BKN,BKN,BKN,1900.00,2700.00,3400.00,4400.00,M,M,M,M,M,M,M,M,RODN 201046Z AUTO 06016G23KT 10SM SCT019 BKN027 BKN034 BKN044 26/22 A2998 RMK AO2 CIG 025V037 SLPNO $
RJOI,2020-10-20 10:55,132.2357,34.1439,64.00,50.00,60.34,320.00,5.00,0.00,30.23,1023.70,6.21,M,FEW,M,M,M,2500.00,M,M,M,M,M,M,M,M,M,M,M,RJOI 201055Z 32005KT 9999 FEW025 18/10 A3023 RMK SLP237 T01780100
RJTY,2020-10-20 10:56,139.3485,35.7485,56.30,50.50,80.85,280.00,5.00,0.00,30.33,1027.50,10.00,M,CLR,M,M,M,M,M,M,M,M,M,M,M,M,M,M,M,RJTY 201056Z AUTO 28005KT 10SM CLR 14/10 A3033 RMK AO2 SLP275 T01350103 FZRANO $
RODN,2020-10-20 10:56,127.7676,26.3556,79.30,71.80,77.87,70.00,14.00,0.00,29.98,M,10.00,22.00,SCT,SCT,BKN,BKN,1900.00,2700.00,3700.00,4900.00,M,M,M,M,M,M,M,M,RODN 201056Z AUTO 07014G22KT 10SM SCT019 SCT027 BKN037 BKN049 26/22 A2998 RMK AO2 SLPNO T02630221 $
ROTM,2020-10-20 10:56,127.7565,26.2743,79.00,73.90,84.41,80.00,13.00,0.00,29.99,1014.20,6.21,20.00,FEW,BKN,BKN,M,2000.00,5000.00,6500.00,M,M,M,M,M,M,M,M,M,ROTM 201056Z 08013G20KT 9999 FEW020 BKN050 BKN065 26/23 A2999 RMK SLP142 T02610233
RJFR,2020-10-20 11:00,131.0350,33.8456,66.20,53.60,63.82,10.00,11.00,0.00,30.21,M,6.21,M,FEW,M,M,M,3000.00,M,M,M,M,M,M,M,M,M,M,M,RJFR 201100Z 01011KT 9999 FEW030 19/12 Q1023
RJAA,2020-10-20 11:00,140.3856,35.7653,59.00,51.80,76.98,10.00,5.00,0.00,30.27,M,6.21,M,FEW,M,M,M,3000.00,M,M,M,M,M,M,M,M,M,M,M,RJAA 201100Z 01005KT 9999 FEW030 15/11 Q1025 NOSIG
RJAH,2020-10-20 11:00,140.4147,36.1817,53.60,50.00,87.56,360.00,4.00,0.00,30.27,M,6.21,M,FEW,M,M,M,3000.00,M,M,M,M,M,M,M,M,M,M,M,RJAH 201100Z 36004KT 9999 FEW030 12/10 Q1025
RJCB,2020-10-20 11:00,143.2172,42.7333,39.20,35.60,86.79,140.00,5.00,0.00,30.27,M,6.21,M,FEW,M,M,M,5000.00,M,M,M,M,M,M,M,M,M,M,34.95,RJCB 201100Z 14005KT 9999 FEW050 04/02 Q1025
RJCC,2020-10-20 11:00,141.6926,42.7742,42.80,41.00,93.30,130.00,1.00,0.00,30.30,M,6.21,M,M,M,M,M,M,M,M,M,M,M,M,M,M,M,M,M,RJCC 201100Z 13001KT CAVOK 06/05 Q1026
RJCH,2020-10-20 11:00,140.8219,41.7700,48.20,42.80,81.47,20.00,6.00,0.00,30.30,M,6.21,M,FEW,M,M,M,2500.00,M,M,M,M,M,M,M,M,M,M,45.04,RJCH 201100Z 02006KT 9999 FEW025 09/06 Q1026
RJCK,2020-10-20 11:00,144.1931,43.0408,46.40,41.00,81.34,360.00,6.00,0.00,30.30,M,6.21,M,FEW,M,M,M,3000.00,M,M,M,M,M,M,M,M,M,M,42.87,RJCK 201100Z 36006KT 9999 FEW030 08/05 Q1026
RJCM,2020-10-20 11:00,144.1642,43.8806,37.40,33.80,86.69,190.00,3.00,0.00,30.30,M,6.21,M,FEW,M,M,M,2000.00,M,M,M,M,M,M,M,M,M,M,34.86,RJCM 201100Z 19003KT 9999 FEW020 03/01 Q1026
RJCO,2020-10-20 11:00,141.3814,43.1175,48.20,41.00,76.01,210.00,1.00,0.00,30.33,M,6.21,M,FEW,M,M,M,3000.00,M,M,M,M,M,M,M,M,M,M,M,RJCO 201100Z 21001KT 9999 FEW030 09/05 Q1027
RJDT,2020-10-20 11:00,129.3306,34.2850,64.40,50.00,59.50,50.00,7.00,0.00,30.21,M,6.21,M,FEW,M,M,M,3500.00,M,M,M,M,M,M,M,M,M,M,M,RJDT 201100Z 05007KT 360V110 9999 FEW035 18/10 Q1023
RJEC,2020-10-20 11:00,142.4475,43.6708,37.40,26.60,64.70,180.00,5.00,0.00,30.30,M,6.21,M,FEW,M,M,M,3000.00,M,M,M,M,M,M,M,M,M,M,32.81,RJEC 201100Z 18005KT 9999 FEW030 03/M03 Q1026
RJFF,2020-10-20 11:00,130.4517,33.5844,62.60,50.00,63.38,50.00,3.00,0.00,30.21,M,6.21,M,M,M,M,M,M,M,M,M,M,M,M,M,M,M,M,M,RJFF 201100Z 05003KT 330V120 CAVOK 17/10 Q1023 NOSIG
RJFK,2020-10-20 11:00,130.7194,31.8033,62.60,51.80,67.75,100.00,10.00,0.00,30.18,M,6.21,M,FEW,M,M,M,3500.00,M,M,M,M,M,M,M,M,M,M,M,RJFK 201100Z 10010KT 9999 FEW035 17/11 Q1022
RJFM,2020-10-20 11:00,131.4486,31.8772,69.80,53.60,56.38,60.00,11.00,0.00,30.18,M,6.21,M,FEW,M,M,M,4000.00,M,M,M,M,M,M,M,M,M,M,M,RJFM 201100Z 06011KT 9999 FEW040 21/12 Q1022
RJFO,2020-10-20 11:00,131.7372,33.4794,62.60,50.00,63.38,260.00,4.00,0.00,30.21,M,6.21,M,M,M,M,M,M,M,M,M,M,M,M,M,M,M,M,M,RJFO 201100Z 26004KT CAVOK 17/10 Q1023
RJBB,2020-10-20 11:00,135.2328,34.4342,68.00,53.60,59.97,40.00,17.00,0.00,30.21,M,6.21,M,FEW,M,M,M,3000.00,M,M,M,M,M,M,M,M,M,M,M,RJBB 201100Z 04017KT 9999 FEW030 20/12 Q1023 NOSIG
RJBE,2020-10-20 11:00,135.2239,34.6328,68.00,50.00,52.51,30.00,9.00,0.00,30.21,M,6.21,M,FEW,M,M,M,3000.00,M,M,M,M,M,M,M,M,M,M,M,RJBE 201100Z 03009KT 9999 FEW030 20/10 Q1023
RJNK,2020-10-20 11:00,136.4075,36.3939,59.00,50.00,72.01,40.00,6.00,0.00,30.24,M,6.21,M,FEW,M,M,M,5000.00,M,M,M,M,M,M,M,M,M,M,M,RJNK 201100Z 04006KT 9999 FEW050 15/10 Q1024
RJNT,2020-10-20 11:00,137.1875,36.6483,59.00,50.00,72.01,M,2.00,0.00,30.27,M,6.21,M,M,M,M,M,M,M,M,M,M,M,M,M,M,M,M,M,RJNT 201100Z VRB02KT CAVOK 15/10 Q1025
RJOA,2020-10-20 11:00,132.9194,34.4361,60.80,44.60,55.12,40.00,5.00,0.00,30.24,M,6.21,M,M,M,M,M,M,M,M,M,M,M,M,M,M,M,M,M,RJOA 201100Z 04005KT CAVOK 16/07 Q1024
RJOB,2020-10-20 11:00,133.8553,34.7569,60.80,51.80,72.20,30.00,9.00,0.00,30.24,M,6.21,M,FEW,M,M,M,3000.00,M,M,M,M,M,M,M,M,M,M,M,RJOB 201100Z 03009KT 9999 FEW030 16/11 Q1024
RJOC,2020-10-20 11:00,132.8900,35.4136,57.20,51.80,82.12,M,2.00,0.00,30.27,M,6.21,M,M,M,M,M,M,M,M,M,M,M,M,M,M,M,M,M,RJOC 201100Z VRB02KT CAVOK 14/11 Q1025
RJOH,2020-10-20 11:00,133.2392,35.4933,62.60,55.40,77.29,80.00,8.00,0.00,30.27,M,6.21,M,FEW,M,M,M,5000.00,M,M,M,M,M,M,M,M,M,M,M,RJOH 201100Z 08008KT 9999 FEW050 17/13 Q1025
RJOK,2020-10-20 11:00,133.6694,33.5461,62.60,51.80,67.75,350.00,7.00,0.00,30.18,M,6.21,M,M,M,M,M,M,M,M,M,M,M,M,M,M,M,M,M,RJOK 201100Z 35007KT CAVOK 17/11 Q1022
RJFU,2020-10-20 11:00,129.9136,32.9169,64.40,50.00,59.50,70.00,8.00,0.00,30.15,M,6.21,M,M,M,M,M,M,M,M,M,M,M,M,M,M,M,M,M,RJFU 201100Z 07008KT 050V120 CAVOK 18/10 Q1021
RJGG,2020-10-20 11:00,136.8054,34.8584,68.00,48.20,49.10,200.00,7.00,0.00,30.21,M,6.21,M,FEW,M,M,M,3000.00,M,M,M,M,M,M,M,M,M,M,M,RJGG 201100Z 20007KT 9999 FEW030 20/09 Q1023 NOSIG
RJKI,2020-10-20 11:00,129.9281,28.3213,77.00,69.80,78.48,70.00,16.00,0.00,30.03,M,6.21,M,SCT,SCT,BKN,M,2500.00,3100.00,3400.00,M,M,M,M,M,M,M,M,M,RJKI 201100Z AUTO 07016KT 9999 SCT025 SCT031 BKN034 25/21 Q1017
ROIG,2020-10-20 11:00,124.1633,24.3367,80.60,77.00,88.83,50.00,21.00,0.00,29.91,M,6.21,M,FEW,BKN,BKN,M,1600.00,2000.00,5000.00,M,M,M,M,M,M,M,M,87.59,ROIG 201100Z 05021KT 9999 FEW016 BKN020 BKN050 27/25 Q1013
ROMD,2020-10-20 11:00,131.2286,25.8289,78.80,73.40,83.55,50.00,16.00,0.00,29.97,M,6.21,M,FEW,M,M,M,1700.00,M,M,M,M,M,M,M,M,M,M,M,ROMD 201100Z AUTO 05016KT 030V090 9999 FEW017 26/23 Q1015
ROMY,2020-10-20 11:00,125.2767,24.7933,78.80,75.20,88.75,60.00,15.00,0.00,29.91,M,6.21,M,FEW,BKN,M,M,1700.00,M,M,M,M,M,M,M,M,M,M,M,ROMY 201100Z 06015KT 9999 FEW017 BKN/// 26/24 Q1013
RORY,2020-10-20 11:00,128.4020,27.0440,78.80,71.60,78.62,70.00,16.00,0.00,29.97,M,6.21,M,FEW,SCT,BKN,M,1900.00,2600.00,3000.00,M,M,M,M,M,M,M,M,M,RORY 201100Z AUTO 07016KT 9999 FEW019 SCT026 BKN030 26/22 Q1015
RJDC,2020-10-20 11:00,131.2786,33.9300,62.60,50.00,63.38,10.00,6.00,0.00,30.21,M,6.21,M,M,M,M,M,M,M,M,M,M,M,M,M,M,M,M,M,RJDC 201100Z 01006KT CAVOK 17/10 Q1023
RJOM,2020-10-20 11:00,132.6997,33.8272,64.40,53.60,67.95,120.00,4.00,0.00,30.21,M,6.21,M,FEW,M,M,M,3500.00,M,M,M,M,M,M,M,M,M,M,M,RJOM 201100Z 12004KT 9999 FEW035 18/12 Q1023
RJFS,2020-10-20 11:00,130.3000,33.1500,62.60,42.80,48.28,40.00,9.00,0.00,30.18,M,6.21,M,M,M,M,M,M,M,M,M,M,M,M,M,M,M,M,M,RJFS 201100Z 04009KT CAVOK 17/06 Q1022
RJFT,2020-10-20 11:00,130.8553,32.8372,60.80,44.60,55.12,50.00,7.00,0.00,30.18,M,6.21,M,M,M,M,M,M,M,M,M,M,M,M,M,M,M,M,M,RJFT 201100Z 05007KT CAVOK 16/07 Q1022
RJOT,2020-10-20 11:00,134.0167,34.2167,59.00,51.80,76.98,150.00,5.00,0.00,30.24,M,6.21,M,FEW,M,M,M,3000.00,M,M,M,M,M,M,M,M,M,M,M,RJOT 201100Z 15005KT 120V190 9999 FEW030 15/11 Q1024
RJSK,2020-10-20 11:00,140.2167,39.6167,50.00,44.60,81.61,M,1.00,0.00,30.33,M,6.21,M,M,M,M,M,M,M,M,M,M,M,M,M,M,M,M,M,RJSK 201100Z VRB01KT CAVOK 10/07 Q1027
RJOO,2020-10-20 11:00,135.4392,34.7844,62.60,51.80,67.75,350.00,5.00,0.00,30.21,M,6.21,M,FEW,M,M,M,3000.00,M,M,M,M,M,M,M,M,M,M,M,RJOO 201100Z 35005KT 310V020 9999 FEW030 17/11 Q1023
RJOR,2020-10-20 11:00,134.1650,35.5300,59.00,55.40,87.83,160.00,4.00,0.00,30.27,M,6.21,M,FEW,SCT,M,M,3500.00,6000.00,M,M,M,M,M,M,M,M,M,M,RJOR 201100Z 16004KT 9999 FEW035 SCT060 15/13 Q1025
RJSA,2020-10-20 11:00,140.6886,40.7333,44.60,41.00,87.09,210.00,6.00,0.00,30.33,M,6.21,M,FEW,M,M,M,3000.00,M,M,M,M,M,M,M,M,M,M,40.71,RJSA 201100Z 21006KT 9999 FEW030 07/05 Q1027
RJSF,2020-10-20 11:00,140.4281,37.2275,51.80,46.40,81.74,360.00,4.00,0.00,30.30,M,6.21,M,FEW,M,M,M,6000.00,M,M,M,M,M,M,M,M,M,M,M,RJSF 201100Z 36004KT 9999 FEW060 11/08 Q1026
RJSM,2020-10-20 11:00,141.3684,40.7032,51.80,44.60,76.34,270.00,7.00,0.00,30.33,M,6.21,M,FEW,M,M,M,4000.00,M,M,M,M,M,M,M,M,M,M,M,RJSM 201100Z 27007KT 9999 FEW040 11/07 Q1027
RJSN,2020-10-20 11:00,139.1117,37.9558,59.00,46.40,62.92,130.00,3.00,0.00,30.30,M,6.21,M,FEW,M,M,M,4000.00,M,M,M,M,M,M,M,M,M,M,M,RJSN 201100Z 13003KT 9999 FEW040 15/08 Q1026
RJSS,2020-10-20 11:00,140.9169,38.1397,57.20,46.40,67.12,320.00,3.00,0.00,30.30,M,6.21,M,FEW,M,M,M,3000.00,M,M,M,M,M,M,M,M,M,M,M,RJSS 201100Z 32003KT 9999 FEW030 14/08 Q1026
RJTT,2020-10-20 11:00,139.7811,35.5533,64.40,55.40,72.56,50.00,10.00,0.00,30.27,M,6.21,M,FEW,M,M,M,3000.00,M,M,M,M,M,M,M,M,M,M,M,RJTT 201100Z 05010KT 9999 FEW030 18/13 Q1025 NOSIG
RJNS,2020-10-20 11:00,138.1894,34.7961,59.00,51.80,76.98,340.00,4.00,0.00,30.24,M,6.21,M,FEW,M,M,M,3000.00,M,M,M,M,M,M,M,M,M,M,M,RJNS 201100Z 34004KT 9999 FEW030 15/11 Q1024
RJOS,2020-10-20 11:00,134.6092,34.1322,62.60,53.60,72.38,300.00,6.00,0.00,30.21,M,6.21,M,FEW,M,M,M,3000.00,M,M,M,M,M,M,M,M,M,M,M,RJOS 201100Z 30006KT 280V340 9999 FEW030 17/12 Q1023
RJSY,2020-10-20 11:00,139.7872,38.8122,51.80,46.40,81.74,110.00,4.00,0.00,30.33,M,6.21,M,M,M,M,M,M,M,M,M,M,M,M,M,M,M,M,M,RJSY 201100Z 11004KT 080V150 CAVOK 11/08 Q1027
RORK,2020-10-20 11:00,131.3333,25.9167,80.60,73.40,78.76,60.00,22.00,0.00,29.97,M,6.21,M,FEW,BKN,BKN,M,1700.00,2000.00,3100.00,M,M,M,M,M,M,M,M,85.32,RORK 201100Z AUTO 06022KT 9999 FEW017 BKN020 BKN031 27/23 Q1015
ROYN,2020-10-20 11:00,122.9780,24.4670,80.60,75.20,83.66,60.00,19.00,0.00,29.91,M,6.21,M,FEW,SCT,M,M,2100.00,6000.00,M,M,M,M,M,M,M,M,M,86.17,ROYN 201100Z AUTO 06019KT 9999 FEW021 SCT060 27/24 Q1013
ROAH,2020-10-20 11:00,127.6458,26.1958,80.60,71.60,74.11,80.00,15.00,0.00,29.94,M,6.21,M,FEW,BKN,M,M,2000.00,M,M,M,-SHRA,M,M,M,M,M,M,84.57,ROAH 201100Z 08015KT 040V100 9999 -SHRA FEW020 BKN/// 27/22 Q1014
RJAA,2020-10-20 11:30,140.3856,35.7653,57.20,51.80,82.12,10.00,5.00,0.00,30.27,M,6.21,M,FEW,M,M,M,3000.00,M,M,M,M,M,M,M,M,M,M,M,RJAA 201130Z 01005KT 9999 FEW030 14/11 Q1025 NOSIG RMK 1CU030 A3028
RJCC,2020-10-20 11:30,141.6926,42.7742,42.80,41.00,93.30,M,1.00,0.00,30.30,M,6.21,M,M,M,M,M,M,M,M,M,M,M,M,M,M,M,M,M,RJCC 201130Z VRB01KT CAVOK 06/05 Q1026 RMK A3032
RJFF,2020-10-20 11:30,130.4517,33.5844,62.60,50.00,63.38,70.00,3.00,0.00,30.21,M,6.21,M,M,M,M,M,M,M,M,M,M,M,M,M,M,M,M,M,RJFF 201130Z 07003KT 020V090 CAVOK 17/10 Q1023 NOSIG RMK A3021
RJBB,2020-10-20 11:30,135.2328,34.4342,66.20,53.60,63.82,50.00,13.00,0.00,30.24,M,6.21,M,FEW,M,M,M,3000.00,M,M,M,M,M,M,M,M,M,M,M,RJBB 201130Z 05013KT 9999 FEW030 19/12 Q1024 NOSIG
RJGG,2020-10-20 11:30,136.8054,34.8584,66.20,53.60,63.82,250.00,8.00,0.00,30.21,M,6.21,M,FEW,M,M,M,3000.00,M,M,M,M,M,M,M,M,M,M,M,RJGG 201130Z 25008KT 9999 FEW030 19/12 Q1023 NOSIG
RJTT,2020-10-20 11:30,139.7811,35.5533,62.60,55.40,77.29,50.00,10.00,0.00,30.27,M,6.21,M,FEW,M,M,M,3000.00,M,M,M,M,M,M,M,M,M,M,M,RJTT 201130Z 05010KT 9999 FEW030 17/13 Q1025 NOSIG RMK 1CU030 A3028
ROAH,2020-10-20 11:30,127.6458,26.1958,80.60,71.60,74.11,70.00,15.00,0.00,29.97,M,6.21,M,FEW,BKN,M,M,2000.00,M,M,M,M,M,M,M,M,M,M,84.57,ROAH 201130Z 07015KT 9999 FEW020 BKN/// 27/22 Q1015 RMK 1CU020 A2997
RJOI,2020-10-20 11:55,132.2357,34.1439,61.00,50.00,67.06,300.00,5.00,0.00,30.23,1023.50,6.21,M,FEW,M,M,M,2500.00,M,M,M,M,M,M,M,M,M,M,M,RJOI 201155Z 30005KT 9999 FEW025 16/10 A3023 RMK SLP235 T01610100 10222 20161 50007
RJTY,2020-10-20 11:56,139.3485,35.7485,54.70,50.50,85.69,290.00,4.00,0.00,30.34,1027.80,10.00,M,CLR,M,M,M,M,M,M,M,M,M,M,M,M,M,M,M,RJTY 201156Z AUTO 29004KT 10SM CLR 13/10 A3034 RMK AO2 SLP278 T01260103 10199 20125 52014 FZRANO $
RODN,2020-10-20 11:56,127.7676,26.3556,79.20,71.20,76.55,70.00,14.00,0.00,29.99,M,10.00,21.00,FEW,M,M,M,2100.00,M,M,M,M,M,M,M,M,M,M,M,RODN 201156Z AUTO 07014G21KT 10SM FEW021 26/22 A2999 RMK AO2 SLPNO T02620218 10290 20262 52009 $
ROTM,2020-10-20 11:56,127.7565,26.2743,80.10,72.00,76.36,80.00,13.00,0.00,30.00,1014.40,6.21,20.00,SCT,M,M,M,2500.00,M,M,M,M,M,M,M,M,M,M,83.94,ROTM 201156Z 08013G20KT 9999 SCT025 27/22 A3000 RMK SLP144 T02670222 10272 20261 52007
RJFR,2020-10-20 12:00,131.0350,33.8456,64.40,53.60,67.95,10.00,10.00,0.00,30.21,M,6.21,M,FEW,M,M,M,3000.00,M,M,M,M,M,M,M,M,M,M,M,RJFR 201200Z 01010KT 9999 FEW030 18/12 Q1023
RJAA,2020-10-20 12:00,140.3856,35.7653,55.40,51.80,87.65,10.00,5.00,0.00,30.27,M,6.21,M,FEW,M,M,M,3000.00,M,M,M,M,M,M,M,M,M,M,M,RJAA 201200Z 01005KT 9999 FEW030 13/11 Q1025 NOSIG
RJAH,2020-10-20 12:00,140.4147,36.1817,51.80,50.00,93.55,350.00,4.00,0.00,30.27,M,6.21,M,FEW,M,M,M,3000.00,M,M,M,M,M,M,M,M,M,M,M,RJAH 201200Z 35004KT 9999 FEW030 11/10 Q1025
RJCC,2020-10-20 12:00,141.6926,42.7742,41.00,39.20,93.24,M,2.00,0.00,30.30,M,6.21,M,M,M,M,M,M,M,M,M,M,M,M,M,M,M,M,M,RJCC 201200Z VRB02KT CAVOK 05/04 Q1026
RJFF,2020-10-20 12:00,130.4517,33.5844,59.00,50.00,72.01,50.00,4.00,0.00,30.21,M,6.21,M,M,M,M,M,M,M,M,M,M,M,M,M,M,M,M,M,RJFF 201200Z 05004KT CAVOK 15/10 Q1023 NOSIG
RJFK,2020-10-20 12:00,130.7194,31.8033,62.60,51.80,67.75,100.00,9.00,0.00,30.18,M,6.21,M,FEW,M,M,M,3500.00,M,M,M,M,M,M,M,M,M,M,M,RJFK 201200Z 10009KT 9999 FEW035 17/11 Q1022
RJFM,2020-10-20 12:00,131.4486,31.8772,69.80,53.60,56.38,60.00,13.00,0.00,30.18,M,6.21,M,FEW,M,M,M,4000.00,M,M,M,M,M,M,M,M,M,M,M,RJFM 201200Z 06013KT 9999 FEW040 21/12 Q1022
RJFO,2020-10-20 12:00,131.7372,33.4794,64.40,50.00,59.50,M,4.00,0.00,30.21,M,6.21,M,M,M,M,M,M,M,M,M,M,M,M,M,M,M,M,M,RJFO 201200Z VRB04KT CAVOK 18/10 Q1023
RJAW,2020-10-20 12:00,141.3227,24.7840,78.80,75.20,88.75,180.00,6.00,0.00,29.85,M,6.21,M,FEW,BKN,BKN,M,1000.00,1500.00,15000.00,M,-SHRA,M,M,M,M,M,M,M,RJAW 201200Z 18006KT 9999 -SHRA FEW010 BKN015 BKN150 26/24 Q1011 RMK 2CU010 6CU015 7AC150 A2987
RJBB,2020-10-20 12:00,135.2328,34.4342,64.40,53.60,67.95,60.00,12.00,0.00,30.24,M,6.21,M,FEW,M,M,M,3000.00,M,M,M,M,M,M,M,M,M,M,M,RJBB 201200Z 06012KT 9999 FEW030 18/12 Q1024 NOSIG
RJBE,2020-10-20 12:00,135.2239,34.6328,66.20,51.80,59.74,30.00,9.00,0.00,30.24,M,6.21,M,FEW,M,M,M,3000.00,M,M,M,M,M,M,M,M,M,M,M,RJBE 201200Z 03009KT 9999 FEW030 19/11 Q1024
RJNK,2020-10-20 12:00,136.4075,36.3939,55.40,50.00,81.99,170.00,4.00,0.00,30.24,M,6.21,M,FEW,M,M,M,5000.00,M,M,M,M,M,M,M,M,M,M,M,RJNK 201200Z 17004KT 9999 FEW050 13/10 Q1024
RJNT,2020-10-20 12:00,137.1875,36.6483,57.20,50.00,76.82,M,2.00,0.00,30.27,M,6.21,M,M,M,M,M,M,M,M,M,M,M,M,M,M,M,M,M,RJNT 201200Z VRB02KT CAVOK 14/10 Q1025
RJOA,2020-10-20 12:00,132.9194,34.4361,57.20,46.40,67.12,50.00,4.00,0.00,30.24,M,6.21,M,M,M,M,M,M,M,M,M,M,M,M,M,M,M,M,M,RJOA 201200Z 05004KT CAVOK 14/08 Q1024
RJOB,2020-10-20 12:00,133.8553,34.7569,59.00,51.80,76.98,40.00,7.00,0.00,30.24,M,6.21,M,FEW,M,M,M,3000.00,M,M,M,M,M,M,M,M,M,M,M,RJOB 201200Z 04007KT 9999 FEW030 15/11 Q1024
RJOH,2020-10-20 12:00,133.2392,35.4933,57.20,53.60,87.74,180.00,3.00,0.00,30.27,M,6.21,M,FEW,M,M,M,M,M,M,M,M,M,M,M,M,M,M,M,RJOH 201200Z 18003KT 9999 FEW/// 14/12 Q1025
RJFU,2020-10-20 12:00,129.9136,32.9169,62.60,50.00,63.38,50.00,6.00,0.00,30.15,M,6.21,M,M,M,M,M,M,M,M,M,M,M,M,M,M,M,M,M,RJFU 201200Z 05006KT 010V090 CAVOK 17/10 Q1021
RJGG,2020-10-20 12:00,136.8054,34.8584,64.40,51.80,63.60,270.00,6.00,0.00,30.21,M,6.21,M,FEW,M,M,M,3000.00,M,M,M,M,M,M,M,M,M,M,M,RJGG 201200Z 27006KT 9999 FEW030 18/11 Q1023 NOSIG
RJKI,2020-10-20 12:00,129.9281,28.3213,75.20,68.00,78.34,70.00,15.00,0.00,30.03,M,6.21,M,SCT,M,M,M,2500.00,M,M,M,M,M,M,M,M,M,M,M,RJKI 201200Z AUTO 07015KT 9999 SCT025 24/20 Q1017
ROMD,2020-10-20 12:00,131.2286,25.8289,78.80,73.40,83.55,50.00,16.00,0.00,29.97,M,6.21,M,BKN,OVC,M,M,1700.00,3300.00,M,M,M,M,M,M,M,M,M,M,ROMD 201200Z AUTO 05016KT 9999 BKN017 OVC033 26/23 Q1015
RORY,2020-10-20 12:00,128.4020,27.0440,78.80,71.60,78.62,90.00,13.00,0.00,30.00,M,6.21,M,SCT,BKN,M,M,2100.00,3800.00,M,M,M,M,M,M,M,M,M,M,RORY 201200Z AUTO 09013KT 9999 SCT021 BKN038 26/22 Q1016
RJDC,2020-10-20 12:00,131.2786,33.9300,62.60,51.80,67.75,20.00,5.00,0.00,30.21,M,6.21,M,M,M,M,M,M,M,M,M,M,M,M,M,M,M,M,M,RJDC 201200Z 02005KT 360V060 CAVOK 17/11 Q1023
RJOM,2020-10-20 12:00,132.6997,33.8272,64.40,51.80,63.60,90.00,9.00,0.00,30.21,M,6.21,M,FEW,M,M,M,3500.00,M,M,M,M,M,M,M,M,M,M,M,RJOM 201200Z 09009KT 9999 FEW035 18/11 Q1023
RJFS,2020-10-20 12:00,130.3000,33.1500,60.80,44.60,55.12,30.00,9.00,0.00,30.18,M,6.21,M,M,M,M,M,M,M,M,M,M,M,M,M,M,M,M,M,RJFS 201200Z 03009KT CAVOK 16/07 Q1022
RJFT,2020-10-20 12:00,130.8553,32.8372,59.00,44.60,58.77,60.00,6.00,0.00,30.18,M,6.21,M,M,M,M,M,M,M,M,M,M,M,M,M,M,M,M,M,RJFT 201200Z 06006KT CAVOK 15/07 Q1022
RJOT,2020-10-20 12:00,134.0167,34.2167,59.00,51.80,76.98,140.00,7.00,0.00,30.24,M,6.21,M,FEW,M,M,M,3000.00,M,M,M,M,M,M,M,M,M,M,M,RJOT 201200Z 14007KT 9999 FEW030 15/11 Q1024
RJSK,2020-10-20 12:00,140.2167,39.6167,48.20,44.60,87.28,140.00,2.00,0.00,30.33,M,6.21,M,M,M,M,M,M,M,M,M,M,M,M,M,M,M,M,M,RJSK 201200Z 14002KT CAVOK 09/07 Q1027
RJOR,2020-10-20 12:00,134.1650,35.5300,57.20,53.60,87.74,140.00,6.00,0.00,30.27,M,6.21,M,FEW,M,M,M,3500.00,M,M,M,M,M,M,M,M,M,M,M,RJOR 201200Z 14006KT 9999 FEW035 14/12 Q1025
RJSA,2020-10-20 12:00,140.6886,40.7333,42.80,39.20,86.99,210.00,6.00,0.00,30.33,M,6.21,M,FEW,M,M,M,3000.00,M,M,M,M,M,M,M,M,M,M,38.54,RJSA 201200Z 21006KT 9999 FEW030 06/04 Q1027
RJSM,2020-10-20 12:00,141.3684,40.7032,51.80,44.60,76.34,260.00,6.00,0.00,30.33,M,6.21,M,FEW,M,M,M,600.00,M,M,M,M,M,M,M,M,M,M,M,RJSM 201200Z 26006KT 9999 FEW006 11/07 Q1027
RJSN,2020-10-20 12:00,139.1117,37.9558,55.40,48.20,76.66,120.00,5.00,0.00,30.33,M,6.21,M,FEW,M,M,M,4000.00,M,M,M,M,M,M,M,M,M,M,M,RJSN 201200Z 12005KT 9999 FEW040 13/09 Q1027
RJSS,2020-10-20 12:00,140.9169,38.1397,55.40,44.60,66.91,330.00,4.00,0.00,30.30,M,6.21,M,FEW,M,M,M,3000.00,M,M,M,M,M,M,M,M,M,M,M,RJSS 201200Z 33004KT 9999 FEW030 13/07 Q1026
RJTT,2020-10-20 12:00,139.7811,35.5533,62.60,55.40,77.29,40.00,10.00,0.00,30.27,M,6.21,M,FEW,M,M,M,3000.00,M,M,M,M,M,M,M,M,M,M,M,RJTT 201200Z 04010KT 9999 FEW030 17/13 Q1025 NOSIG RMK 1CU030 A3028
RJNS,2020-10-20 12:00,138.1894,34.7961,57.20,51.80,82.12,350.00,5.00,0.00,30.24,M,6.21,M,FEW,M,M,M,3000.00,M,M,M,M,M,M,M,M,M,M,M,RJNS 201200Z 35005KT 9999 FEW030 14/11 Q1024
RJOS,2020-10-20 12:00,134.6092,34.1322,60.80,53.60,77.14,300.00,7.00,0.00,30.24,M,6.21,M,FEW,M,M,M,3000.00,M,M,M,M,M,M,M,M,M,M,M,RJOS 201200Z 30007KT 9999 FEW030 16/12 Q1024
RJSY,2020-10-20 12:00,139.7872,38.8122,48.20,44.60,87.28,100.00,5.00,0.00,30.33,M,6.21,M,M,M,M,M,M,M,M,M,M,M,M,M,M,M,M,45.63,RJSY 201200Z 10005KT CAVOK 09/07 Q1027
RORK,2020-10-20 12:00,131.3333,25.9167,78.80,73.40,83.55,60.00,23.00,0.00,29.97,M,6.21,M,FEW,M,M,M,1900.00,M,M,M,M,M,M,M,M,M,M,M,RORK 201200Z AUTO 06023KT 9999 FEW019 26/23 Q1015
ROYN,2020-10-20 12:00,122.9780,24.4670,80.60,75.20,83.66,60.00,18.00,0.00,29.91,M,6.21,M,SCT,BKN,M,M,2100.00,2800.00,M,M,M,M,M,M,M,M,M,86.17,ROYN 201200Z AUTO 06018KT 9999 SCT021 BKN028 27/24 Q1013
ROAH,2020-10-20 12:00,127.6458,26.1958,80.60,71.60,74.11,80.00,13.00,0.00,29.97,M,6.21,24.00,FEW,BKN,M,M,2000.00,M,M,M,M,M,M,M,M,M,M,84.57,ROAH 201200Z 08013G24KT 9999 FEW020 BKN/// 27/22 Q1015 RMK 1CU020 A2997
ROAH,2020-10-20 12:30,127.6458,26.1958,80.60,71.60,74.11,80.00,13.00,0.00,29.97,M,6.21,M,FEW,SCT,BKN,M,2000.00,4500.00,M,M,-SHRA,M,M,M,M,M,M,84.57,ROAH 201230Z 08013KT 9999 -SHRA FEW020 SCT045 BKN/// 27/22 Q1015
RJAA,2020-10-20 12:30,140.3856,35.7653,57.20,51.80,82.12,10.00,5.00,0.00,30.27,M,6.21,M,FEW,M,M,M,3000.00,M,M,M,M,M,M,M,M,M,M,M,RJAA 201230Z 01005KT 9999 FEW030 14/11 Q1025 NOSIG
RJCC,2020-10-20 12:30,141.6926,42.7742,42.80,41.00,93.30,310.00,3.00,0.00,30.33,M,6.21,M,M,M,M,M,M,M,M,M,M,M,M,M,M,M,M,41.03,RJCC 201230Z 31003KT CAVOK 06/05 Q1027
RJFF,2020-10-20 12:30,130.4517,33.5844,59.00,50.00,72.01,130.00,3.00,0.00,30.21,M,6.21,M,M,M,M,M,M,M,M,M,M,M,M,M,M,M,M,M,RJFF 201230Z 13003KT 070V160 CAVOK 15/10 Q1023 NOSIG
RJBB,2020-10-20 12:30,135.2328,34.4342,64.40,53.60,67.95,60.00,9.00,0.00,30.24,M,6.21,M,FEW,M,M,M,3000.00,M,M,M,M,M,M,M,M,M,M,M,RJBB 201230Z 06009KT 9999 FEW030 18/12 Q1024 NOSIG
RJGG,2020-10-20 12:30,136.8054,34.8584,64.40,51.80,63.60,280.00,4.00,0.00,30.24,M,6.21,M,FEW,M,M,M,3000.00,M,M,M,M,M,M,M,M,M,M,M,RJGG 201230Z 28004KT 9999 FEW030 18/11 Q1024 NOSIG
RJTT,2020-10-20 12:30,139.7811,35.5533,62.60,55.40,77.29,30.00,9.00,0.00,30.27,M,6.21,M,FEW,M,M,M,3000.00,M,M,M,M,M,M,M,M,M,M,M,RJTT 201230Z 03009KT 9999 FEW030 17/13 Q1025 NOSIG
RJOI,2020-10-20 12:55,132.2357,34.1439,59.00,50.00,72.01,290.00,4.00,0.00,30.23,1023.50,6.21,M,FEW,M,M,M,2500.00,M,M,M,M,M,M,M,M,M,M,M,RJOI 201255Z 29004KT 9999 FEW025 15/10 A3023 RMK SLP235 T01500100
RJTY,2020-10-20 12:56,139.3485,35.7485,55.40,50.70,84.15,0.00,0.00,0.00,30.35,1028.10,10.00,M,BKN,M,M,M,5000.00,M,M,M,M,M,M,M,M,M,M,M,RJTY 201256Z AUTO 00000KT 10SM BKN050 13/10 A3035 RMK AO2 SLP281 T01300104 FZRANO $
RODN,2020-10-20 12:56,127.7676,26.3556,79.20,71.20,76.55,80.00,16.00,0.00,29.99,1016.00,10.00,21.00,FEW,FEW,M,M,2100.00,3200.00,M,M,M,M,M,M,M,M,M,M,RODN 201256Z AUTO 08016G21KT 10SM FEW021 FEW032 26/22 A2999 RMK AO2 SLP160 T02620218 $
ROTM,2020-10-20 12:56,127.7565,26.2743,79.00,73.00,81.89,80.00,15.00,0.00,30.00,1014.40,6.21,23.00,SCT,M,M,M,2500.00,M,M,M,M,M,M,M,M,M,M,M,ROTM 201256Z 08015G23KT 9999 SCT025 26/23 A3000 RMK SLP144 T02610228
RJFR,2020-10-20 13:00,131.0350,33.8456,64.40,53.60,67.95,50.00,7.00,0.00,30.21,M,6.21,M,FEW,M,M,M,3000.00,M,M,M,M,M,M,M,M,M,M,M,RJFR 201300Z 05007KT 9999 FEW030 18/12 Q1023
RJAA,2020-10-20 13:00,140.3856,35.7653,57.20,51.80,82.12,10.00,6.00,0.00,30.27,M,6.21,M,FEW,M,M,M,3000.00,M,M,M,M,M,M,M,M,M,M,M,RJAA 201300Z 01006KT 9999 FEW030 14/11 Q1025 NOSIG RMK 1CU030 A3028
RJAH,2020-10-20 13:00,140.4147,36.1817,50.00,48.20,93.50,360.00,3.00,0.00,30.27,M,6.21,M,FEW,M,M,M,3000.00,M,M,M,M,M,M,M,M,M,M,M,RJAH 201300Z 36003KT 9999 FEW030 10/09 Q1025
RJCC,2020-10-20 13:00,141.6926,42.7742,41.00,39.20,93.24,320.00,3.00,0.00,30.33,M,6.21,M,M,M,M,M,M,M,M,M,M,M,M,M,M,M,M,38.98,RJCC 201300Z 32003KT CAVOK 05/04 Q1027 RMK A3033
RJFF,2020-10-20 13:00,130.4517,33.5844,57.20,50.00,76.82,150.00,3.00,0.00,30.21,M,6.21,M,M,M,M,M,M,M,M,M,M,M,M,M,M,M,M,M,RJFF 201300Z 15003KT CAVOK 14/10 Q1023 NOSIG RMK A3021
RJFO,2020-10-20 13:00,131.7372,33.4794,59.00,50.00,72.01,260.00,5.00,0.00,30.18,M,6.21,M,FEW,M,M,M,4000.00,M,M,M,M,M,M,M,M,M,M,M,RJFO 201300Z 26005KT 9999 FEW040 15/10 Q1022
RJBB,2020-10-20 13:00,135.2328,34.4342,62.60,51.80,67.75,100.00,6.00,0.00,30.24,M,6.21,M,FEW,M,M,M,3000.00,M,M,M,M,M,M,M,M,M,M,M,RJBB 201300Z 10006KT 9999 FEW030 17/11 Q1024 NOSIG
RJBE,2020-10-20 13:00,135.2239,34.6328,66.20,51.80,59.74,30.00,8.00,0.00,30.24,M,6.21,M,FEW,M,M,M,3000.00,M,M,M,M,M,M,M,M,M,M,M,RJBE 201300Z 03008KT 9999 FEW030 19/11 Q1024
RJNK,2020-10-20 13:00,136.4075,36.3939,55.40,48.20,76.66,150.00,3.00,0.00,30.27,M,6.21,M,FEW,M,M,M,3000.00,M,M,M,M,M,M,M,M,M,M,M,RJNK 201300Z 15003KT 9999 FEW030 13/09 Q1025
RJOA,2020-10-20 13:00,132.9194,34.4361,57.20,46.40,67.12,60.00,8.00,0.00,30.24,M,6.21,M,M,M,M,M,M,M,M,M,M,M,M,M,M,M,M,M,RJOA 201300Z 06008KT CAVOK 14/08 Q1024
RJOH,2020-10-20 13:00,133.2392,35.4933,55.40,53.60,93.65,180.00,5.00,0.00,30.24,M,6.21,M,FEW,M,M,M,M,M,M,M,M,M,M,M,M,M,M,M,RJOH 201300Z 18005KT 9999 FEW/// 13/12 Q1024
RJGG,2020-10-20 13:00,136.8054,34.8584,60.80,51.80,72.20,70.00,5.00,0.00,30.24,M,6.21,M,FEW,M,M,M,3000.00,M,M,M,M,M,M,M,M,M,M,M,RJGG 201300Z 07005KT 9999 FEW030 16/11 Q1024 NOSIG
RJKI,2020-10-20 13:00,129.9281,28.3213,75.20,68.00,78.34,70.00,12.00,0.00,30.03,M,6.21,M,SCT,SCT,M,M,2600.00,3600.00,M,M,M,M,M,M,M,M,M,M,RJKI 201300Z AUTO 07012KT 9999 SCT026 SCT036 24/20 Q1017
ROMD,2020-10-20 13:00,131.2286,25.8289,78.80,73.40,83.55,60.00,13.00,0.00,29.97,M,6.21,M,BKN,M,M,M,1900.00,M,M,M,M,M,M,M,M,M,M,M,ROMD 201300Z AUTO 06013KT 020V090 9999 BKN019 26/23 Q1015
RORY,2020-10-20 13:00,128.4020,27.0440,77.00,71.60,83.44,80.00,14.00,0.00,30.00,M,6.21,M,SCT,SCT,BKN,M,2100.00,4000.00,5000.00,M,M,M,M,M,M,M,M,M,RORY 201300Z AUTO 08014KT 9999 SCT021 SCT040 BKN050 25/22 Q1016
RJFS,2020-10-20 13:00,130.3000,33.1500,60.80,48.20,63.15,40.00,8.00,0.00,30.18,M,6.21,M,M,M,M,M,M,M,M,M,M,M,M,M,M,M,M,M,RJFS 201300Z 04008KT CAVOK 16/09 Q1022
RJSM,2020-10-20 13:00,141.3684,40.7032,48.20,42.80,81.47,270.00,7.00,0.00,30.33,M,6.21,M,FEW,M,M,M,800.00,M,M,M,M,M,M,M,M,M,M,44.53,RJSM 201300Z 27007KT 9999 FEW008 09/06 Q1027
RJTT,2020-10-20 13:00,139.7811,35.5533,62.60,53.60,72.38,20.00,8.00,0.00,30.27,M,6.21,M,FEW,M,M,M,3000.00,M,M,M,M,M,M,M,M,M,M,M,RJTT 201300Z 02008KT 9999 FEW030 17/12 Q1025 NOSIG RMK 1CU030 A3028
RJOS,2020-10-20 13:00,134.6092,34.1322,59.00,53.60,82.25,310.00,4.00,0.00,30.24,M,6.21,M,FEW,M,M,M,3000.00,M,M,M,M,M,M,M,M,M,M,M,RJOS 201300Z 31004KT 9999 FEW030 15/12 Q1024
RORK,2020-10-20 13:00,131.3333,25.9167,78.80,73.40,83.55,70.00,22.00,0.00,29.97,M,6.21,M,FEW,M,M,M,1900.00,M,M,M,M,M,M,M,M,M,M,M,RORK 201300Z AUTO 07022KT 9999 FEW019 26/23 Q1015
ROYN,2020-10-20 13:00,122.9780,24.4670,80.60,75.20,83.66,60.00,19.00,0.00,29.91,M,3.73,M,BKN,M,M,M,2000.00,M,M,M,M,M,M,M,M,M,M,86.17,ROYN 201300Z AUTO 06019KT 6000 BKN020 27/24 Q1013
ROAH,2020-10-20 13:00,127.6458,26.1958,80.60,71.60,74.11,80.00,12.00,0.00,29.97,M,6.21,M,FEW,BKN,M,M,2000.00,M,M,M,VCSH,M,M,M,M,M,M,84.57,ROAH 201300Z 08012KT 040V110 9999 VCSH FEW020 BKN/// 27/22 Q1015 RMK 2CU020 A2997
RODN,2020-10-20 13:04,127.7676,26.3556,78.80,71.60,78.62,80.00,13.00,0.00,29.98,1015.70,10.00,22.00,SCT,SCT,M,M,2100.00,3100.00,M,M,-RA,M,M,M,M,M,M,M,RODN 201304Z AUTO 08013G22KT 10SM -RA SCT021 SCT031 26/22 A2998 RMK AO2 RAB04 SLP157 $
RODN,2020-10-20 13:15,127.7676,26.3556,78.80,71.60,78.62,80.00,16.00,0.00,29.98,1015.70,10.00,23.00,SCT,SCT,M,M,2100.00,3100.00,M,M,M,M,M,M,M,M,M,M,RODN 201315Z AUTO 08016G23KT 10SM SCT021 SCT031 26/22 A2998 RMK AO2 RAB04E15 SLP157 $
RJAA,2020-10-20 13:30,140.3856,35.7653,55.40,51.80,87.65,10.00,8.00,0.00,30.27,M,6.21,M,FEW,M,M,M,3000.00,M,M,M,M,M,M,M,M,M,M,M,RJAA 201330Z 01008KT 9999 FEW030 13/11 Q1025 NOSIG RMK 1CU030 A3028
RJCC,2020-10-20 13:30,141.6926,42.7742,41.00,39.20,93.24,340.00,4.00,0.00,30.33,M,6.21,M,M,M,M,M,M,M,M,M,M,M,M,M,M,M,M,37.93,RJCC 201330Z 34004KT CAVOK 05/04 Q1027 RMK A3033
RJFF,2020-10-20 13:30,130.4517,33.5844,57.20,50.00,76.82,M,2.00,0.00,30.18,M,6.21,M,M,M,M,M,M,M,M,M,M,M,M,M,M,M,M,M,RJFF 201330Z VRB02KT CAVOK 14/10 Q1022 NOSIG RMK A3019
RJBB,2020-10-20 13:30,135.2328,34.4342,62.60,51.80,67.75,100.00,6.00,0.00,30.24,M,6.21,M,FEW,M,M,M,3000.00,M,M,M,M,M,M,M,M,M,M,M,RJBB 201330Z 10006KT 9999 FEW030 17/11 Q1024 NOSIG
RJGG,2020-10-20 13:30,136.8054,34.8584,60.80,51.80,72.20,70.00,6.00,0.00,30.24,M,6.21,M,FEW,M,M,M,3000.00,M,M,M,M,M,M,M,M,M,M,M,RJGG 201330Z 07006KT 9999 FEW030 16/11 Q1024 NOSIG
RJTT,2020-10-20 13:30,139.7811,35.5533,62.60,53.60,72.38,20.00,9.00,0.00,30.27,M,6.21,M,FEW,M,M,M,3000.00,M,M,M,M,M,M,M,M,M,M,M,RJTT 201330Z 02009KT 9999 FEW030 17/12 Q1025 NOSIG RMK 1CU030 A3028
ROAH,2020-10-20 13:30,127.6458,26.1958,80.60,69.80,69.71,80.00,15.00,0.00,29.94,M,6.21,M,FEW,BKN,M,M,2000.00,M,M,M,VCSH,M,M,M,M,M,M,83.90,ROAH 201330Z 08015KT 9999 VCSH FEW020 BKN/// 27/21 Q1014 RMK 1CU020 A2996
RJOI,2020-10-20 13:55,132.2357,34.1439,59.00,48.90,69.12,310.00,5.00,0.00,30.22,1023.40,6.21,M,FEW,M,M,M,3000.00,M,M,M,M,M,M,M,M,M,M,M,RJOI 201355Z 31005KT 9999 FEW030 15/09 A3022 RMK SLP234 T01500094
RJTY,2020-10-20 13:56,139.3485,35.7485,55.60,50.90,84.17,0.00,0.00,0.00,30.34,1027.70,10.00,M,FEW,SCT,M,M,4900.00,6000.00,M,M,M,M,M,M,M,M,M,M,RJTY 201356Z AUTO 00000KT 10SM FEW049 SCT060 13/11 A3034 RMK AO2 SLP277 T01310105 FZRANO $
RODN,2020-10-20 13:56,127.7676,26.3556,79.00,71.10,76.79,70.00,15.00,T,29.97,1015.40,10.00,M,FEW,M,M,M,2200.00,M,M,M,M,M,M,M,M,M,M,M,RODN 201356Z AUTO 07015KT 10SM FEW022 26/22 A2997 RMK AO2 RAB04E15 SLP154 P0000 T02610217 $
ROTM,2020-10-20 13:56,127.7565,26.2743,80.10,73.00,78.99,80.00,14.00,0.00,29.98,1013.80,6.21,M,SCT,BKN,M,M,2000.00,3000.00,M,M,M,M,M,M,M,M,M,84.30,ROTM 201356Z 08014KT 9999 SCT020 BKN030 27/23 A2998 RMK SLP138 T02670228
RJFR,2020-10-20 14:00,131.0350,33.8456,66.20,55.40,68.15,90.00,5.00,0.00,30.18,M,6.21,M,FEW,M,M,M,3000.00,M,M,M,M,M,M,M,M,M,M,M,RJFR 201400Z 09005KT 040V140 9999 FEW030 19/13 Q1022
RJAA,2020-10-20 14:00,140.3856,35.7653,55.40,53.60,93.65,360.00,8.00,0.00,30.27,M,6.21,M,FEW,M,M,M,3000.00,M,M,M,M,M,M,M,M,M,M,M,RJAA 201400Z 36008KT 9999 FEW030 13/12 Q1025 NOSIG
RJAH,2020-10-20 14:00,140.4147,36.1817,50.00,46.40,87.37,360.00,4.00,0.00,30.27,M,6.21,M,FEW,M,M,M,3000.00,M,M,M,M,M,M,M,M,M,M,M,RJAH 201400Z 36004KT 9999 FEW030 10/08 Q1025
RJCC,2020-10-20 14:00,141.6926,42.7742,37.40,37.40,100.00,M,2.00,0.00,30.33,M,6.21,M,M,M,M,M,M,M,M,M,M,M,M,M,M,M,M,M,RJCC 201400Z VRB02KT CAVOK 03/03 Q1027
RJFF,2020-10-20 14:00,130.4517,33.5844,57.20,50.00,76.82,M,1.00,0.00,30.18,M,6.21,M,NCD,M,M,M,M,M,M,M,M,M,M,M,M,M,M,M,RJFF 201400Z AUTO VRB01KT 9999 NCD 14/10 Q1022 NOSIG
RJBB,2020-10-20 14:00,135.2328,34.4342,62.60,51.80,67.75,90.00,6.00,0.00,30.24,M,6.21,M,NCD,M,M,M,M,M,M,M,M,M,M,M,M,M,M,M,RJBB 201400Z AUTO 09006KT 9999 NCD 17/11 Q1024 NOSIG
RJNK,2020-10-20 14:00,136.4075,36.3939,53.60,48.20,81.87,110.00,3.00,0.00,30.24,M,6.21,M,FEW,M,M,M,3000.00,M,M,M,M,M,M,M,M,M,M,M,RJNK 201400Z 11003KT 9999 FEW030 12/09 Q1024
RJOH,2020-10-20 14:00,133.2392,35.4933,53.60,51.80,93.60,M,2.00,0.00,30.24,M,6.21,M,FEW,M,M,M,M,M,M,M,M,M,M,M,M,M,M,M,RJOH 201400Z VRB02KT 9999 FEW/// 12/11 Q1024
RJGG,2020-10-20 14:00,136.8054,34.8584,60.80,53.60,77.14,90.00,7.00,0.00,30.24,M,6.21,M,FEW,M,M,M,3000.00,M,M,M,M,M,M,M,M,M,M,M,RJGG 201400Z 09007KT 9999 FEW030 16/12 Q1024 BECMG 04006KT
RJKI,2020-10-20 14:00,129.9281,28.3213,75.20,68.00,78.34,70.00,13.00,0.00,30.03,M,6.21,M,FEW,M,M,M,2400.00,M,M,M,M,M,M,M,M,M,M,M,RJKI 201400Z AUTO 07013KT 9999 FEW024 24/20 Q1017
ROMD,2020-10-20 14:00,131.2286,25.8289,78.80,71.60,78.62,50.00,17.00,0.00,29.94,M,6.21,M,FEW,M,M,M,1800.00,M,M,M,M,M,M,M,M,M,M,M,ROMD 201400Z AUTO 05017KT 9999 FEW018 26/22 Q1014
RORY,2020-10-20 14:00,128.4020,27.0440,77.00,71.60,83.44,80.00,15.00,0.00,29.97,M,6.21,M,FEW,SCT,M,M,1900.00,3400.00,M,M,M,M,M,M,M,M,M,M,RORY 201400Z AUTO 08015KT 9999 FEW019 SCT034 25/22 Q1015
RJFS,2020-10-20 14:00,130.3000,33.1500,57.20,48.20,71.83,50.00,5.00,0.00,30.18,M,6.21,M,M,M,M,M,M,M,M,M,M,M,M,M,M,M,M,M,RJFS 201400Z 05005KT CAVOK 14/09 Q1022
RJSM,2020-10-20 14:00,141.3684,40.7032,50.00,42.80,76.18,240.00,4.00,0.00,30.33,M,6.21,M,FEW,M,M,M,1000.00,M,M,M,M,M,M,M,M,M,M,M,RJSM 201400Z 24004KT 9999 FEW010 10/06 Q1027
RJTT,2020-10-20 14:00,139.7811,35.5533,62.60,53.60,72.38,20.00,9.00,0.00,30.27,M,6.21,M,FEW,M,M,M,3000.00,M,M,M,M,M,M,M,M,M,M,M,RJTT 201400Z 02009KT 9999 FEW030 17/12 Q1025 NOSIG
RJOS,2020-10-20 14:00,134.6092,34.1322,57.20,51.80,82.12,310.00,6.00,0.00,30.21,M,6.21,M,FEW,M,M,M,3000.00,M,M,M,M,M,M,M,M,M,M,M,RJOS 201400Z 31006KT 9999 FEW030 14/11 Q1023
RORK,2020-10-20 14:00,131.3333,25.9167,78.80,73.40,83.55,70.00,22.00,0.00,29.94,M,6.21,M,FEW,M,M,M,1800.00,M,M,M,M,M,M,M,M,M,M,M,RORK 201400Z AUTO 07022KT 9999 FEW018 26/23 Q1014
ROYN,2020-10-20 14:00,122.9780,24.4670,80.60,75.20,83.66,60.00,18.00,0.00,29.91,M,6.21,M,BKN,BKN,M,M,2000.00,5000.00,M,M,M,M,M,M,M,M,M,86.17,ROYN 201400Z AUTO 06018KT 9999 BKN020 BKN050 27/24 Q1013
ROAH,2020-10-20 14:00,127.6458,26.1958,80.60,71.60,74.11,80.00,12.00,0.00,29.94,M,6.21,M,FEW,BKN,M,M,2000.00,M,M,M,M,M,M,M,M,M,M,84.57,ROAH 201400Z 08012KT 9999 FEW020 BKN/// 27/22 Q1014
ROAH,2020-10-20 14:30,127.6458,26.1958,80.60,71.60,74.11,90.00,13.00,0.00,29.94,M,6.21,M,FEW,BKN,M,M,2500.00,M,M,M,M,M,M,M,M,M,M,84.57,ROAH 201430Z 09013KT 9999 FEW025 BKN/// 27/22 Q1014
RJAA,2020-10-20 14:30,140.3856,35.7653,55.40,51.80,87.65,10.00,7.00,0.00,30.27,M,6.21,M,FEW,M,M,M,3000.00,M,M,M,M,M,M,M,M,M,M,M,RJAA 201430Z 01007KT 9999 FEW030 13/11 Q1025 NOSIG
RJCC,2020-10-20 14:30,141.6926,42.7742,39.20,37.40,93.19,340.00,4.00,0.00,30.33,M,6.21,M,M,M,M,M,M,M,M,M,M,M,M,M,M,M,M,35.83,RJCC 201430Z 34004KT CAVOK 04/03 Q1027
RJFF,2020-10-20 14:30,130.4517,33.5844,57.20,50.00,76.82,190.00,1.00,0.00,30.18,M,6.21,M,NCD,M,M,M,M,M,M,M,M,M,M,M,M,M,M,M,RJFF 201430Z AUTO 19001KT 9999 NCD 14/10 Q1022 NOSIG
RJBB,2020-10-20 14:30,135.2328,34.4342,62.60,51.80,67.75,90.00,7.00,0.00,30.21,M,6.21,M,NCD,M,M,M,M,M,M,M,M,M,M,M,M,M,M,M,RJBB 201430Z AUTO 09007KT 9999 NCD 17/11 Q1023 NOSIG
RJGG,2020-10-20 14:30,136.8054,34.8584,59.00,53.60,82.25,70.00,5.00,0.00,30.21,M,6.21,M,FEW,M,M,M,3000.00,M,M,M,M,M,M,M,M,M,M,M,RJGG 201430Z 07005KT 9999 FEW030 15/12 Q1023 NOSIG
RJTT,2020-10-20 14:30,139.7811,35.5533,62.60,53.60,72.38,20.00,10.00,0.00,30.27,M,6.21,M,FEW,M,M,M,3000.00,M,M,M,M,M,M,M,M,M,M,M,RJTT 201430Z 02010KT 9999 FEW030 17/12 Q1025 NOSIG
RJOI,2020-10-20 14:55,132.2357,34.1439,57.90,48.90,71.90,310.00,5.00,0.00,30.22,1023.20,6.21,M,FEW,M,M,M,3000.00,M,M,M,M,M,M,M,M,M,M,M,RJOI 201455Z 31005KT 9999 FEW030 14/09 A3022 RMK SLP232 T01440094 402280133 58003
RJTY,2020-10-20 14:56,139.3485,35.7485,55.80,51.30,84.81,0.00,0.00,0.00,30.34,1027.70,10.00,M,OVC,M,M,M,4500.00,M,M,M,M,M,M,M,M,M,M,M,RJTY 201456Z AUTO 00000KT 10SM OVC045 13/11 A3034 RMK AO2 SLP277 T01320107 402040090 58001 FZRANO $
RODN,2020-10-20 14:56,127.7676,26.3556,79.30,71.40,76.82,80.00,16.00,0.00,29.96,1015.00,10.00,19.00,SCT,BKN,M,M,2400.00,3600.00,M,M,M,M,M,M,M,M,M,M,RODN 201456Z AUTO 08016G19KT 10SM SCT024 BKN036 26/22 A2996 RMK AO2 SLP150 60000 T02630219 403000259 58009 $
ROTM,2020-10-20 14:56,127.7565,26.2743,80.10,72.00,76.36,80.00,13.00,0.00,29.98,1013.60,6.21,M,SCT,BKN,M,M,2500.00,3500.00,M,M,M,M,M,M,M,M,M,83.94,ROTM 201456Z 08013KT 9999 SCT025 BKN035 27/22 A2998 RMK SLP136 T02670222 4002890244 56007
RJFR,2020-10-20 15:00,131.0350,33.8456,64.40,57.20,77.45,150.00,5.00,0.00,30.15,M,6.21,M,FEW,M,M,M,3000.00,M,M,M,M,M,M,M,M,M,M,M,RJFR 201500Z 15005KT 060V200 9999 FEW030 18/14 Q1021
RJAA,2020-10-20 15:00,140.3856,35.7653,55.40,51.80,87.65,10.00,7.00,0.00,30.27,M,6.21,M,FEW,M,M,M,3000.00,M,M,M,M,M,M,M,M,M,M,M,RJAA 201500Z 01007KT 9999 FEW030 13/11 Q1025 NOSIG
RJAH,2020-10-20 15:00,140.4147,36.1817,50.00,48.20,93.50,350.00,3.00,0.00,30.27,M,6.21,M,FEW,M,M,M,3000.00,M,M,M,M,M,M,M,M,M,M,M,RJAH 201500Z 35003KT 9999 FEW030 10/09 Q1025
RJCC,2020-10-20 15:00,141.6926,42.7742,39.20,37.40,93.19,340.00,3.00,0.00,30.33,M,6.21,M,M,M,M,M,M,M,M,M,M,M,M,M,M,M,M,36.92,RJCC 201500Z 34003KT CAVOK 04/03 Q1027
RJFF,2020-10-20 15:00,130.4517,33.5844,55.40,50.00,81.99,M,2.00,0.00,30.18,M,6.21,M,NCD,M,M,M,M,M,M,M,M,M,M,M,M,M,M,M,RJFF 201500Z AUTO VRB02KT 9999 NCD 13/10 Q1022 NOSIG
RJBB,2020-10-20 15:00,135.2328,34.4342,60.80,51.80,72.20,70.00,7.00,0.00,30.21,M,6.21,M,NCD,M,M,M,M,M,M,M,M,M,M,M,M,M,M,M,RJBB 201500Z AUTO 07007KT 9999 NCD 16/11 Q1023 NOSIG
RJNK,2020-10-20 15:00,136.4075,36.3939,53.60,46.40,76.50,120.00,3.00,0.00,30.21,M,6.21,M,FEW,M,M,M,3000.00,M,M,M,M,M,M,M,M,M,M,M,RJNK 201500Z 12003KT 9999 FEW030 12/08 Q1023
RJOH,2020-10-20 15:00,133.2392,35.4933,53.60,51.80,93.60,190.00,4.00,0.00,30.24,M,6.21,M,FEW,M,M,M,M,M,M,M,M,M,M,M,M,M,M,M,RJOH 201500Z 19004KT 9999 FEW/// 12/11 Q1024
RJGG,2020-10-20 15:00,136.8054,34.8584,60.80,51.80,72.20,80.00,5.00,0.00,30.21,M,6.21,M,FEW,M,M,M,3000.00,M,M,M,M,M,M,M,M,M,M,M,RJGG 201500Z 08005KT 9999 FEW030 16/11 Q1023 BECMG TL1600 04006KT
RJKI,2020-10-20 15:00,129.9281,28.3213,75.20,69.80,83.32,70.00,11.00,0.00,30.03,M,6.21,M,SCT,SCT,BKN,M,2500.00,3100.00,3600.00,M,M,M,M,M,M,M,M,M,RJKI 201500Z AUTO 07011KT 9999 SCT025 SCT031 BKN036 24/21 Q1017
ROMD,2020-10-20 15:00,131.2286,25.8289,78.80,73.40,83.55,50.00,15.00,0.00,29.94,M,6.21,M,SCT,SCT,BKN,M,1900.00,2500.00,3600.00,M,M,M,M,M,M,M,M,M,ROMD 201500Z AUTO 05015KT 9999 SCT019 SCT025 BKN036 26/23 Q1014
RORY,2020-10-20 15:00,128.4020,27.0440,78.80,73.40,83.55,80.00,16.00,0.00,29.97,M,6.21,M,SCT,SCT,BKN,M,1800.00,2300.00,2500.00,M,M,M,M,M,M,M,M,M,RORY 201500Z AUTO 08016KT 9999 SCT018 SCT023 BKN025 26/23 Q1015
RJSM,2020-10-20 15:00,141.3684,40.7032,48.20,42.80,81.47,230.00,3.00,0.00,30.33,M,6.21,M,FEW,M,M,M,1000.00,M,M,M,M,M,M,M,M,M,M,47.21,RJSM 201500Z 23003KT 9999 FEW010 09/06 Q1027
RJTT,2020-10-20 15:00,139.7811,35.5533,62.60,55.40,77.29,20.00,12.00,0.00,30.27,M,6.21,M,FEW,M,M,M,3000.00,M,M,M,M,M,M,M,M,M,M,M,RJTT 201500Z 02012KT 9999 FEW030 17/13 Q1025 NOSIG
RJOS,2020-10-20 15:00,134.6092,34.1322,57.20,51.80,82.12,300.00,8.00,0.00,30.21,M,6.21,M,FEW,M,M,M,3000.00,M,M,M,M,M,M,M,M,M,M,M,RJOS 201500Z 30008KT 9999 FEW030 14/11 Q1023
RORK,2020-10-20 15:00,131.3333,25.9167,78.80,73.40,83.55,60.00,20.00,0.00,29.94,M,6.21,M,FEW,SCT,BKN,M,1900.00,2100.00,2700.00,M,M,M,M,M,M,M,M,M,RORK 201500Z AUTO 06020KT 9999 FEW019 SCT021 BKN027 26/23 Q1014
ROYN,2020-10-20 15:00,122.9780,24.4670,80.60,75.20,83.66,60.00,17.00,0.00,29.91,M,6.21,M,SCT,BKN,BKN,M,1900.00,2400.00,2900.00,M,M,M,M,M,M,M,M,86.17,ROYN 201500Z AUTO 06017KT 9999 SCT019 BKN024 BKN029 27/24 Q1013
ROAH,2020-10-20 15:00,127.6458,26.1958,80.60,71.60,74.11,80.00,13.00,0.00,29.94,M,6.21,M,SCT,BKN,M,M,2500.00,M,M,M,-SHRA,M,M,M,M,M,M,84.57,ROAH 201500Z 08013KT 9999 -SHRA SCT025 BKN/// 27/22 Q1014
RJAW,2020-10-20 15:00,141.3227,24.7840,78.80,77.00,94.23,160.00,10.00,0.00,29.83,M,6.21,M,FEW,BKN,BKN,M,1000.00,1500.00,15000.00,M,-SHRA,M,M,M,M,M,M,M,RJAW 201500Z RTD 16010KT 9999 -SHRA FEW010 BKN015 BKN150 26/25 Q1010 RMK 2CU010 6CU015 7AC150 A2983
RJAA,2020-10-20 15:30,140.3856,35.7653,55.40,51.80,87.65,360.00,8.00,0.00,30.27,M,6.21,M,FEW,M,M,M,3000.00,M,M,M,M,M,M,M,M,M,M,M,RJAA 201530Z 36008KT 9999 FEW030 13/11 Q1025 NOSIG
RJCC,2020-10-20 15:30,141.6926,42.7742,37.40,37.40,100.00,320.00,4.00,0.00,30.33,M,6.21,M,M,M,M,M,M,M,M,M,M,M,M,M,M,M,M,33.73,RJCC 201530Z 32004KT CAVOK 03/03 Q1027
RJFF,2020-10-20 15:30,130.4517,33.5844,55.40,50.00,81.99,140.00,3.00,0.00,30.15,M,6.21,M,NCD,M,M,M,M,M,M,M,M,M,M,M,M,M,M,M,RJFF 201530Z AUTO 14003KT 9999 NCD 13/10 Q1021 NOSIG
RJBB,2020-10-20 15:30,135.2328,34.4342,60.80,53.60,77.14,70.00,7.00,0.00,30.21,M,6.21,M,NCD,M,M,M,M,M,M,M,M,M,M,M,M,M,M,M,RJBB 201530Z AUTO 07007KT 9999 NCD 16/12 Q1023 NOSIG
RJGG,2020-10-20 15:30,136.8054,34.8584,59.00,51.80,76.98,90.00,5.00,0.00,30.24,M,6.21,M,FEW,M,M,M,3000.00,M,M,M,M,M,M,M,M,M,M,M,RJGG 201530Z 09005KT 9999 FEW030 15/11 Q1024 BECMG TL1630 06005KT
RJTT,2020-10-20 15:30,139.7811,35.5533,62.60,53.60,72.38,20.00,12.00,0.00,30.27,M,6.21,M,FEW,M,M,M,3000.00,M,M,M,M,M,M,M,M,M,M,M,RJTT 201530Z 02012KT 9999 FEW030 17/12 Q1025 NOSIG
ROAH,2020-10-20 15:30,127.6458,26.1958,80.60,71.60,74.11,90.00,13.00,0.00,29.91,M,6.21,M,FEW,BKN,M,M,2500.00,M,M,M,M,M,M,M,M,M,M,84.57,ROAH 201530Z 09013KT 9999 FEW025 BKN/// 27/22 Q1013
RJOI,2020-10-20 15:55,132.2357,34.1439,57.90,48.90,71.90,320.00,5.00,0.00,30.21,1022.90,6.21,M,FEW,M,M,M,3000.00,M,M,M,M,M,M,M,M,M,M,M,RJOI 201555Z 32005KT 9999 FEW030 14/09 A3021 RMK SLP229 T01440094
RJTY,2020-10-20 15:56,139.3485,35.7485,56.30,50.50,80.85,300.00,3.00,0.00,30.34,1027.60,10.00,M,BKN,BKN,M,M,4800.00,6500.00,M,M,M,M,M,M,M,M,M,M,RJTY 201556Z AUTO 30003KT 10SM BKN048 BKN065 14/10 A3034 RMK AO2 SLP276 T01350103 FZRANO $
RODN,2020-10-20 15:56,127.7676,26.3556,79.20,70.50,74.75,70.00,15.00,0.00,29.94,M,10.00,M,CLR,M,M,M,M,M,M,M,M,M,M,M,M,M,M,M,RODN 201556Z AUTO 07015KT 10SM CLR 26/21 A2994 RMK AO2 SLPNO T02620214 $
ROTM,2020-10-20 15:56,127.7565,26.2743,80.10,72.00,76.36,90.00,16.00,0.00,29.96,1012.90,6.21,22.00,SCT,BKN,M,M,2500.00,3500.00,M,M,M,M,M,M,M,M,M,83.94,ROTM 201556Z 09016G22KT 9999 SCT025 BKN035 27/22 A2996 RMK SLP129 T02670222
RJFR,2020-10-20 16:00,131.0350,33.8456,62.60,55.40,77.29,220.00,2.00,0.00,30.15,M,6.21,M,FEW,M,M,M,3000.00,M,M,M,M,M,M,M,M,M,M,M,RJFR 201600Z 22002KT 9999 FEW030 17/13 Q1021
RJAA,2020-10-20 16:00,140.3856,35.7653,53.60,51.80,93.60,10.00,8.00,0.00,30.27,M,6.21,M,FEW,M,M,M,3000.00,M,M,M,M,M,M,M,M,M,M,M,RJAA 201600Z 01008KT 9999 FEW030 12/11 Q1025 NOSIG
RJAH,2020-10-20 16:00,140.4147,36.1817,48.20,46.40,93.45,10.00,4.00,0.00,30.27,M,6.21,M,FEW,M,M,M,3000.00,M,M,M,M,M,M,M,M,M,M,46.34,RJAH 201600Z 01004KT 9999 FEW030 09/08 Q1025
RJCC,2020-10-20 16:00,141.6926,42.7742,37.40,35.60,93.14,0.00,0.00,0.00,30.33,M,6.21,M,M,M,M,M,M,M,M,M,M,M,M,M,M,M,M,M,RJCC 201600Z 00000KT CAVOK 03/02 Q1027
RJFF,2020-10-20 16:00,130.4517,33.5844,57.20,48.20,71.83,120.00,3.00,0.00,30.15,M,6.21,M,NCD,M,M,M,M,M,M,M,M,M,M,M,M,M,M,M,RJFF 201600Z AUTO 12003KT 9999 NCD 14/09 Q1021 NOSIG
RJBB,2020-10-20 16:00,135.2328,34.4342,60.80,53.60,77.14,70.00,8.00,0.00,30.21,M,6.21,M,NCD,M,M,M,M,M,M,M,M,M,M,M,M,M,M,M,RJBB 201600Z AUTO 07008KT 9999 NCD 16/12 Q1023 NOSIG
RJNK,2020-10-20 16:00,136.4075,36.3939,50.00,46.40,87.37,M,2.00,0.00,30.21,M,6.21,M,FEW,M,M,M,3000.00,M,M,M,M,M,M,M,M,M,M,M,RJNK 201600Z VRB02KT 9999 FEW030 10/08 Q1023
RJOH,2020-10-20 16:00,133.2392,35.4933,53.60,51.80,93.60,190.00,4.00,0.00,30.21,M,6.21,M,FEW,M,M,M,M,M,M,M,M,M,M,M,M,M,M,M,RJOH 201600Z 19004KT 9999 FEW/// 12/11 Q1023
RJGG,2020-10-20 16:00,136.8054,34.8584,59.00,50.00,72.01,60.00,7.00,0.00,30.21,M,6.21,M,FEW,M,M,M,3000.00,M,M,M,M,M,M,M,M,M,M,M,RJGG 201600Z 06007KT 9999 FEW030 15/10 Q1023 NOSIG
RJKI,2020-10-20 16:00,129.9281,28.3213,75.20,69.80,83.32,70.00,11.00,0.00,30.00,M,6.21,M,FEW,SCT,M,M,2500.00,3400.00,M,M,M,M,M,M,M,M,M,M,RJKI 201600Z AUTO 07011KT 9999 FEW025 SCT034 24/21 Q1016
ROMD,2020-10-20 16:00,131.2286,25.8289,78.80,73.40,83.55,50.00,16.00,0.00,29.94,M,6.21,M,BKN,BKN,M,M,1800.00,3300.00,M,M,M,M,M,M,M,M,M,M,ROMD 201600Z AUTO 05016KT 9999 BKN018 BKN033 26/23 Q1014
RORY,2020-10-20 16:00,128.4020,27.0440,78.80,71.60,78.62,80.00,14.00,0.00,29.94,M,6.21,M,FEW,SCT,M,M,2200.00,2500.00,M,M,M,M,M,M,M,M,M,M,RORY 201600Z AUTO 08014KT 9999 FEW022 SCT025 26/22 Q1014
RJSM,2020-10-20 16:00,141.3684,40.7032,46.40,42.80,87.19,240.00,3.00,0.00,30.33,M,6.21,M,FEW,M,M,M,1000.00,M,M,M,M,M,M,M,M,M,M,45.15,RJSM 201600Z 24003KT 9999 FEW010 08/06 Q1027
RJTT,2020-10-20 16:00,139.7811,35.5533,60.80,53.60,77.14,360.00,11.00,0.00,30.27,M,6.21,M,FEW,SCT,M,M,3000.00,6000.00,M,M,M,M,M,M,M,M,M,M,RJTT 201600Z 36011KT 9999 FEW030 SCT060 16/12 Q1025 NOSIG
RJOS,2020-10-20 16:00,134.6092,34.1322,57.20,51.80,82.12,300.00,8.00,0.00,30.21,M,6.21,M,FEW,M,M,M,3000.00,M,M,M,M,M,M,M,M,M,M,M,RJOS 201600Z 30008KT 9999 FEW030 14/11 Q1023
RORK,2020-10-20 16:00,131.3333,25.9167,78.80,73.40,83.55,60.00,21.00,0.00,29.94,M,6.21,M,SCT,BKN,M,M,1900.00,2500.00,M,M,M,M,M,M,M,M,M,M,RORK 201600Z AUTO 06021KT 9999 SCT019 BKN025 26/23 Q1014
ROYN,2020-10-20 16:00,122.9780,24.4670,80.60,75.20,83.66,60.00,16.00,0.00,29.88,M,4.35,M,SCT,OVC,M,M,2000.00,5000.00,M,M,M,M,M,M,M,M,M,86.17,ROYN 201600Z AUTO 06016KT 7000 SCT020 OVC050 27/24 Q1012
ROAH,2020-10-20 16:00,127.6458,26.1958,80.60,71.60,74.11,90.00,11.00,0.00,29.91,M,6.21,M,FEW,BKN,M,M,2500.00,M,M,M,VCSH,M,M,M,M,M,M,84.57,ROAH 201600Z 09011KT 9999 VCSH FEW025 BKN/// 27/22 Q1013
RJAA,2020-10-20 16:30,140.3856,35.7653,53.60,51.80,93.60,10.00,8.00,0.00,30.27,M,6.21,M,FEW,M,M,M,3000.00,M,M,M,M,M,M,M,M,M,M,M,RJAA 201630Z 01008KT 9999 FEW030 12/11 Q1025 NOSIG
RJCC,2020-10-20 16:30,141.6926,42.7742,37.40,35.60,93.14,310.00,4.00,0.00,30.33,M,6.21,M,M,M,M,M,M,M,M,M,M,M,M,M,M,M,M,33.73,RJCC 201630Z 31004KT CAVOK 03/02 Q1027
RJFF,2020-10-20 16:30,130.4517,33.5844,55.40,50.00,81.99,M,1.00,0.00,30.15,M,6.21,M,NCD,M,M,M,M,M,M,M,M,M,M,M,M,M,M,M,RJFF 201630Z AUTO VRB01KT 9999 NCD 13/10 Q1021 NOSIG
RJBB,2020-10-20 16:30,135.2328,34.4342,59.00,53.60,82.25,110.00,5.00,0.00,30.21,M,6.21,M,NCD,M,M,M,M,M,M,M,M,M,M,M,M,M,M,M,RJBB 201630Z AUTO 11005KT 9999 NCD 15/12 Q1023 NOSIG
RJGG,2020-10-20 16:30,136.8054,34.8584,57.20,50.00,76.82,60.00,6.00,0.00,30.21,M,6.21,M,FEW,M,M,M,3000.00,M,M,M,M,M,M,M,M,M,M,M,RJGG 201630Z 06006KT 9999 FEW030 14/10 Q1023 NOSIG
RJTT,2020-10-20 16:30,139.7811,35.5533,60.80,53.60,77.14,360.00,12.00,0.00,30.27,M,6.21,M,FEW,M,M,M,3000.00,M,M,M,M,M,M,M,M,M,M,M,RJTT 201630Z 36012KT 9999 FEW030 16/12 Q1025 NOSIG
ROAH,2020-10-20 16:30,127.6458,26.1958,80.60,71.60,74.11,90.00,12.00,0.00,29.91,M,6.21,M,FEW,BKN,M,M,2500.00,M,M,M,VCSH,M,M,M,M,M,M,84.57,ROAH 201630Z 09012KT 9999 VCSH FEW025 BKN/// 27/22 Q1013
RJOI,2020-10-20 16:55,132.2357,34.1439,57.00,48.00,71.81,300.00,5.00,0.00,30.21,1022.90,6.21,M,FEW,M,M,M,3000.00,M,M,M,M,M,M,M,M,M,M,M,RJOI 201655Z 30005KT 9999 FEW030 14/09 A3021 RMK SLP229 T01390089
RJTY,2020-10-20 16:56,139.3485,35.7485,54.90,50.70,85.70,0.00,0.00,0.00,30.34,1027.60,10.00,M,OVC,M,M,M,5000.00,M,M,M,M,M,M,M,M,M,M,M,RJTY 201656Z AUTO 00000KT 10SM OVC050 13/10 A3034 RMK AO2 SLP276 T01270104 FZRANO $
RODN,2020-10-20 16:56,127.7676,26.3556,79.20,71.20,76.55,80.00,13.00,0.00,29.94,M,10.00,21.00,CLR,M,M,M,M,M,M,M,M,M,M,M,M,M,M,M,RODN 201656Z AUTO 08013G21KT 10SM CLR 26/22 A2994 RMK AO2 SLPNO T02620218 $
ROTM,2020-10-20 16:56,127.7565,26.2743,79.00,73.90,84.41,80.00,12.00,0.00,29.96,1012.90,6.21,19.00,SCT,SCT,M,M,2500.00,3500.00,M,M,M,M,M,M,M,M,M,M,ROTM 201656Z 08012G19KT 9999 SCT025 SCT035 26/23 A2996 RMK SLP129 T02610233
RJFR,2020-10-20 17:00,131.0350,33.8456,62.60,53.60,72.38,230.00,3.00,0.00,30.18,M,6.21,M,FEW,M,M,M,3000.00,M,M,M,M,M,M,M,M,M,M,M,RJFR 201700Z 23003KT 9999 FEW030 17/12 Q1022
RJAA,2020-10-20 17:00,140.3856,35.7653,55.40,51.80,87.65,10.00,8.00,0.00,30.27,M,6.21,M,FEW,M,M,M,3000.00,M,M,M,M,M,M,M,M,M,M,M,RJAA 201700Z 01008KT 9999 FEW030 13/11 Q1025 NOSIG
RJAH,2020-10-20 17:00,140.4147,36.1817,50.00,46.40,87.37,360.00,4.00,0.00,30.27,M,6.21,M,FEW,M,M,M,3000.00,M,M,M,M,M,M,M,M,M,M,M,RJAH 201700Z 36004KT 9999 FEW030 10/08 Q1025
RJCC,2020-10-20 17:00,141.6926,42.7742,37.40,35.60,93.14,330.00,3.00,0.00,30.33,M,6.21,M,M,M,M,M,M,M,M,M,M,M,M,M,M,M,M,34.86,RJCC 201700Z 33003KT CAVOK 03/02 Q1027 RMK A3033
RJFF,2020-10-20 17:00,130.4517,33.5844,55.40,50.00,81.99,80.00,2.00,0.00,30.15,M,6.21,M,NCD,M,M,M,M,M,M,M,M,M,M,M,M,M,M,M,RJFF 201700Z AUTO 08002KT 9999 NCD 13/10 Q1021 NOSIG
RJBB,2020-10-20 17:00,135.2328,34.4342,59.00,53.60,82.25,100.00,6.00,0.00,30.21,M,6.21,M,NCD,M,M,M,M,M,M,M,M,M,M,M,M,M,M,M,RJBB 201700Z AUTO 10006KT 9999 NCD 15/12 Q1023 NOSIG
RJNK,2020-10-20 17:00,136.4075,36.3939,48.20,46.40,93.45,M,2.00,0.00,30.21,M,6.21,M,FEW,M,M,M,3000.00,M,M,M,M,M,M,M,M,M,M,M,RJNK 201700Z VRB02KT 9999 FEW030 09/08 Q1023
RJOH,2020-10-20 17:00,133.2392,35.4933,51.80,51.80,100.00,180.00,5.00,0.00,30.21,M,6.21,M,FEW,M,M,M,M,M,M,M,M,M,M,M,M,M,M,M,RJOH 201700Z 18005KT 9999 FEW/// 11/11 Q1023
RJGG,2020-10-20 17:00,136.8054,34.8584,55.40,48.20,76.66,20.00,4.00,0.00,30.21,M,6.21,M,FEW,M,M,M,3000.00,M,M,M,M,M,M,M,M,M,M,M,RJGG 201700Z 02004KT 340V070 9999 FEW030 13/09 Q1023 NOSIG
RJKI,2020-10-20 17:00,129.9281,28.3213,73.40,69.80,88.51,90.00,11.00,0.00,30.00,M,6.21,M,FEW,SCT,BKN,M,2100.00,2900.00,3900.00,M,-RA,M,M,M,M,M,M,M,RJKI 201700Z AUTO 09011KT 9999 -RA FEW021 SCT029 BKN039 23/21 Q1016
ROMD,2020-10-20 17:00,131.2286,25.8289,78.80,73.40,83.55,60.00,13.00,0.00,29.91,M,6.21,M,FEW,BKN,BKN,M,1500.00,1900.00,2900.00,M,M,M,M,M,M,M,M,M,ROMD 201700Z AUTO 06013KT 020V090 9999 FEW015 BKN019 BKN029 26/23 Q1013
RORY,2020-10-20 17:00,128.4020,27.0440,78.80,71.60,78.62,80.00,13.00,0.00,29.94,M,6.21,M,FEW,SCT,BKN,M,1900.00,2200.00,2700.00,M,M,M,M,M,M,M,M,M,RORY 201700Z AUTO 08013KT 9999 FEW019 SCT022 BKN027 26/22 Q1014
RJSM,2020-10-20 17:00,141.3684,40.7032,44.60,41.00,87.09,260.00,3.00,0.00,30.30,M,6.21,M,FEW,M,M,M,1500.00,M,M,M,M,M,M,M,M,M,M,43.09,RJSM 201700Z 26003KT 220V300 9999 FEW015 07/05 Q1026
RJTT,2020-10-20 17:00,139.7811,35.5533,60.80,53.60,77.14,360.00,12.00,0.00,30.27,M,6.21,M,FEW,M,M,M,3000.00,M,M,M,M,M,M,M,M,M,M,M,RJTT 201700Z 36012KT 9999 FEW030 16/12 Q1025 NOSIG RMK 1CU030 A3028
RJOS,2020-10-20 17:00,134.6092,34.1322,55.40,51.80,87.65,300.00,8.00,0.00,30.21,M,6.21,M,FEW,M,M,M,3000.00,M,M,M,M,M,M,M,M,M,M,M,RJOS 201700Z 30008KT 9999 FEW030 13/11 Q1023
RORK,2020-10-20 17:00,131.3333,25.9167,78.80,73.40,83.55,60.00,21.00,0.00,29.94,M,6.21,M,SCT,BKN,M,M,1900.00,2800.00,M,M,M,M,M,M,M,M,M,M,RORK 201700Z AUTO 06021KT 9999 SCT019 BKN028 26/23 Q1014
ROYN,2020-10-20 17:00,122.9780,24.4670,80.60,75.20,83.66,60.00,18.00,0.00,29.88,M,6.21,M,FEW,SCT,BKN,M,1800.00,2100.00,5000.00,M,M,M,M,M,M,M,M,86.17,ROYN 201700Z AUTO 06018KT 9999 FEW018 SCT021 BKN050 27/24 Q1012
ROAH,2020-10-20 17:00,127.6458,26.1958,80.60,71.60,74.11,80.00,12.00,0.00,29.91,M,6.21,M,FEW,BKN,M,M,2000.00,M,M,M,M,M,M,M,M,M,M,84.57,ROAH 201700Z 08012KT 9999 FEW020 BKN/// 27/22 Q1013
RJAA,2020-10-20 17:30,140.3856,35.7653,53.60,51.80,93.60,10.00,8.00,0.00,30.27,M,6.21,M,FEW,M,M,M,3000.00,M,M,M,M,M,M,M,M,M,M,M,RJAA 201730Z 01008KT 9999 FEW030 12/11 Q1025 NOSIG
RJCC,2020-10-20 17:30,141.6926,42.7742,35.60,35.60,100.00,340.00,4.00,0.00,30.33,M,6.21,M,M,M,M,M,M,M,M,M,M,M,M,M,M,M,M,31.62,RJCC 201730Z 34004KT CAVOK 02/02 Q1027
RJFF,2020-10-20 17:30,130.4517,33.5844,55.40,50.00,81.99,M,2.00,0.00,30.15,M,6.21,M,NSC,M,M,M,M,M,M,M,M,M,M,M,M,M,M,M,RJFF 201730Z AUTO VRB02KT 9999 NSC 13/10 Q1021 NOSIG
RJBB,2020-10-20 17:30,135.2328,34.4342,59.00,53.60,82.25,100.00,5.00,0.00,30.21,M,6.21,M,NCD,M,M,M,M,M,M,M,M,M,M,M,M,M,M,M,RJBB 201730Z AUTO 10005KT 080V140 9999 NCD 15/12 Q1023 NOSIG
RJGG,2020-10-20 17:30,136.8054,34.8584,55.40,48.20,76.66,20.00,3.00,0.00,30.21,M,6.21,M,FEW,M,M,M,3000.00,M,M,M,M,M,M,M,M,M,M,M,RJGG 201730Z 02003KT 330V070 9999 FEW030 13/09 Q1023 NOSIG
RJTT,2020-10-20 17:30,139.7811,35.5533,60.80,53.60,77.14,360.00,11.00,0.00,30.27,M,6.21,M,FEW,M,M,M,3000.00,M,M,M,M,M,M,M,M,M,M,M,RJTT 201730Z 36011KT 9999 FEW030 16/12 Q1025 NOSIG
ROAH,2020-10-20 17:30,127.6458,26.1958,80.60,71.60,74.11,80.00,12.00,0.00,29.91,M,6.21,M,FEW,BKN,M,M,2000.00,M,M,M,M,M,M,M,M,M,M,84.57,ROAH 201730Z 08012KT 9999 FEW020 BKN/// 27/22 Q1013
RJOI,2020-10-20 17:55,132.2357,34.1439,57.00,48.00,71.81,290.00,7.00,0.00,30.21,1023.00,6.21,M,FEW,FEW,M,M,3000.00,9000.00,M,M,M,M,M,M,M,M,M,M,RJOI 201755Z 29007KT 9999 FEW030 FEW090 14/09 A3021 RMK SLP230 T01390089 10161 20133 55000
ROTM,2020-10-20 17:56,127.7565,26.2743,79.00,72.00,79.17,80.00,13.00,0.00,29.95,1012.70,6.21,M,FEW,SCT,M,M,2500.00,3500.00,M,M,M,M,M,M,M,M,M,M,ROTM 201756Z 08013KT 9999 FEW025 SCT035 26/22 A2995 RMK SLP127 T02610222 10267 20261 56010
RJTY,2020-10-20 17:56,139.3485,35.7485,55.90,50.50,82.03,330.00,3.00,0.00,30.33,1027.30,10.00,M,FEW,M,M,M,5500.00,M,M,M,M,M,M,M,M,M,M,M,RJTY 201756Z AUTO 33003KT 10SM FEW055 13/10 A3033 RMK AO2 SLP273 T01330103 10136 20121 58003 FZRANO $
RODN,2020-10-20 17:56,127.7676,26.3556,79.20,70.50,74.75,70.00,12.00,0.00,29.94,1014.40,10.00,M,FEW,FEW,SCT,M,2500.00,4500.00,5000.00,M,M,M,M,M,M,M,M,M,RODN 201756Z AUTO 07012KT 10SM FEW025 FEW045 SCT050 26/21 A2994 RMK AO2 SLP144 60000 T02620214 10264 20259 56007 $
RJFR,2020-10-20 18:00,131.0350,33.8456,60.80,55.40,82.37,300.00,4.00,0.00,30.15,M,6.21,M,FEW,M,M,M,3000.00,M,M,M,M,M,M,M,M,M,M,M,RJFR 201800Z 30004KT 9999 FEW030 16/13 Q1021
RJAA,2020-10-20 18:00,140.3856,35.7653,53.60,50.00,87.56,10.00,7.00,0.00,30.27,M,6.21,M,FEW,M,M,M,3000.00,M,M,M,M,M,M,M,M,M,M,M,RJAA 201800Z 01007KT 9999 FEW030 12/10 Q1025 NOSIG
RJAH,2020-10-20 18:00,140.4147,36.1817,46.40,44.60,93.40,10.00,4.00,0.00,30.27,M,6.21,M,FEW,M,M,M,3000.00,M,M,M,M,M,M,M,M,M,M,44.24,RJAH 201800Z 01004KT 9999 FEW030 08/07 Q1025
RJCC,2020-10-20 18:00,141.6926,42.7742,33.80,33.80,100.00,330.00,5.00,0.00,30.33,M,6.21,M,M,M,M,M,M,M,M,M,M,M,M,M,M,M,M,28.53,RJCC 201800Z 33005KT CAVOK 01/01 Q1027
RJFF,2020-10-20 18:00,130.4517,33.5844,53.60,48.20,81.87,160.00,1.00,0.00,30.15,M,6.21,M,NSC,M,M,M,M,M,M,M,M,M,M,M,M,M,M,M,RJFF 201800Z AUTO 16001KT 9999 NSC 12/09 Q1021 NOSIG
RJAW,2020-10-20 18:00,141.3227,24.7840,80.60,75.20,83.66,160.00,14.00,0.00,29.77,M,6.21,M,FEW,BKN,BKN,M,1000.00,1500.00,15000.00,M,M,M,M,M,M,M,M,86.17,RJAW 201800Z 16014KT 9999 FEW010 BKN015 BKN150 27/24 Q1008 RMK 2CU010 5CU015 7AC150 A2978
RJBB,2020-10-20 18:00,135.2328,34.4342,57.20,51.80,82.12,80.00,4.00,0.00,30.21,M,6.21,M,NCD,M,M,M,M,M,M,M,M,M,M,M,M,M,M,M,RJBB 201800Z AUTO 08004KT 9999 NCD 14/11 Q1023 NOSIG
RJNK,2020-10-20 18:00,136.4075,36.3939,48.20,46.40,93.45,150.00,3.00,0.00,30.21,M,6.21,M,FEW,M,M,M,3000.00,M,M,M,M,M,M,M,M,M,M,47.21,RJNK 201800Z 15003KT 120V180 9999 FEW030 09/08 Q1023
RJOH,2020-10-20 18:00,133.2392,35.4933,51.80,51.80,100.00,200.00,3.00,0.00,30.21,M,6.21,M,FEW,M,M,M,M,M,M,M,M,M,M,M,M,M,M,M,RJOH 201800Z 20003KT 190V270 9999 FEW/// 11/11 Q1023
RJGG,2020-10-20 18:00,136.8054,34.8584,55.40,48.20,76.66,360.00,7.00,0.00,30.21,M,6.21,M,FEW,M,M,M,3000.00,M,M,M,M,M,M,M,M,M,M,M,RJGG 201800Z 36007KT 9999 FEW030 13/09 Q1023 NOSIG
RJKI,2020-10-20 18:00,129.9281,28.3213,73.40,71.60,94.10,80.00,8.00,0.00,30.00,M,1.86,M,FEW,SCT,BKN,M,2200.00,2300.00,2700.00,M,-RA BR,M,M,M,M,M,M,M,RJKI 201800Z AUTO 08008KT 3000 -RA BR FEW022 SCT023 BKN027 23/22 Q1016
ROMD,2020-10-20 18:00,131.2286,25.8289,78.80,73.40,83.55,60.00,14.00,0.00,29.91,M,6.21,M,SCT,BKN,BKN,M,1900.00,3000.00,3600.00,M,M,M,M,M,M,M,M,M,ROMD 201800Z AUTO 06014KT 030V090 9999 SCT019 BKN030 BKN036 26/23 Q1013
RORY,2020-10-20 18:00,128.4020,27.0440,78.80,69.80,73.95,80.00,13.00,0.00,29.94,M,6.21,M,FEW,SCT,BKN,M,2300.00,2900.00,5000.00,M,M,M,M,M,M,M,M,M,RORY 201800Z AUTO 08013KT 9999 FEW023 SCT029 BKN050 26/21 Q1014
RJSM,2020-10-20 18:00,141.3684,40.7032,46.40,41.00,81.34,240.00,5.00,0.00,30.33,M,6.21,M,FEW,M,M,M,1500.00,M,M,M,M,M,M,M,M,M,M,43.50,RJSM 201800Z 24005KT 210V300 9999 FEW015 08/05 Q1027
RJTT,2020-10-20 18:00,139.7811,35.5533,60.80,53.60,77.14,360.00,12.00,0.00,30.27,M,6.21,M,FEW,M,M,M,3000.00,M,M,M,M,M,M,M,M,M,M,M,RJTT 201800Z 36012KT 9999 FEW030 16/12 Q1025 NOSIG
RJOS,2020-10-20 18:00,134.6092,34.1322,55.40,51.80,87.65,280.00,7.00,0.00,30.21,M,6.21,M,FEW,M,M,M,3000.00,M,M,M,M,M,M,M,M,M,M,M,RJOS 201800Z 28007KT 9999 FEW030 13/11 Q1023
RORK,2020-10-20 18:00,131.3333,25.9167,78.80,73.40,83.55,60.00,20.00,0.00,29.94,M,6.21,M,BKN,BKN,BKN,M,2100.00,2900.00,3100.00,M,M,M,M,M,M,M,M,M,RORK 201800Z AUTO 06020KT 9999 BKN021 BKN029 BKN031 26/23 Q1014
ROYN,2020-10-20 18:00,122.9780,24.4670,80.60,75.20,83.66,60.00,19.00,0.00,29.85,M,6.21,M,FEW,SCT,BKN,M,1500.00,3700.00,4800.00,M,M,M,M,M,M,M,M,86.17,ROYN 201800Z AUTO 06019KT 9999 FEW015 SCT037 BKN048 27/24 Q1011
ROAH,2020-10-20 18:00,127.6458,26.1958,80.60,71.60,74.11,90.00,11.00,0.00,29.91,M,6.21,M,FEW,BKN,M,M,2000.00,M,M,M,M,M,M,M,M,M,M,84.57,ROAH 201800Z 09011KT 9999 FEW020 BKN/// 27/22 Q1013
RJAA,2020-10-20 18:30,140.3856,35.7653,51.80,50.00,93.55,360.00,6.00,0.00,30.27,M,6.21,M,FEW,M,M,M,3000.00,M,M,M,M,M,M,M,M,M,M,M,RJAA 201830Z 36006KT 9999 FEW030 11/10 Q1025 NOSIG RMK 1CU030 A3028
RJCC,2020-10-20 18:30,141.6926,42.7742,33.80,33.80,100.00,330.00,5.00,0.00,30.33,M,6.21,M,M,M,M,M,M,M,M,M,M,M,M,M,M,M,M,28.53,RJCC 201830Z 33005KT CAVOK 01/01 Q1027 RMK A3034
RJFF,2020-10-20 18:30,130.4517,33.5844,55.40,51.80,87.65,130.00,3.00,0.00,30.15,M,6.21,M,NSC,M,M,M,M,M,M,M,M,M,M,M,M,M,M,M,RJFF 201830Z AUTO 13003KT 9999 NSC 13/11 Q1021 NOSIG RMK A3016
RJBB,2020-10-20 18:30,135.2328,34.4342,55.40,50.00,81.99,70.00,5.00,0.00,30.21,M,6.21,M,NCD,M,M,M,M,M,M,M,M,M,M,M,M,M,M,M,RJBB 201830Z AUTO 07005KT 9999 NCD 13/10 Q1023 NOSIG
RJGG,2020-10-20 18:30,136.8054,34.8584,53.60,46.40,76.50,30.00,8.00,0.00,30.21,M,6.21,M,FEW,M,M,M,3000.00,M,M,M,M,M,M,M,M,M,M,M,RJGG 201830Z 03008KT 9999 FEW030 12/08 Q1023 NOSIG
RJTT,2020-10-20 18:30,139.7811,35.5533,60.80,51.80,72.20,360.00,12.00,0.00,30.27,M,6.21,M,FEW,SCT,M,M,3000.00,4000.00,M,M,M,M,M,M,M,M,M,M,RJTT 201830Z 36012KT 9999 FEW030 SCT040 16/11 Q1025 NOSIG RMK 1CU030 4SC040 A3028
ROAH,2020-10-20 18:30,127.6458,26.1958,80.60,71.60,74.11,80.00,12.00,0.00,29.91,M,6.21,M,FEW,BKN,M,M,2000.00,M,M,M,M,M,M,M,M,M,M,84.57,ROAH 201830Z 08012KT 040V100 9999 FEW020 BKN/// 27/22 Q1013 RMK 2CU020 A2992
ROAH,2020-10-20 18:36,127.6458,26.1958,80.60,71.60,74.11,80.00,15.00,0.00,29.91,M,6.21,25.00,FEW,BKN,M,M,2000.00,M,M,M,M,M,M,M,M,M,M,84.57,ROAH 201836Z 08015G25KT 9999 FEW020 BKN/// 27/22 Q1013 RMK 2CU020 A2992
RJOI,2020-10-20 18:55,132.2357,34.1439,55.90,46.90,71.69,300.00,7.00,0.00,30.22,1023.10,6.21,M,FEW,M,M,M,3000.00,M,M,M,M,M,M,M,M,M,M,M,RJOI 201855Z 30007KT 9999 FEW030 13/08 A3022 RMK SLP231 T01330083
RJTY,2020-10-20 18:56,139.3485,35.7485,56.70,50.20,78.81,340.00,4.00,0.00,30.34,1027.60,10.00,M,OVC,M,M,M,5500.00,M,M,M,M,M,M,M,M,M,M,M,RJTY 201856Z AUTO 34004KT 10SM OVC055 14/10 A3034 RMK AO2 SLP276 T01370101 FZRANO $
RODN,2020-10-20 18:56,127.7676,26.3556,79.00,70.30,74.73,70.00,15.00,0.00,29.93,1014.00,10.00,22.00,CLR,M,M,M,M,M,M,M,M,M,M,M,M,M,M,M,RODN 201856Z AUTO 07015G22KT 10SM CLR 26/21 A2993 RMK AO2 SLP140 T02610213 $
ROTM,2020-10-20 18:56,127.7565,26.2743,79.00,72.00,79.17,60.00,12.00,0.00,29.95,1012.70,6.21,20.00,FEW,SCT,M,M,2500.00,5000.00,M,M,M,M,M,M,M,M,M,M,ROTM 201856Z 06012G20KT 9999 FEW025 SCT050 26/22 A2995 RMK SLP127 T02610222
RJFR,2020-10-20 19:00,131.0350,33.8456,62.60,53.60,72.38,230.00,4.00,0.00,30.15,M,6.21,M,FEW,BKN,M,M,3000.00,M,M,M,M,M,M,M,M,M,M,M,RJFR 201900Z 23004KT 9999 FEW030 BKN/// 17/12 Q1021
RJAA,2020-10-20 19:00,140.3856,35.7653,50.00,48.20,93.50,350.00,6.00,0.00,30.27,M,6.21,M,FEW,M,M,M,3000.00,M,M,M,M,M,M,M,M,M,M,M,RJAA 201900Z 35006KT 9999 FEW030 10/09 Q1025 NOSIG
RJAH,2020-10-20 19:00,140.4147,36.1817,48.20,44.60,87.28,10.00,4.00,0.00,30.27,M,6.21,M,FEW,M,M,M,3000.00,M,M,M,M,M,M,M,M,M,M,46.34,RJAH 201900Z 01004KT 9999 FEW030 09/07 Q1025
RJCC,2020-10-20 19:00,141.6926,42.7742,35.60,35.60,100.00,340.00,3.00,0.00,30.33,M,6.21,M,M,M,M,M,M,M,M,M,M,M,M,M,M,M,M,32.80,RJCC 201900Z 34003KT CAVOK 02/02 Q1027
RJFF,2020-10-20 19:00,130.4517,33.5844,53.60,50.00,87.56,160.00,4.00,0.00,30.15,M,6.21,M,NSC,M,M,M,M,M,M,M,M,M,M,M,M,M,M,M,RJFF 201900Z AUTO 16004KT 9999 NSC 12/10 Q1021 NOSIG
RJBB,2020-10-20 19:00,135.2328,34.4342,57.20,50.00,76.82,80.00,6.00,0.00,30.21,M,6.21,M,NCD,M,M,M,M,M,M,M,M,M,M,M,M,M,M,M,RJBB 201900Z AUTO 08006KT 9999 NCD 14/10 Q1023 NOSIG
RJNK,2020-10-20 19:00,136.4075,36.3939,50.00,46.40,87.37,M,2.00,0.00,30.21,M,6.21,M,FEW,M,M,M,3000.00,M,M,M,M,M,M,M,M,M,M,M,RJNK 201900Z VRB02KT 9999 FEW030 10/08 Q1023
RJOH,2020-10-20 19:00,133.2392,35.4933,51.80,50.00,93.55,180.00,6.00,0.00,30.21,M,6.21,M,NSC,M,M,M,M,M,M,M,M,M,M,M,M,M,M,M,RJOH 201900Z 18006KT 9999 NSC 11/10 Q1023
RJGG,2020-10-20 19:00,136.8054,34.8584,55.40,46.40,71.64,30.00,8.00,0.00,30.24,M,6.21,M,FEW,M,M,M,3000.00,M,M,M,M,M,M,M,M,M,M,M,RJGG 201900Z 03008KT 9999 FEW030 13/08 Q1024 NOSIG
RJKI,2020-10-20 19:00,129.9281,28.3213,73.40,69.80,88.51,80.00,6.00,0.00,30.00,M,6.21,M,FEW,SCT,M,M,2300.00,3500.00,M,M,M,M,M,M,M,M,M,M,RJKI 201900Z AUTO 08006KT 9999 FEW023 SCT035 23/21 Q1016
ROMD,2020-10-20 19:00,131.2286,25.8289,78.80,73.40,83.55,60.00,14.00,0.00,29.91,M,6.21,M,BKN,BKN,M,M,1900.00,4800.00,M,M,M,M,M,M,M,M,M,M,ROMD 201900Z AUTO 06014KT 9999 BKN019 BKN048 26/23 Q1013
RORY,2020-10-20 19:00,128.4020,27.0440,78.80,71.60,78.62,80.00,11.00,0.00,29.94,M,6.21,M,BKN,M,M,M,2200.00,M,M,M,M,M,M,M,M,M,M,M,RORY 201900Z AUTO 08011KT 040V110 9999 BKN022 26/22 Q1014
RJSM,2020-10-20 19:00,141.3684,40.7032,44.60,41.00,87.09,250.00,4.00,0.00,30.33,M,6.21,M,FEW,M,M,M,1500.00,M,M,M,M,M,M,M,M,M,M,42.13,RJSM 201900Z 25004KT 9999 FEW015 07/05 Q1027
RJTT,2020-10-20 19:00,139.7811,35.5533,60.80,51.80,72.20,360.00,13.00,0.00,30.27,M,6.21,M,FEW,M,M,M,3000.00,M,M,M,M,M,M,M,M,M,M,M,RJTT 201900Z 36013KT 9999 FEW030 16/11 Q1025 NOSIG
RJOS,2020-10-20 19:00,134.6092,34.1322,53.60,51.80,93.60,300.00,8.00,0.00,30.21,M,6.21,M,FEW,M,M,M,3000.00,M,M,M,M,M,M,M,M,M,M,M,RJOS 201900Z 30008KT 9999 FEW030 12/11 Q1023
RORK,2020-10-20 19:00,131.3333,25.9167,78.80,73.40,83.55,60.00,20.00,0.00,29.91,M,6.21,M,SCT,SCT,M,M,1900.00,3600.00,M,M,M,M,M,M,M,M,M,M,RORK 201900Z AUTO 06020KT 9999 SCT019 SCT036 26/23 Q1013
ROYN,2020-10-20 19:00,122.9780,24.4670,80.60,75.20,83.66,60.00,17.00,0.00,29.85,M,6.21,M,BKN,BKN,M,M,2100.00,5000.00,M,M,M,M,M,M,M,M,M,86.17,ROYN 201900Z AUTO 06017KT 9999 BKN021 BKN050 27/24 Q1011
ROAH,2020-10-20 19:00,127.6458,26.1958,80.60,71.60,74.11,80.00,13.00,0.00,29.91,M,6.21,M,FEW,BKN,M,M,2000.00,M,M,M,M,M,M,M,M,M,M,84.57,ROAH 201900Z 08013KT 9999 FEW020 BKN/// 27/22 Q1013
RODN,2020-10-20 19:29,127.7676,26.3556,78.80,69.80,73.95,90.00,15.00,0.00,29.94,1014.40,10.00,M,SCT,SCT,SCT,M,2400.00,3000.00,4200.00,M,-RA,M,M,M,M,M,M,M,RODN 201929Z AUTO 09015KT 10SM -RA SCT024 SCT030 SCT042 26/21 A2994 RMK AO2 RAB29 SLP144 $
RJAA,2020-10-20 19:30,140.3856,35.7653,51.80,50.00,93.55,330.00,7.00,0.00,30.27,M,6.21,M,FEW,M,M,M,3000.00,M,M,M,M,M,M,M,M,M,M,M,RJAA 201930Z 33007KT 9999 FEW030 11/10 Q1025 NOSIG
RJCC,2020-10-20 19:30,141.6926,42.7742,33.80,33.80,100.00,330.00,4.00,0.00,30.33,M,6.21,M,M,M,M,M,M,M,M,M,M,M,M,M,M,M,M,29.52,RJCC 201930Z 33004KT CAVOK 01/01 Q1027
RJFF,2020-10-20 19:30,130.4517,33.5844,55.40,48.20,76.66,150.00,6.00,0.00,30.15,M,6.21,M,NSC,M,M,M,M,M,M,M,M,M,M,M,M,M,M,M,RJFF 201930Z AUTO 15006KT 9999 NSC 13/09 Q1021 NOSIG
RJBB,2020-10-20 19:30,135.2328,34.4342,55.40,50.00,81.99,70.00,5.00,0.00,30.21,M,6.21,M,NCD,M,M,M,M,M,M,M,M,M,M,M,M,M,M,M,RJBB 201930Z AUTO 07005KT 9999 NCD 13/10 Q1023 NOSIG
RJGG,2020-10-20 19:30,136.8054,34.8584,55.40,48.20,76.66,50.00,4.00,0.00,30.24,M,6.21,M,FEW,M,M,M,3000.00,M,M,M,M,M,M,M,M,M,M,M,RJGG 201930Z 05004KT 9999 FEW030 13/09 Q1024 NOSIG
RJTT,2020-10-20 19:30,139.7811,35.5533,60.80,51.80,72.20,360.00,13.00,0.00,30.27,M,6.21,M,FEW,M,M,M,3000.00,M,M,M,M,M,M,M,M,M,M,M,RJTT 201930Z 36013KT 9999 FEW030 16/11 Q1025 NOSIG
ROAH,2020-10-20 19:30,127.6458,26.1958,80.60,71.60,74.11,80.00,12.00,0.00,29.91,M,6.21,M,FEW,SCT,BKN,M,2000.00,4000.00,M,M,VCSH,M,M,M,M,M,M,84.57,ROAH 201930Z 08012KT 9999 VCSH FEW020 SCT040 BKN/// 27/22 Q1013
RODN,2020-10-20 19:40,127.7676,26.3556,78.80,71.60,78.62,80.00,15.00,0.00,29.94,1014.40,10.00,21.00,FEW,SCT,BKN,M,2400.00,3300.00,4400.00,M,M,M,M,M,M,M,M,M,RODN 201940Z AUTO 08015G21KT 10SM FEW024 SCT033 BKN044 26/22 A2994 RMK AO2 RAB29E40 SLP144 $
RJOI,2020-10-20 19:55,132.2357,34.1439,55.90,48.00,74.72,300.00,7.00,0.00,30.22,1023.10,6.21,M,FEW,FEW,SCT,M,3000.00,9000.00,25000.00,M,M,M,M,M,M,M,M,M,RJOI 201955Z 30007KT 9999 FEW030 FEW090 SCT250 13/09 A3022 RMK SLP231 T01330089
RJTY,2020-10-20 19:56,139.3485,35.7485,55.90,50.50,82.03,10.00,5.00,0.00,30.34,1027.70,10.00,M,BKN,BKN,OVC,M,3300.00,5000.00,6000.00,M,M,M,M,M,M,M,M,M,RJTY 201956Z AUTO 01005KT 10SM BKN033 BKN050 OVC060 13/10 A3034 RMK AO2 SLP277 T01330103 FZRANO $
ROTM,2020-10-20 19:56,127.7565,26.2743,79.00,71.10,76.79,80.00,15.00,0.00,29.95,1012.70,6.21,23.00,FEW,SCT,M,M,2500.00,5000.00,M,M,M,M,M,M,M,M,M,M,ROTM 201956Z 08015G23KT 9999 FEW025 SCT050 26/22 A2995 RMK SLP127 T02610217
RODN,2020-10-20 19:56,127.7676,26.3556,78.40,70.90,77.79,80.00,13.00,T,29.93,1014.00,10.00,M,FEW,SCT,BKN,OVC,2400.00,3200.00,4400.00,5500.00,M,M,M,M,M,M,M,M,RODN 201956Z AUTO 08013KT 10SM FEW024 SCT032 BKN044 OVC055 26/22 A2993 RMK AO2 RAB29E40 SLP140 P0000 T02580216 $
RJFR,2020-10-20 20:00,131.0350,33.8456,62.60,55.40,77.29,230.00,4.00,0.00,30.15,M,6.21,M,FEW,SCT,M,M,3000.00,M,M,M,M,M,M,M,M,M,M,M,RJFR 202000Z 23004KT 9999 FEW030 SCT/// 17/13 Q1021
RJAA,2020-10-20 20:00,140.3856,35.7653,51.80,50.00,93.55,360.00,7.00,0.00,30.27,M,6.21,M,FEW,M,M,M,3000.00,M,M,M,M,M,M,M,M,M,M,M,RJAA 202000Z 36007KT 9999 FEW030 11/10 Q1025 NOSIG
RJAH,2020-10-20 20:00,140.4147,36.1817,46.40,44.60,93.40,10.00,5.00,0.00,30.27,M,6.21,M,FEW,M,M,M,2000.00,M,M,M,M,M,M,M,M,M,M,43.50,RJAH 202000Z 01005KT 9999 FEW020 08/07 Q1025
RJCC,2020-10-20 20:00,141.6926,42.7742,35.60,33.80,93.08,M,2.00,0.00,30.36,M,6.21,M,M,M,M,M,M,M,M,M,M,M,M,M,M,M,M,M,RJCC 202000Z VRB02KT CAVOK 02/01 Q1028
RJFF,2020-10-20 20:00,130.4517,33.5844,55.40,48.20,76.66,130.00,3.00,0.00,30.15,M,6.21,M,NSC,M,M,M,M,M,M,M,M,M,M,M,M,M,M,M,RJFF 202000Z AUTO 13003KT 9999 NSC 13/09 Q1021 NOSIG
RJAW,2020-10-20 20:00,141.3227,24.7840,78.80,75.20,88.75,170.00,16.00,0.00,29.74,M,4.97,26.00,FEW,BKN,BKN,M,1000.00,1500.00,15000.00,M,-SHRA,M,M,M,M,M,M,M,RJAW 202000Z 17016G26KT 8000 -SHRA FEW010 BKN015 BKN150 26/24 Q1007 RMK 2CU010 6CU015 7AC150 A2976
RJBB,2020-10-20 20:00,135.2328,34.4342,57.20,50.00,76.82,100.00,5.00,0.00,30.21,M,6.21,M,NCD,M,M,M,M,M,M,M,M,M,M,M,M,M,M,M,RJBB 202000Z AUTO 10005KT 9999 NCD 14/10 Q1023 NOSIG
RJNK,2020-10-20 20:00,136.4075,36.3939,48.20,46.40,93.45,M,2.00,0.00,30.21,M,6.21,M,FEW,M,M,M,3000.00,M,M,M,M,M,M,M,M,M,M,M,RJNK 202000Z VRB02KT 9999 FEW030 09/08 Q1023
RJOH,2020-10-20 20:00,133.2392,35.4933,51.80,48.20,87.47,M,2.00,0.00,30.21,M,6.21,M,FEW,M,M,M,M,M,M,M,M,M,M,M,M,M,M,M,RJOH 202000Z VRB02KT 9999 FEW/// 11/09 Q1023
RJGG,2020-10-20 20:00,136.8054,34.8584,55.40,48.20,76.66,20.00,5.00,0.00,30.24,M,6.21,M,FEW,M,M,M,3000.00,M,M,M,M,M,M,M,M,M,M,M,RJGG 202000Z 02005KT 9999 FEW030 13/09 Q1024 NOSIG
RJKI,2020-10-20 20:00,129.9281,28.3213,75.20,71.60,88.59,70.00,11.00,0.00,30.00,M,6.21,M,FEW,SCT,BKN,M,2600.00,4600.00,5000.00,M,M,M,M,M,M,M,M,M,RJKI 202000Z AUTO 07011KT 9999 FEW026 SCT046 BKN050 24/22 Q1016
ROMD,2020-10-20 20:00,131.2286,25.8289,78.80,73.40,83.55,50.00,14.00,0.00,29.91,M,6.21,M,SCT,BKN,BKN,M,1900.00,2500.00,4600.00,M,M,M,M,M,M,M,M,M,ROMD 202000Z AUTO 05014KT 9999 SCT019 BKN025 BKN046 26/23 Q1013
RORY,2020-10-20 20:00,128.4020,27.0440,77.00,71.60,83.44,80.00,13.00,0.00,29.94,M,6.21,M,FEW,SCT,BKN,M,1400.00,4500.00,5000.00,M,M,M,M,M,M,M,M,M,RORY 202000Z AUTO 08013KT 9999 FEW014 SCT045 BKN050 25/22 Q1014
RJOO,2020-10-20 20:00,135.4392,34.7844,51.80,50.00,93.55,M,2.00,0.00,30.21,M,6.21,M,FEW,M,M,M,2500.00,M,M,M,M,M,M,M,M,M,M,M,RJOO 202000Z VRB02KT 9999 FEW025 11/10 Q1023
RJSM,2020-10-20 20:00,141.3684,40.7032,44.60,39.20,81.20,270.00,4.00,0.00,30.33,M,6.21,M,FEW,M,M,M,1000.00,M,M,M,M,M,M,M,M,M,M,42.13,RJSM 202000Z 27004KT 9999 FEW010 07/04 Q1027
RJTT,2020-10-20 20:00,139.7811,35.5533,59.00,51.80,76.98,360.00,13.00,0.00,30.27,M,6.21,M,FEW,M,M,M,3000.00,M,M,M,M,M,M,M,M,M,M,M,RJTT 202000Z 36013KT 9999 FEW030 15/11 Q1025 NOSIG
RJOS,2020-10-20 20:00,134.6092,34.1322,53.60,51.80,93.60,290.00,8.00,0.00,30.21,M,6.21,M,FEW,M,M,M,3000.00,M,M,M,M,M,M,M,M,M,M,M,RJOS 202000Z 29008KT 9999 FEW030 12/11 Q1023
RORK,2020-10-20 20:00,131.3333,25.9167,78.80,71.60,78.62,60.00,22.00,0.00,29.91,M,6.21,M,FEW,SCT,M,M,1900.00,4000.00,M,M,M,M,M,M,M,M,M,M,RORK 202000Z AUTO 06022KT 9999 FEW019 SCT040 26/22 Q1013
ROYN,2020-10-20 20:00,122.9780,24.4670,80.60,75.20,83.66,60.00,19.00,0.00,29.83,M,6.21,M,SCT,BKN,OVC,M,2000.00,4800.00,5000.00,M,M,M,M,M,M,M,M,86.17,ROYN 202000Z AUTO 06019KT 9999 SCT020 BKN048 OVC050 27/24 Q1010
ROAH,2020-10-20 20:00,127.6458,26.1958,80.60,71.60,74.11,80.00,14.00,0.00,29.91,M,6.21,M,FEW,BKN,M,M,2000.00,M,M,M,VCSH,M,M,M,M,M,M,84.57,ROAH 202000Z 08014KT 9999 VCSH FEW020 BKN/// 27/22 Q1013
RJAA,2020-10-20 20:30,140.3856,35.7653,51.80,50.00,93.55,350.00,6.00,0.00,30.27,M,6.21,M,FEW,M,M,M,3000.00,M,M,M,M,M,M,M,M,M,M,M,RJAA 202030Z 35006KT 9999 FEW030 11/10 Q1025 NOSIG RMK 1CU030 A3029
RJCC,2020-10-20 20:30,141.6926,42.7742,33.80,33.80,100.00,330.00,2.00,0.00,30.36,M,6.21,M,NSC,M,M,M,M,M,M,M,PRFG,M,M,M,M,M,M,M,RJCC 202030Z 33002KT 9999 PRFG NSC 01/01 Q1028 RMK A3036 FG NE-SE
RJFF,2020-10-20 20:30,130.4517,33.5844,57.20,48.20,71.83,130.00,4.00,0.00,30.12,M,6.21,M,NSC,M,M,M,M,M,M,M,M,M,M,M,M,M,M,M,RJFF 202030Z AUTO 13004KT 9999 NSC 14/09 Q1020 NOSIG RMK A3014
RJBB,2020-10-20 20:30,135.2328,34.4342,55.40,50.00,81.99,70.00,6.00,0.00,30.21,M,6.21,M,NCD,M,M,M,M,M,M,M,M,M,M,M,M,M,M,M,RJBB 202030Z AUTO 07006KT 9999 NCD 13/10 Q1023 NOSIG
RJGG,2020-10-20 20:30,136.8054,34.8584,55.40,48.20,76.66,30.00,6.00,0.00,30.24,M,6.21,M,FEW,M,M,M,3000.00,M,M,M,M,M,M,M,M,M,M,M,RJGG 202030Z 03006KT 9999 FEW030 13/09 Q1024 NOSIG
RJTT,2020-10-20 20:30,139.7811,35.5533,59.00,51.80,76.98,360.00,13.00,0.00,30.27,M,6.21,M,FEW,M,M,M,3000.00,M,M,M,M,M,M,M,M,M,M,M,RJTT 202030Z 36013KT 9999 FEW030 15/11 Q1025 NOSIG RMK 1CU030 A3029
ROAH,2020-10-20 20:30,127.6458,26.1958,80.60,71.60,74.11,80.00,12.00,0.00,29.91,M,6.21,M,FEW,BKN,M,M,2000.00,M,M,M,M,M,M,M,M,M,M,84.57,ROAH 202030Z 08012KT 9999 FEW020 BKN/// 27/22 Q1013 RMK 1CU020 A2992
RJSS,2020-10-20 20:30,140.9169,38.1397,44.60,41.00,87.09,300.00,4.00,0.00,30.36,M,6.21,M,FEW,M,M,M,3000.00,M,M,M,M,M,M,M,M,M,M,42.13,RJSS 202030Z 30004KT 9999 FEW030 07/05 Q1028 RMK 1CU030 A3036
ROAH,2020-10-20 20:45,127.6458,26.1958,80.60,69.80,69.71,80.00,15.00,0.00,29.91,M,6.21,27.00,FEW,BKN,M,M,2000.00,M,M,M,M,M,M,M,M,M,M,83.90,ROAH 202045Z 08015G27KT 9999 FEW020 BKN/// 27/21 Q1013 RMK 1CU020 A2992
RJOI,2020-10-20 20:55,132.2357,34.1439,55.00,48.00,77.21,300.00,6.00,0.00,30.22,1023.10,6.21,M,FEW,FEW,M,M,3000.00,18000.00,M,M,M,M,M,M,M,M,M,M,RJOI 202055Z 30006KT 9999 FEW030 FEW180 13/09 A3022 RMK SLP231 T01280089 54000
RJTY,2020-10-20 20:56,139.3485,35.7485,54.00,50.50,87.90,360.00,5.00,0.00,30.36,1028.50,10.00,M,FEW,OVC,M,M,3400.00,5500.00,M,M,M,M,M,M,M,M,M,M,RJTY 202056Z AUTO 36005KT 10SM FEW034 OVC055 12/10 A3036 RMK AO2 SLP285 T01220103 53007 FZRANO $
RODN,2020-10-20 20:56,127.7676,26.3556,79.00,70.00,73.97,80.00,13.00,0.00,29.93,1014.10,10.00,M,FEW,FEW,M,M,2500.00,3100.00,M,M,M,M,M,M,M,M,M,M,RODN 202056Z AUTO 08013KT 10SM FEW025 FEW031 26/21 A2993 RMK AO2 SLP141 60000 T02610211 57002 $
ROTM,2020-10-20 20:56,127.7565,26.2743,79.00,70.00,73.97,80.00,15.00,0.00,29.95,1012.60,6.21,24.00,FEW,BKN,M,M,2500.00,12000.00,M,M,M,M,M,M,M,M,M,M,ROTM 202056Z 08015G24KT 9999 FEW025 BKN120 26/21 A2995 RMK SLP126 T02610211 50000
RJFR,2020-10-20 21:00,131.0350,33.8456,60.80,53.60,77.14,190.00,3.00,0.00,30.15,M,6.21,M,FEW,BKN,M,M,3000.00,M,M,M,M,M,M,M,M,M,M,M,RJFR 202100Z 19003KT 9999 FEW030 BKN/// 16/12 Q1021
RJAA,2020-10-20 21:00,140.3856,35.7653,51.80,50.00,93.55,350.00,7.00,0.00,30.27,M,6.21,M,FEW,M,M,M,3000.00,M,M,M,M,M,M,M,M,M,M,M,RJAA 202100Z 35007KT 9999 FEW030 11/10 Q1025 NOSIG
RJAH,2020-10-20 21:00,140.4147,36.1817,46.40,44.60,93.40,10.00,5.00,0.00,30.27,M,6.21,M,FEW,M,M,M,3000.00,M,M,M,M,M,M,M,M,M,M,43.50,RJAH 202100Z 01005KT 9999 FEW030 08/07 Q1025
RJCC,2020-10-20 21:00,141.6926,42.7742,33.80,33.80,100.00,340.00,3.00,0.00,30.36,M,6.21,M,NSC,M,M,M,M,M,M,M,PRFG,M,M,M,M,M,M,30.75,RJCC 202100Z 34003KT 9999 PRFG NSC 01/01 Q1028
RJCO,2020-10-20 21:00,141.3814,43.1175,33.80,33.80,100.00,110.00,5.00,0.00,30.39,M,6.21,M,FEW,M,M,M,500.00,M,M,M,M,M,M,M,M,M,M,28.53,RJCO 202100Z 11005KT 9999 FEW005 01/01 Q1029
RJFF,2020-10-20 21:00,130.4517,33.5844,57.20,48.20,71.83,M,2.00,0.00,30.12,M,6.21,M,FEW,BKN,M,M,3500.00,M,M,M,M,M,M,M,M,M,M,M,RJFF 202100Z VRB02KT 9999 FEW035 BKN/// 14/09 Q1020 NOSIG
RJFK,2020-10-20 21:00,130.7194,31.8033,62.60,55.40,77.29,80.00,9.00,0.00,30.12,M,6.21,M,FEW,BKN,M,M,2000.00,M,M,M,M,M,M,M,M,M,M,M,RJFK 202100Z 08009KT 9999 FEW020 BKN/// 17/13 Q1020
RJBB,2020-10-20 21:00,135.2328,34.4342,55.40,50.00,81.99,80.00,8.00,0.00,30.21,M,6.21,M,FEW,M,M,M,3000.00,M,M,M,M,M,M,M,M,M,M,M,RJBB 202100Z 08008KT 9999 FEW030 13/10 Q1023 NOSIG
RJNK,2020-10-20 21:00,136.4075,36.3939,46.40,44.60,93.40,180.00,3.00,0.00,30.24,M,6.21,M,FEW,M,M,M,3000.00,M,M,M,M,M,M,M,M,M,M,45.15,RJNK 202100Z 18003KT 9999 FEW030 08/07 Q1024
RJOH,2020-10-20 21:00,133.2392,35.4933,50.00,48.20,93.50,210.00,3.00,0.00,30.21,M,6.21,M,FEW,M,M,M,300.00,M,M,M,M,M,M,M,M,M,M,M,RJOH 202100Z 21003KT 190V290 9999 FEW003 10/09 Q1023
RJGG,2020-10-20 21:00,136.8054,34.8584,53.60,48.20,81.87,30.00,5.00,0.00,30.24,M,6.21,M,FEW,M,M,M,3000.00,M,M,M,M,M,M,M,M,M,M,M,RJGG 202100Z 03005KT 9999 FEW030 12/09 Q1024 NOSIG
RJKI,2020-10-20 21:00,129.9281,28.3213,75.20,69.80,83.32,90.00,9.00,0.00,30.00,M,6.21,M,FEW,BKN,M,M,2600.00,6000.00,M,M,M,M,M,M,M,M,M,M,RJKI 202100Z AUTO 09009KT 9999 FEW026 BKN060 24/21 Q1016
ROIG,2020-10-20 21:00,124.1633,24.3367,77.00,77.00,100.00,60.00,19.00,0.00,29.83,M,6.21,M,SCT,BKN,M,M,800.00,1600.00,M,M,VCSH,M,M,M,M,M,M,M,ROIG 202100Z 06019KT 9999 VCSH SCT008 BKN016 25/25 Q1010
ROMD,2020-10-20 21:00,131.2286,25.8289,78.80,71.60,78.62,60.00,14.00,0.00,29.94,M,6.21,M,FEW,SCT,BKN,M,2000.00,3400.00,4500.00,M,M,M,M,M,M,M,M,M,ROMD 202100Z AUTO 06014KT 9999 FEW020 SCT034 BKN045 26/22 Q1014
RORY,2020-10-20 21:00,128.4020,27.0440,77.00,71.60,83.44,90.00,11.00,0.00,29.94,M,6.21,M,BKN,M,M,M,2300.00,M,M,M,M,M,M,M,M,M,M,M,RORY 202100Z AUTO 09011KT 9999 BKN023 25/22 Q1014
RJOO,2020-10-20 21:00,135.4392,34.7844,53.60,51.80,93.60,50.00,3.00,0.00,30.24,M,6.21,M,FEW,M,M,M,2500.00,M,M,M,M,M,M,M,M,M,M,M,RJOO 202100Z 05003KT 9999 FEW025 12/11 Q1024
RJSM,2020-10-20 21:00,141.3684,40.7032,42.80,39.20,86.99,250.00,3.00,0.00,30.36,M,6.21,M,FEW,M,M,M,500.00,M,M,M,M,M,M,M,M,M,M,41.03,RJSM 202100Z 25003KT 9999 FEW005 06/04 Q1028
RJSS,2020-10-20 21:00,140.9169,38.1397,44.60,41.00,87.09,300.00,3.00,0.00,30.33,M,6.21,M,FEW,M,M,M,3000.00,M,M,M,M,M,M,M,M,M,M,43.09,RJSS 202100Z 30003KT 9999 FEW030 07/05 Q1027
RJTT,2020-10-20 21:00,139.7811,35.5533,59.00,51.80,76.98,360.00,14.00,0.00,30.30,M,6.21,M,FEW,M,M,M,3000.00,M,M,M,M,M,M,M,M,M,M,M,RJTT 202100Z 36014KT 9999 FEW030 15/11 Q1026 NOSIG
RJOS,2020-10-20 21:00,134.6092,34.1322,53.60,50.00,87.56,290.00,10.00,0.00,30.21,M,6.21,M,FEW,M,M,M,3000.00,M,M,M,M,M,M,M,M,M,M,M,RJOS 202100Z 29010KT 9999 FEW030 12/10 Q1023
RORK,2020-10-20 21:00,131.3333,25.9167,78.80,73.40,83.55,70.00,19.00,0.00,29.94,M,6.21,M,FEW,SCT,M,M,2100.00,4800.00,M,M,M,M,M,M,M,M,M,M,RORK 202100Z AUTO 07019KT 9999 FEW021 SCT048 26/23 Q1014
ROYN,2020-10-20 21:00,122.9780,24.4670,80.60,75.20,83.66,60.00,19.00,0.00,29.83,M,6.21,M,SCT,BKN,M,M,1800.00,2400.00,M,M,M,M,M,M,M,M,M,86.17,ROYN 202100Z AUTO 06019KT 9999 SCT018 BKN024 27/24 Q1010
RJAW,2020-10-20 21:00,141.3227,24.7840,80.60,75.20,83.66,160.00,13.00,0.00,29.77,M,6.21,24.00,FEW,BKN,BKN,M,1000.00,1500.00,15000.00,M,-SHRA,M,M,M,M,M,M,86.17,RJAW 202100Z 16013G24KT 9999 -SHRA FEW010 BKN015 BKN150 27/24 Q1008 RMK 2CU010 6CU015 7AC150 A2978
ROAH,2020-10-20 21:00,127.6458,26.1958,80.60,69.80,69.71,80.00,14.00,0.00,29.91,M,6.21,M,FEW,BKN,M,M,2000.00,M,M,M,M,M,M,M,M,M,M,83.90,ROAH 202100Z 08014KT 9999 FEW020 BKN/// 27/21 Q1013 RMK 1CU020 A2992
ROAH,2020-10-20 21:06,127.6458,26.1958,80.60,69.80,69.71,80.00,15.00,0.00,29.91,M,6.21,26.00,FEW,BKN,M,M,2000.00,M,M,M,M,M,M,M,M,M,M,83.90,ROAH 202106Z 08015G26KT 9999 FEW020 BKN/// 27/21 Q1013 RMK 1CU020 A2992
RJCH,2020-10-20 21:10,140.8219,41.7700,44.60,41.00,87.09,20.00,4.00,0.00,30.33,M,6.21,M,FEW,M,M,M,3000.00,M,M,M,M,M,M,M,M,M,M,42.13,RJCH 202110Z 02004KT 350V050 9999 FEW030 07/05 Q1027 RMK 1CU030 A3034
RJFM,2020-10-20 21:10,131.4486,31.8772,59.00,53.60,82.25,280.00,5.00,0.00,30.12,M,6.21,M,FEW,SCT,M,M,3000.00,4500.00,M,M,M,M,M,M,M,M,M,M,RJFM 202110Z 28005KT 9999 FEW030 SCT045 15/12 Q1020 RMK 1CU030 3SC045 A3015
RJNT,2020-10-20 21:10,137.1875,36.6483,55.40,44.60,66.91,M,2.00,0.00,30.24,M,6.21,M,FEW,M,M,M,1000.00,M,M,M,M,M,M,M,M,M,M,M,RJNT 202110Z VRB02KT 9999 FEW010 13/07 Q1024 RMK 1CU010 A3024
RJOA,2020-10-20 21:10,132.9194,34.4361,55.40,50.00,81.99,60.00,6.00,0.00,30.21,M,6.21,M,FEW,SCT,M,M,1500.00,M,M,M,M,M,M,M,M,M,M,M,RJOA 202110Z 06006KT 9999 FEW015 SCT/// 13/10 Q1023 RMK 1CU015 A3023
RJOC,2020-10-20 21:10,132.8900,35.4136,51.80,48.20,87.47,170.00,8.00,0.00,30.21,M,6.21,M,FEW,BKN,M,M,500.00,M,M,M,M,M,M,M,M,M,M,M,RJOC 202110Z 17008KT 9999 FEW005 BKN/// 11/09 Q1023 RMK 1ST005 A3021
RJOK,2020-10-20 21:10,133.6694,33.5461,55.40,48.20,76.66,350.00,10.00,0.00,30.18,M,6.21,M,FEW,BKN,M,M,2000.00,M,M,M,M,M,M,M,M,M,M,M,RJOK 202110Z 35010KT 9999 FEW020 BKN/// 13/09 Q1022 RMK 1ST020 A3020
RJFU,2020-10-20 21:10,129.9136,32.9169,59.00,50.00,72.01,170.00,4.00,0.00,30.12,M,6.21,M,M,M,M,M,M,M,M,M,M,M,M,M,M,M,M,M,RJFU 202110Z 17004KT CAVOK 15/10 Q1020 RMK A3013
RJOM,2020-10-20 21:10,132.6997,33.8272,59.00,50.00,72.01,110.00,5.00,0.00,30.18,M,6.21,M,FEW,SCT,M,M,2000.00,M,M,M,M,M,M,M,M,M,M,M,RJOM 202110Z 11005KT 060V140 9999 FEW020 SCT/// 15/10 Q1022 RMK 1CU020 A3020
RJFS,2020-10-20 21:10,130.3000,33.1500,50.00,48.20,93.50,340.00,4.00,0.00,30.12,M,6.21,M,M,M,M,M,M,M,M,M,M,M,M,M,M,M,M,M,RJFS 202110Z 34004KT CAVOK 10/09 Q1020 RMK A3015
RJFT,2020-10-20 21:10,130.8553,32.8372,53.60,50.00,87.56,60.00,3.00,0.00,30.12,M,6.21,M,FEW,BKN,M,M,3500.00,M,M,M,M,M,M,M,M,M,M,M,RJFT 202110Z 06003KT 030V110 9999 FEW035 BKN/// 12/10 Q1020 RMK 1CU035 A3015
RJOR,2020-10-20 21:10,134.1650,35.5300,51.80,48.20,87.47,130.00,7.00,0.00,30.21,M,6.21,M,FEW,SCT,M,M,5000.00,M,M,M,M,M,M,M,M,M,M,M,RJOR 202110Z 13007KT 9999 FEW050 SCT/// 11/09 Q1023 RMK 1SC050 A3022
RJSN,2020-10-20 21:10,139.1117,37.9558,46.40,42.80,87.19,M,2.00,0.00,30.30,M,6.21,M,FEW,M,M,M,3000.00,M,M,M,M,M,M,M,M,M,M,M,RJSN 202110Z VRB02KT 9999 FEW030 08/06 Q1026 RMK 1CU030 A3031
RJOB,2020-10-20 21:15,133.8553,34.7569,51.80,48.20,87.47,M,1.00,0.00,30.21,M,6.21,M,FEW,SCT,M,M,0.00,M,M,M,PRFG,M,M,M,M,M,M,M,RJOB 202115Z VRB01KT 9999 PRFG FEW000 SCT/// 11/09 Q1023 RMK 1ST000 A3023 FG NE-E
RJOT,2020-10-20 21:20,134.0167,34.2167,50.00,48.20,93.50,140.00,8.00,0.00,30.21,M,6.21,M,FEW,SCT,M,M,2000.00,M,M,M,M,M,M,M,M,M,M,M,RJOT 202120Z 14008KT 9999 FEW020 SCT/// 10/09 Q1023 RMK 1CU020 A3023
RJAA,2020-10-20 21:30,140.3856,35.7653,53.60,50.00,87.56,340.00,8.00,0.00,30.30,M,6.21,M,FEW,M,M,M,3000.00,M,M,M,M,M,M,M,M,M,M,M,RJAA 202130Z 34008KT 9999 FEW030 12/10 Q1026 NOSIG RMK 1CU030 A3030
RJCC,2020-10-20 21:30,141.6926,42.7742,33.80,33.80,100.00,360.00,3.00,0.00,30.36,M,6.21,M,FEW,M,M,M,100.00,M,M,M,PRFG,M,M,M,M,M,M,30.75,RJCC 202130Z 36003KT 9999 PRFG FEW001 01/01 Q1028 RMK 1ST001 A3036 FG NE-SE
RJFF,2020-10-20 21:30,130.4517,33.5844,57.20,48.20,71.83,150.00,6.00,0.00,30.12,M,6.21,M,FEW,BKN,M,M,3500.00,M,M,M,M,M,M,M,M,M,M,M,RJFF 202130Z 15006KT 9999 FEW035 BKN/// 14/09 Q1020 NOSIG RMK 1CU035 A3014
RJBB,2020-10-20 21:30,135.2328,34.4342,57.20,50.00,76.82,70.00,8.00,0.00,30.21,M,6.21,M,FEW,M,M,M,3000.00,M,M,M,M,M,M,M,M,M,M,M,RJBB 202130Z 07008KT 9999 FEW030 14/10 Q1023 NOSIG
RJOC,2020-10-20 21:30,132.8900,35.4136,51.80,48.20,87.47,160.00,11.00,0.00,30.21,M,6.21,M,FEW,BKN,M,M,300.00,M,M,M,M,M,M,M,M,M,M,M,RJOC 202130Z 16011KT 9999 FEW003 BKN/// 11/09 Q1023
RJKA,2020-10-20 21:30,129.7125,28.4308,77.00,71.60,83.44,90.00,15.00,0.00,30.00,M,6.21,M,FEW,SCT,BKN,M,1500.00,2500.00,M,M,M,M,M,M,M,M,M,M,RJKA 202130Z 09015KT 9999 FEW015 SCT025 BKN/// 25/22 Q1016
RJGG,2020-10-20 21:30,136.8054,34.8584,55.40,48.20,76.66,30.00,2.00,0.00,30.24,M,6.21,M,FEW,M,M,M,3000.00,M,M,M,M,M,M,M,M,M,M,M,RJGG 202130Z 03002KT 9999 FEW030 13/09 Q1024 NOSIG
ROMY,2020-10-20 21:30,125.2767,24.7933,80.60,75.20,83.66,60.00,15.00,0.00,29.85,M,6.21,M,SCT,BKN,M,M,1800.00,2900.00,M,M,VCSH,M,M,M,M,M,M,86.17,ROMY 202130Z 06015KT 9999 VCSH SCT018 BKN029 27/24 Q1011
RJDC,2020-10-20 21:30,131.2786,33.9300,60.80,55.40,82.37,70.00,9.00,0.00,30.15,M,6.21,M,FEW,BKN,M,M,2000.00,M,M,M,M,M,M,M,M,M,M,M,RJDC 202130Z 07009KT 9999 FEW020 BKN/// 16/13 Q1021
RJOR,2020-10-20 21:30,134.1650,35.5300,51.80,48.20,87.47,130.00,8.00,0.00,30.21,M,6.21,M,FEW,SCT,M,M,5000.00,M,M,M,M,M,M,M,M,M,M,M,RJOR 202130Z 13008KT 9999 FEW050 SCT/// 11/09 Q1023
RJTT,2020-10-20 21:30,139.7811,35.5533,59.00,50.00,72.01,340.00,13.00,0.00,30.30,M,6.21,M,FEW,M,M,M,3000.00,M,M,M,M,M,M,M,M,M,M,M,RJTT 202130Z 34013KT 9999 FEW030 15/10 Q1026 NOSIG RMK 1CU030 A3031
ROAH,2020-10-20 21:30,127.6458,26.1958,80.60,69.80,69.71,80.00,16.00,0.00,29.91,M,6.21,M,FEW,OVC,M,M,2000.00,M,M,M,M,M,M,M,M,M,M,83.90,ROAH 202130Z 08016KT 9999 FEW020 OVC/// 27/21 Q1013 RMK 1CU020 A2992
ROIG,2020-10-20 21:39,124.1633,24.3367,77.00,77.00,100.00,70.00,19.00,0.00,29.83,M,2.49,M,SCT,BKN,M,M,500.00,1000.00,M,M,+SHRA,M,M,M,M,M,M,M,ROIG 202139Z 07019KT 4000 R04/1400VP2000D +SHRA SCT005 BKN010 25/25 Q1010 RMK 4ST005 7CU010 A2984
RJEC,2020-10-20 21:40,142.4475,43.6708,30.20,21.20,68.83,160.00,6.00,0.00,30.36,M,6.21,M,FEW,M,M,M,100.00,M,M,M,VCFG,M,M,M,M,M,M,23.36,RJEC 202140Z 16006KT 9999 VCFG FEW001 M01/M06 Q1028 RMK 1ST001 A3036 FG NW
RJSK,2020-10-20 21:40,140.2167,39.6167,41.00,41.00,100.00,120.00,4.00,0.00,30.33,M,6.21,M,FEW,M,M,M,0.00,M,M,M,PRFG,M,M,M,M,M,M,37.93,RJSK 202140Z 12004KT 9999 PRFG FEW000 05/05 Q1027 RMK 1ST000 A3034 3000SE
RJSA,2020-10-20 21:40,140.6886,40.7333,33.80,32.00,93.03,210.00,2.00,0.00,30.33,M,6.21,M,FEW,M,M,M,3000.00,M,M,M,M,M,M,M,M,M,M,M,RJSA 202140Z 21002KT 9999 FEW030 01/00 Q1027 RMK 1CU030 A3034
RJSF,2020-10-20 21:40,140.4281,37.2275,39.20,39.20,100.00,M,1.00,0.00,30.33,M,0.06,M,FEW,SCT,BKN,M,100.00,200.00,600.00,M,FG,M,M,M,M,M,M,M,RJSF 202140Z VRB01KT 0100 R01/0150N FG FEW001 SCT002 BKN006 04/04 Q1027 RMK 1ST001 3ST002 5ST006 A3035 5000NE-E
RJCK,2020-10-20 21:45,144.1931,43.0408,42.80,39.20,86.99,330.00,6.00,0.00,30.36,M,6.21,M,FEW,M,M,M,2000.00,M,M,M,M,M,M,M,M,M,M,38.54,RJCK 202145Z 33006KT 9999 FEW020 06/04 Q1028 RMK 1CU020 A3037
RJOI,2020-10-20 21:55,132.2357,34.1439,55.90,48.00,74.72,300.00,7.00,0.00,30.22,1023.40,6.21,M,FEW,BKN,BKN,M,1500.00,5000.00,23000.00,M,M,M,M,M,M,M,M,M,RJOI 202155Z 30007KT 9999 FEW015 BKN050 BKN230 13/09 A3022 RMK SLP234 T01330089
RJTY,2020-10-20 21:56,139.3485,35.7485,55.20,50.70,84.77,20.00,4.00,0.00,30.37,1028.80,10.00,M,OVC,M,M,M,6000.00,M,M,M,M,M,M,M,M,M,M,M,RJTY 202156Z AUTO 02004KT 10SM OVC060 13/10 A3037 RMK AO2 SLP288 T01290104 FZRANO $
RODN,2020-10-20 21:56,127.7676,26.3556,79.00,69.10,71.72,80.00,11.00,0.00,29.93,1014.10,10.00,21.00,CLR,M,M,M,M,M,M,M,M,M,M,M,M,M,M,M,RODN 202156Z AUTO 08011G21KT 10SM CLR 26/21 A2993 RMK AO2 SLP141 T02610206 $
ROTM,2020-10-20 21:56,127.7565,26.2743,79.00,71.10,76.79,70.00,17.00,0.00,29.95,1012.60,6.21,24.00,FEW,BKN,M,M,2500.00,12000.00,M,M,M,M,M,M,M,M,M,M,ROTM 202156Z 07017G24KT 9999 FEW025 BKN120 26/22 A2995 RMK SLP126 T02610217
RJFR,2020-10-20 22:00,131.0350,33.8456,62.60,57.20,82.50,180.00,6.00,0.00,30.15,M,6.21,M,FEW,SCT,BKN,M,3000.00,18000.00,M,M,M,M,M,M,M,M,M,M,RJFR 202200Z 18006KT 9999 FEW030 SCT180 BKN/// 17/14 Q1021
RJAA,2020-10-20 22:00,140.3856,35.7653,53.60,51.80,93.60,330.00,7.00,0.00,30.30,M,6.21,M,FEW,M,M,M,3000.00,M,M,M,M,M,M,M,M,M,M,M,RJAA 202200Z 33007KT 9999 FEW030 12/11 Q1026 NOSIG
RJAH,2020-10-20 22:00,140.4147,36.1817,50.00,48.20,93.50,350.00,4.00,0.00,30.30,M,6.21,M,FEW,M,M,M,3000.00,M,M,M,M,M,M,M,M,M,M,M,RJAH 202200Z 35004KT 9999 FEW030 10/09 Q1026
RJCC,2020-10-20 22:00,141.6926,42.7742,35.60,33.80,93.08,320.00,3.00,0.00,30.36,M,6.21,M,FEW,M,M,M,100.00,M,M,M,PRFG,M,M,M,M,M,M,32.80,RJCC 202200Z 32003KT 9999 PRFG FEW001 02/01 Q1028
RJCH,2020-10-20 22:00,140.8219,41.7700,48.20,42.80,81.47,10.00,5.00,0.00,30.33,M,6.21,M,FEW,M,M,M,4000.00,M,M,M,M,M,M,M,M,M,M,45.63,RJCH 202200Z 01005KT 9999 FEW040 09/06 Q1027
RJCK,2020-10-20 22:00,144.1931,43.0408,44.60,39.20,81.20,340.00,5.00,0.00,30.36,M,6.21,M,FEW,M,M,M,2000.00,M,M,M,M,M,M,M,M,M,M,41.36,RJCK 202200Z 34005KT 9999 FEW020 07/04 Q1028
RJCO,2020-10-20 22:00,141.3814,43.1175,35.60,35.60,100.00,100.00,5.00,0.00,30.39,M,6.21,M,FEW,M,M,M,500.00,M,M,M,M,M,M,M,M,M,M,30.67,RJCO 202200Z 10005KT 9999 FEW005 02/02 Q1029
RJEC,2020-10-20 22:00,142.4475,43.6708,33.80,24.80,69.25,170.00,3.00,0.00,30.36,M,6.21,M,FEW,M,M,M,100.00,M,M,M,PRFG,M,M,M,M,M,M,30.75,RJEC 202200Z 17003KT 9999 PRFG FEW001 01/M04 Q1028
RJFF,2020-10-20 22:00,130.4517,33.5844,59.00,50.00,72.01,150.00,2.00,0.00,30.12,M,6.21,M,FEW,SCT,BKN,M,3500.00,18000.00,M,M,M,M,M,M,M,M,M,M,RJFF 202200Z 15002KT 9999 FEW035 SCT180 BKN/// 15/10 Q1020 NOSIG
RJFK,2020-10-20 22:00,130.7194,31.8033,64.40,55.40,72.56,90.00,9.00,0.00,30.12,M,6.21,M,FEW,BKN,M,M,2000.00,M,M,M,M,M,M,M,M,M,M,M,RJFK 202200Z 09009KT 040V120 9999 FEW020 BKN/// 18/13 Q1020
RJFM,2020-10-20 22:00,131.4486,31.8772,59.00,55.40,87.83,290.00,5.00,0.00,30.12,M,6.21,M,FEW,BKN,M,M,3000.00,4500.00,M,M,M,M,M,M,M,M,M,M,RJFM 202200Z 29005KT 9999 FEW030 BKN045 15/13 Q1020
RJFO,2020-10-20 22:00,131.7372,33.4794,57.20,51.80,82.12,M,2.00,0.00,30.18,M,6.21,M,FEW,SCT,BKN,M,3500.00,5000.00,M,M,M,M,M,M,M,M,M,M,RJFO 202200Z VRB02KT 9999 FEW035 SCT050 BKN/// 14/11 Q1022
RJAW,2020-10-20 22:00,141.3227,24.7840,80.60,77.00,88.83,160.00,17.00,0.00,29.80,M,6.21,27.00,FEW,BKN,FEW,BKN,1000.00,1500.00,1500.00,10000.00,-SHRA,M,M,M,M,M,M,87.59,RJAW 202200Z 16017G27KT 9999 -SHRA FEW010 BKN015 FEW015TCU BKN100 27/25 Q1009 RMK 2CU010 5CU015 2TCU015 7AC100 A2980 TCU 10KM SW-W MOV NE
RJBB,2020-10-20 22:00,135.2328,34.4342,59.00,51.80,76.98,70.00,7.00,0.00,30.21,M,6.21,M,FEW,M,M,M,3000.00,M,M,M,M,M,M,M,M,M,M,M,RJBB 202200Z 07007KT 9999 FEW030 15/11 Q1023 NOSIG
RJBE,2020-10-20 22:00,135.2239,34.6328,62.60,51.80,67.75,50.00,13.00,0.00,30.21,M,6.21,M,FEW,M,M,M,3000.00,M,M,M,M,M,M,M,M,M,M,M,RJBE 202200Z 05013KT 9999 FEW030 17/11 Q1023
RJNK,2020-10-20 22:00,136.4075,36.3939,50.00,46.40,87.37,M,2.00,0.00,30.24,M,6.21,M,FEW,M,M,M,3000.00,M,M,M,M,M,M,M,M,M,M,M,RJNK 202200Z VRB02KT 9999 FEW030 10/08 Q1024
RJNT,2020-10-20 22:00,137.1875,36.6483,51.80,46.40,81.74,210.00,4.00,0.00,30.24,M,6.21,M,FEW,M,M,M,1000.00,M,M,M,M,M,M,M,M,M,M,M,RJNT 202200Z 21004KT 170V230 9999 FEW010 11/08 Q1024
RJOA,2020-10-20 22:00,132.9194,34.4361,55.40,50.00,81.99,60.00,5.00,0.00,30.21,M,6.21,M,FEW,SCT,M,M,1500.00,M,M,M,M,M,M,M,M,M,M,M,RJOA 202200Z 06005KT 9999 FEW015 SCT/// 13/10 Q1023
RJOB,2020-10-20 22:00,133.8553,34.7569,51.80,48.20,87.47,70.00,2.00,0.00,30.21,M,6.21,M,FEW,SCT,M,M,2000.00,M,M,M,M,M,M,M,M,M,M,M,RJOB 202200Z 07002KT 9999 FEW020 SCT/// 11/09 Q1023
RJOC,2020-10-20 22:00,132.8900,35.4136,51.80,48.20,87.47,160.00,8.00,0.00,30.21,M,6.21,M,FEW,BKN,M,M,700.00,M,M,M,M,M,M,M,M,M,M,M,RJOC 202200Z 16008KT 9999 FEW007 BKN/// 11/09 Q1023
RJOH,2020-10-20 22:00,133.2392,35.4933,51.80,50.00,93.55,180.00,4.00,0.00,30.21,M,6.21,M,FEW,BKN,M,M,300.00,25000.00,M,M,M,M,M,M,M,M,M,M,RJOH 202200Z 18004KT 140V200 9999 FEW003 BKN250 11/10 Q1023
RJKA,2020-10-20 22:00,129.7125,28.4308,77.00,69.80,78.48,90.00,14.00,0.00,30.00,M,6.21,M,FEW,BKN,M,M,1500.00,M,M,M,M,M,M,M,M,M,M,M,RJKA 202200Z 09014KT 9999 FEW015 BKN/// 25/21 Q1016
RJOK,2020-10-20 22:00,133.6694,33.5461,55.40,50.00,81.99,330.00,10.00,0.00,30.18,M,6.21,M,FEW,M,M,M,2000.00,M,M,M,M,M,M,M,M,M,M,M,RJOK 202200Z 33010KT 9999 FEW020 13/10 Q1022
RJFU,2020-10-20 22:00,129.9136,32.9169,59.00,50.00,72.01,150.00,5.00,0.00,30.12,M,6.21,M,M,M,M,M,M,M,M,M,M,M,M,M,M,M,M,M,RJFU 202200Z 15005KT CAVOK 15/10 Q1020
RJGG,2020-10-20 22:00,136.8054,34.8584,57.20,50.00,76.82,10.00,4.00,0.00,30.24,M,6.21,M,FEW,M,M,M,3000.00,M,M,M,M,M,M,M,M,M,M,M,RJGG 202200Z 01004KT 9999 FEW030 14/10 Q1024 NOSIG
RJKI,2020-10-20 22:00,129.9281,28.3213,77.00,69.80,78.48,90.00,9.00,0.00,30.00,M,6.21,M,FEW,M,M,M,2400.00,M,M,M,M,M,M,M,M,M,M,M,RJKI 202200Z AUTO 09009KT 9999 FEW024 25/21 Q1016
ROIG,2020-10-20 22:00,124.1633,24.3367,77.00,77.00,100.00,70.00,17.00,0.00,29.83,M,6.21,M,FEW,BKN,M,M,400.00,2000.00,M,M,-SHRA,M,M,M,M,M,M,M,ROIG 202200Z 07017KT 9999 -SHRA FEW004 BKN020 25/25 Q1010
ROMD,2020-10-20 22:00,131.2286,25.8289,78.80,73.40,83.55,50.00,13.00,0.00,29.94,M,6.21,M,SCT,SCT,BKN,M,1900.00,2900.00,3400.00,M,M,M,M,M,M,M,M,M,ROMD 202200Z AUTO 05013KT 9999 SCT019 SCT029 BKN034 26/23 Q1014
ROMY,2020-10-20 22:00,125.2767,24.7933,80.60,75.20,83.66,70.00,14.00,0.00,29.85,M,6.21,M,FEW,SCT,BKN,M,1200.00,2000.00,4000.00,M,-SHRA,M,M,M,M,M,M,86.17,ROMY 202200Z 07014KT 9999 -SHRA FEW012 SCT020 BKN040 27/24 Q1011
RORY,2020-10-20 22:00,128.4020,27.0440,78.80,69.80,73.95,90.00,12.00,0.00,29.94,M,6.21,M,SCT,M,M,M,2500.00,M,M,M,M,M,M,M,M,M,M,M,RORY 202200Z AUTO 09012KT 9999 SCT025 26/21 Q1014
RJDC,2020-10-20 22:00,131.2786,33.9300,66.20,59.00,77.60,100.00,16.00,0.00,30.12,M,6.21,M,FEW,BKN,M,M,2000.00,M,M,M,M,M,M,M,M,M,M,M,RJDC 202200Z 10016KT 9999 FEW020 BKN/// 19/15 Q1020
RJOM,2020-10-20 22:00,132.6997,33.8272,59.00,51.80,76.98,110.00,6.00,0.00,30.18,M,6.21,M,FEW,BKN,M,M,2000.00,M,M,M,M,M,M,M,M,M,M,M,RJOM 202200Z 11006KT 9999 FEW020 BKN/// 15/11 Q1022
RJFS,2020-10-20 22:00,130.3000,33.1500,50.00,48.20,93.50,M,2.00,0.00,30.12,M,6.21,M,M,M,M,M,M,M,M,M,M,M,M,M,M,M,M,M,RJFS 202200Z VRB02KT CAVOK 10/09 Q1020
RJFT,2020-10-20 22:00,130.8553,32.8372,60.80,51.80,72.20,M,2.00,0.00,30.12,M,6.21,M,FEW,BKN,M,M,3500.00,M,M,M,M,M,M,M,M,M,M,M,RJFT 202200Z VRB02KT 9999 FEW035 BKN/// 16/11 Q1020
RJOT,2020-10-20 22:00,134.0167,34.2167,51.80,50.00,93.55,140.00,8.00,0.00,30.21,M,6.21,M,FEW,BKN,M,M,2000.00,M,M,M,M,M,M,M,M,M,M,M,RJOT 202200Z 14008KT 9999 FEW020 BKN/// 11/10 Q1023
RJSK,2020-10-20 22:00,140.2167,39.6167,42.80,41.00,93.30,140.00,3.00,0.00,30.33,M,6.21,M,FEW,M,M,M,0.00,M,M,M,PRFG,M,M,M,M,M,M,41.03,RJSK 202200Z 14003KT 9999 PRFG FEW000 06/05 Q1027
RJOO,2020-10-20 22:00,135.4392,34.7844,55.40,51.80,87.65,M,1.00,0.00,30.21,M,6.21,M,FEW,M,M,M,3000.00,M,M,M,M,M,M,M,M,M,M,M,RJOO 202200Z VRB01KT 9999 FEW030 13/11 Q1023
RJOR,2020-10-20 22:00,134.1650,35.5300,51.80,48.20,87.47,140.00,8.00,0.00,30.21,M,6.21,M,FEW,SCT,M,M,5000.00,M,M,M,M,M,M,M,M,M,M,M,RJOR 202200Z 14008KT 9999 FEW050 SCT/// 11/09 Q1023
RJSA,2020-10-20 22:00,140.6886,40.7333,35.60,33.80,93.08,190.00,1.00,0.00,30.33,M,6.21,M,FEW,M,M,M,3000.00,M,M,M,M,M,M,M,M,M,M,M,RJSA 202200Z 19001KT 9999 FEW030 02/01 Q1027
RJSF,2020-10-20 22:00,140.4281,37.2275,42.80,42.80,100.00,M,2.00,0.00,30.33,M,0.43,M,FEW,BKN,BKN,M,100.00,200.00,700.00,M,FG,M,M,M,M,M,M,M,RJSF 202200Z VRB02KT 0700 R01/0250VP1800U FG FEW001 BKN002 BKN007 06/06 Q1027
RJSM,2020-10-20 22:00,141.3684,40.7032,44.60,39.20,81.20,240.00,5.00,0.00,30.36,M,6.21,M,FEW,M,M,M,500.00,M,M,M,M,M,M,M,M,M,M,41.36,RJSM 202200Z 24005KT 210V270 9999 FEW005 07/04 Q1028
RJSN,2020-10-20 22:00,139.1117,37.9558,50.00,44.60,81.61,110.00,5.00,0.00,30.30,M,6.21,M,FEW,M,M,M,3000.00,M,M,M,M,M,M,M,M,M,M,M,RJSN 202200Z 11005KT 9999 FEW030 10/07 Q1026
RJSS,2020-10-20 22:00,140.9169,38.1397,48.20,42.80,81.47,260.00,4.00,0.00,30.36,M,6.21,M,FEW,M,M,M,3000.00,M,M,M,M,M,M,M,M,M,M,46.34,RJSS 202200Z 26004KT 9999 FEW030 09/06 Q1028
RJTT,2020-10-20 22:00,139.7811,35.5533,59.00,50.00,72.01,340.00,13.00,0.00,30.30,M,6.21,M,FEW,M,M,M,3000.00,M,M,M,M,M,M,M,M,M,M,M,RJTT 202200Z 34013KT 9999 FEW030 15/10 Q1026 NOSIG
RORS,2020-10-20 22:00,125.1447,24.8267,80.60,75.20,83.66,80.00,16.00,0.00,29.85,M,6.21,M,FEW,BKN,BKN,M,1900.00,4000.00,M,M,VCSH,M,M,M,M,M,M,86.17,RORS 202200Z 08016KT 9999 VCSH FEW019 BKN040 BKN/// 27/24 Q1011
RJOS,2020-10-20 22:00,134.6092,34.1322,53.60,50.00,87.56,290.00,10.00,0.00,30.21,M,6.21,M,FEW,SCT,M,M,3000.00,M,M,M,M,M,M,M,M,M,M,M,RJOS 202200Z 29010KT 9999 FEW030 SCT/// 12/10 Q1023
RJSY,2020-10-20 22:00,139.7872,38.8122,46.40,41.00,81.34,110.00,7.00,0.00,30.30,M,6.21,M,FEW,M,M,M,1000.00,M,M,M,M,M,M,M,M,M,M,42.33,RJSY 202200Z 11007KT 9999 FEW010 08/05 Q1026
RORK,2020-10-20 22:00,131.3333,25.9167,80.60,73.40,78.76,70.00,20.00,0.00,29.94,M,6.21,M,BKN,BKN,M,M,2100.00,5000.00,M,M,M,M,M,M,M,M,M,85.32,RORK 202200Z AUTO 07020KT 9999 BKN021 BKN050 27/23 Q1014
ROYN,2020-10-20 22:00,122.9780,24.4670,80.60,75.20,83.66,60.00,20.00,0.00,29.83,M,6.21,M,BKN,BKN,OVC,M,1700.00,2600.00,4000.00,M,M,M,M,M,M,M,M,86.17,ROYN 202200Z AUTO 06020KT 9999 BKN017 BKN026 OVC040 27/24 Q1010
ROAH,2020-10-20 22:00,127.6458,26.1958,80.60,69.80,69.71,80.00,16.00,0.00,29.91,M,6.21,M,FEW,OVC,M,M,2000.00,M,M,M,M,M,M,M,M,M,M,83.90,ROAH 202200Z 08016KT 040V100 9999 FEW020 OVC/// 27/21 Q1013
RJAW,2020-10-20 22:02,141.3227,24.7840,80.60,77.00,88.83,170.00,16.00,0.00,29.80,M,3.04,28.00,FEW,BKN,FEW,BKN,1000.00,1500.00,1500.00,10000.00,SHRA BR,M,M,M,M,M,M,87.59,RJAW 202202Z 17016G28KT 4900 SHRA BR FEW010 BKN015 FEW015TCU BKN100 27/25 Q1009 RMK 2CU010 6CU015 2TCU015 7AC100 A2980 TCU OHD MOV NE
RJSF,2020-10-20 22:02,140.4281,37.2275,42.80,42.80,100.00,M,2.00,0.00,30.33,M,0.43,M,FEW,BKN,BKN,M,100.00,200.00,700.00,M,FG,M,M,M,M,M,M,M,RJSF 202202Z VRB02KT 0700 R01/0250VP1800U FG FEW001 BKN002 BKN007 06/06 Q1027 RMK 2ST001 5ST002 6ST007 A3035
RJSF,2020-10-20 22:03,140.4281,37.2275,42.80,42.80,100.00,M,2.00,0.00,30.33,M,0.56,M,FEW,BKN,BKN,M,100.00,200.00,600.00,M,FG,M,M,M,M,M,M,M,RJSF 202203Z VRB02KT 0900 R01/0350VP1800U FG FEW001 BKN002 BKN006 06/06 Q1027 RMK 2ST001 5ST002 6ST006 A3035
RJAW,2020-10-20 22:08,141.3227,24.7840,78.80,75.20,88.75,180.00,17.00,0.00,29.80,M,1.93,28.00,SCT,OVC,SCT,M,1000.00,1500.00,1500.00,M,+SHRA BR,M,M,M,M,M,M,M,RJAW 202208Z 18017G28KT 3100 R07/0650VP1800D +SHRA BR SCT010 OVC015 SCT015TCU 26/24 Q1009 RMK 3CU010 8CU015 3TCU015 A2981 R1200 TCU OHD MOV NE
RJSF,2020-10-20 22:10,140.4281,37.2275,42.80,42.80,100.00,M,2.00,0.00,30.36,M,0.31,M,FEW,BKN,BKN,M,100.00,200.00,300.00,M,FG,M,M,M,M,M,M,M,RJSF 202210Z VRB02KT 0500 R01/P1800N FG FEW001 BKN002 BKN003 06/06 Q1028 RMK 2ST001 6ST002 7ST003 A3036
RJSF,2020-10-20 22:12,140.4281,37.2275,42.80,42.80,100.00,30.00,3.00,0.00,30.36,M,0.12,M,FEW,BKN,M,M,100.00,200.00,M,M,FG,M,M,M,M,M,M,41.03,RJSF 202212Z 03003KT 330V060 0200 R01/P1800N FG FEW001 BKN002 06/06 Q1028 RMK 2ST001 7ST002 A3036
ROMY,2020-10-20 22:16,125.2767,24.7933,77.00,75.20,94.19,90.00,16.00,0.00,29.85,M,2.49,26.00,FEW,BKN,M,M,700.00,1500.00,M,M,-SHRA BR,M,M,M,M,M,M,M,ROMY 202216Z 09016G26KT 4000 R22/1400VP1800D -SHRA BR FEW007 BKN015 25/24 Q1011 RMK 2ST007 6CU015 A2987
RJAW,2020-10-20 22:19,141.3227,24.7840,77.00,75.20,94.19,180.00,11.00,0.00,29.80,M,3.11,24.00,FEW,BKN,FEW,BKN,1000.00,1500.00,1500.00,10000.00,-SHRA BR,M,M,M,M,M,M,M,RJAW 202219Z 18011G24KT 5000 -SHRA BR FEW010 BKN015 FEW015TCU BKN100 25/24 Q1009 RMK 2CU010 6CU015 1TCU015 7AC100 A2981 TCU 10KM NW MOV NE
RJSF,2020-10-20 22:25,140.4281,37.2275,42.80,42.80,100.00,20.00,3.00,0.00,30.36,M,0.06,M,SCT,BKN,BKN,M,100.00,200.00,300.00,M,FG,M,M,M,M,M,M,41.03,RJSF 202225Z 02003KT 340V040 0100 R01/0400VP1800D FG SCT001 BKN002 BKN003 06/06 Q1028 RMK 3ST001 6ST002 7ST003 A3036
RJSF,2020-10-20 22:26,140.4281,37.2275,42.80,42.80,100.00,20.00,3.00,0.00,30.36,M,0.06,M,SCT,BKN,BKN,M,100.00,200.00,300.00,M,FG,M,M,M,M,M,M,41.03,RJSF 202226Z 02003KT 340V040 0100 R01/0400VP1800D FG SCT001 BKN002 BKN003 06/06 Q1028 RMK 3ST001 6ST002 7ST003 A3036
RJSF,2020-10-20 22:28,140.4281,37.2275,44.60,44.60,100.00,M,2.00,0.00,30.36,M,0.06,M,SCT,BKN,BKN,M,100.00,200.00,300.00,M,FG,M,M,M,M,M,M,M,RJSF 202228Z VRB02KT 0100 R01/0300VP1800D FG SCT001 BKN002 BKN003 07/07 Q1028 RMK 3ST001 6ST002 7ST003 A3036
RJNS,2020-10-20 22:30,138.1894,34.7961,57.20,48.20,71.83,10.00,3.00,0.00,30.27,M,6.21,M,FEW,M,M,M,500.00,M,M,M,M,M,M,M,M,M,M,M,RJNS 202230Z 01003KT 280V070 9999 FEW005 14/09 Q1025
ROAH,2020-10-20 22:30,127.6458,26.1958,80.60,69.80,69.71,80.00,15.00,0.00,29.91,M,6.21,M,FEW,OVC,M,M,2000.00,M,M,M,M,M,M,M,M,M,M,83.90,ROAH 202230Z 08015KT 9999 FEW020 OVC/// 27/21 Q1013
RJAA,2020-10-20 22:30,140.3856,35.7653,53.60,51.80,93.60,330.00,7.00,0.00,30.33,M,6.21,M,FEW,M,M,M,3000.00,M,M,M,M,M,M,M,M,M,M,M,RJAA 202230Z 33007KT 9999 FEW030 12/11 Q1027 NOSIG
RJCC,2020-10-20 22:30,141.6926,42.7742,39.20,37.40,93.19,M,1.00,0.00,30.36,M,6.21,M,FEW,M,M,M,100.00,M,M,M,PRFG,M,M,M,M,M,M,M,RJCC 202230Z VRB01KT 9999 PRFG FEW001 04/03 Q1028
RJDT,2020-10-20 22:30,129.3306,34.2850,64.40,53.60,67.95,150.00,5.00,0.00,30.12,M,6.21,M,FEW,SCT,BKN,M,3000.00,18000.00,M,M,M,M,M,M,M,M,M,M,RJDT 202230Z 15005KT 110V190 9999 FEW030 SCT180 BKN/// 18/12 Q1020
RJFF,2020-10-20 22:30,130.4517,33.5844,60.80,48.20,63.15,M,2.00,0.00,30.12,M,6.21,M,FEW,BKN,M,M,3500.00,M,M,M,M,M,M,M,M,M,M,M,RJFF 202230Z VRB02KT 9999 FEW035 BKN/// 16/09 Q1020 NOSIG
RJBB,2020-10-20 22:30,135.2328,34.4342,60.80,51.80,72.20,60.00,7.00,0.00,30.24,M,6.21,M,FEW,SCT,M,M,3000.00,M,M,M,M,M,M,M,M,M,M,M,RJBB 202230Z 06007KT 9999 FEW030 SCT/// 16/11 Q1024 NOSIG
RJGG,2020-10-20 22:30,136.8054,34.8584,59.00,51.80,76.98,40.00,5.00,0.00,30.24,M,6.21,M,FEW,M,M,M,3000.00,M,M,M,M,M,M,M,M,M,M,M,RJGG 202230Z 04005KT 9999 FEW030 15/11 Q1024 NOSIG
RJTT,2020-10-20 22:30,139.7811,35.5533,59.00,50.00,72.01,350.00,12.00,0.00,30.30,M,6.21,M,FEW,M,M,M,3000.00,M,M,M,M,M,M,M,M,M,M,M,RJTT 202230Z 35012KT 9999 FEW030 15/10 Q1026 NOSIG RMK 1CU030 A3032
ROMY,2020-10-20 22:31,125.2767,24.7933,77.00,75.20,94.19,70.00,15.00,0.00,29.85,M,4.35,M,FEW,SCT,BKN,M,700.00,1800.00,2700.00,M,-SHRA,M,M,M,M,M,M,M,ROMY 202231Z 07015KT 7000 -SHRA FEW007 SCT018 BKN027 25/24 Q1011 RMK 1ST007 3CU018 5CU027 A2987
RJSF,2020-10-20 22:34,140.4281,37.2275,42.80,42.80,100.00,M,2.00,0.00,30.36,M,0.31,M,FEW,BKN,BKN,M,100.00,200.00,300.00,M,FG,M,M,M,M,M,M,M,RJSF 202234Z VRB02KT 0500 R01/0300V1200U FG FEW001 BKN002 BKN003 06/06 Q1028 RMK 2ST001 5ST002 7ST003 A3036
RJSF,2020-10-20 22:38,140.4281,37.2275,44.60,44.60,100.00,360.00,3.00,0.00,30.36,M,0.62,M,FEW,SCT,BKN,M,100.00,200.00,300.00,M,BCFG BR,M,M,M,M,M,M,43.09,RJSF 202238Z 36003KT 330V030 1000 R01/0300VP1800U BCFG BR FEW001 SCT002 BKN003 07/07 Q1028 RMK 2ST001 4ST002 5ST003 A3036
RJSF,2020-10-20 22:39,140.4281,37.2275,44.60,44.60,100.00,10.00,3.00,0.00,30.36,M,0.62,M,FEW,SCT,BKN,M,100.00,200.00,300.00,M,BCFG BR,M,M,M,M,M,M,43.09,RJSF 202239Z 01003KT 1000 R01/0350VP1800U BCFG BR FEW001 SCT002 BKN003 07/07 Q1028 RMK 2ST001 4ST002 5ST003 A3036
RJCB,2020-10-20 22:40,143.2172,42.7333,39.20,35.60,86.79,M,2.00,0.00,30.39,M,6.21,M,FEW,M,M,M,4000.00,M,M,M,M,M,M,M,M,M,M,M,RJCB 202240Z VRB02KT 9999 FEW040 04/02 Q1029 RMK 1CU040 A3039
RJSC,2020-10-20 22:40,140.3711,38.4119,42.80,41.00,93.30,M,1.00,0.00,30.39,M,6.21,M,FEW,M,M,M,1000.00,M,M,M,M,M,M,M,M,M,M,M,RJSC 202240Z VRB01KT 9999 FEW010 06/05 Q1029 RMK 1ST010 A3039
RJSI,2020-10-20 22:40,141.1353,39.4286,44.60,41.00,87.09,20.00,6.00,0.00,30.39,M,6.21,M,FEW,M,M,M,800.00,M,M,M,M,M,M,M,M,M,M,40.71,RJSI 202240Z 02006KT 9999 FEW008 07/05 Q1029 RMK 1ST008 A3039
RJBD,2020-10-20 22:40,135.3644,33.6622,64.40,53.60,67.95,360.00,4.00,0.00,30.21,M,6.21,M,FEW,SCT,M,M,3500.00,M,M,M,M,M,M,M,M,M,M,M,RJBD 202240Z 36004KT 9999 FEW035 SCT/// 18/12 Q1023 RMK 1CU035 A3022
RORS,2020-10-20 22:43,125.1447,24.8267,77.00,77.00,100.00,100.00,18.00,0.00,29.85,M,2.17,M,FEW,SCT,BKN,M,700.00,1000.00,1500.00,M,SHRA BR,M,M,M,M,M,M,M,RORS 202243Z 10018KT 3500 R17/1500VP2000D SHRA BR FEW007 SCT010 BKN015 25/25 Q1011 RMK 1ST007 3CU010 6CU015 A2987
RJOF,2020-10-20 22:43,131.5464,34.0344,62.60,53.60,72.38,M,4.00,0.00,30.15,M,6.21,M,FEW,BKN,BKN,M,2500.00,18000.00,23000.00,M,M,M,M,M,M,M,M,M,RJOF 202243Z VRB04KT 9999 FEW025 BKN180 BKN230 17/12 Q1021 RMK 1CU025 5AC180 A3017
RJCM,2020-10-20 22:45,144.1642,43.8806,39.20,33.80,80.79,180.00,7.00,0.00,30.39,M,6.21,M,FEW,M,M,M,2000.00,M,M,M,M,M,M,M,M,M,M,33.56,RJCM 202245Z 18007KT 9999 FEW020 04/01 Q1029 RMK 1CU020 A3039
RJSF,2020-10-20 22:45,140.4281,37.2275,44.60,44.60,100.00,M,2.00,0.00,30.36,M,3.11,M,FEW,SCT,M,M,100.00,200.00,M,M,BCFG BR,M,M,M,M,M,M,M,RJSF 202245Z VRB02KT 5000 BCFG BR FEW001 SCT002 07/07 Q1028 RMK 1ST001 3ST002 A3036
ROAH,2020-10-20 22:48,127.6458,26.1958,80.60,69.80,69.71,80.00,15.00,0.00,29.91,M,6.21,25.00,FEW,OVC,M,M,2000.00,M,M,M,M,M,M,M,M,M,M,83.90,ROAH 202248Z 08015G25KT 050V120 9999 FEW020 OVC/// 27/21 Q1013 RMK 1CU020 A2993
RJOI,2020-10-20 22:55,132.2357,34.1439,59.00,48.90,69.12,300.00,4.00,0.00,30.22,1023.30,6.21,M,FEW,BKN,BKN,M,2000.00,18000.00,23000.00,M,M,M,M,M,M,M,M,M,RJOI 202255Z 30004KT 9999 FEW020 BKN180 BKN230 15/09 A3022 RMK SLP233 T01500094
RJTY,2020-10-20 22:56,139.3485,35.7485,59.50,50.50,72.07,30.00,8.00,0.00,30.38,1029.20,10.00,M,FEW,FEW,M,M,4400.00,6000.00,M,M,M,M,M,M,M,M,M,M,RJTY 202256Z AUTO 03008KT 10SM FEW044 FEW060 15/10 A3038 RMK AO2 SLP292 T01530103 FZRANO $
RODN,2020-10-20 22:56,127.7676,26.3556,79.90,69.60,70.84,80.00,13.00,0.00,29.95,1014.70,10.00,20.00,FEW,M,M,M,2600.00,M,M,M,M,M,M,M,M,M,M,M,RODN 202256Z AUTO 08013G20KT 10SM FEW026 27/21 A2995 RMK AO2 SLP147 T02660209 $
RJFR,2020-10-20 23:00,131.0350,33.8456,66.20,57.20,72.74,150.00,7.00,0.00,30.15,M,6.21,M,FEW,BKN,M,M,3000.00,M,M,M,M,M,M,M,M,M,M,M,RJFR 202300Z 15007KT 120V180 9999 FEW030 BKN/// 19/14 Q1021
RJSR,2020-10-20 23:00,140.3714,40.1919,41.00,41.00,100.00,0.00,0.00,0.00,30.36,M,0.31,M,FEW,BKN,M,M,100.00,200.00,M,M,FG,M,M,M,M,M,M,M,RJSR 202300Z 00000KT 0500 R11/0250N FG FEW001 BKN002 05/05 Q1028
RJAA,2020-10-20 23:00,140.3856,35.7653,57.20,51.80,82.12,350.00,8.00,0.00,30.33,M,6.21,M,FEW,M,M,M,3000.00,M,M,M,M,M,M,M,M,M,M,M,RJAA 202300Z 35008KT 9999 FEW030 14/11 Q1027 NOSIG
RJAH,2020-10-20 23:00,140.4147,36.1817,57.20,50.00,76.82,360.00,6.00,0.00,30.33,M,6.21,M,FEW,M,M,M,3000.00,M,M,M,M,M,M,M,M,M,M,M,RJAH 202300Z 36006KT 9999 FEW030 14/10 Q1027
RJCB,2020-10-20 23:00,143.2172,42.7333,41.00,35.60,80.93,340.00,4.00,0.00,30.39,M,6.21,M,FEW,M,M,M,4000.00,M,M,M,M,M,M,M,M,M,M,37.93,RJCB 202300Z 34004KT 9999 FEW040 05/02 Q1029
RJCC,2020-10-20 23:00,141.6926,42.7742,42.80,39.20,86.99,320.00,3.00,0.00,30.36,M,6.21,M,NSC,M,M,M,M,M,M,M,PRFG,M,M,M,M,M,M,41.03,RJCC 202300Z 32003KT 9999 PRFG NSC 06/04 Q1028
RJCH,2020-10-20 23:00,140.8219,41.7700,53.60,48.20,81.87,20.00,4.00,0.00,30.33,M,6.21,M,FEW,M,M,M,3000.00,M,M,M,M,M,M,M,M,M,M,M,RJCH 202300Z 02004KT 350V060 9999 FEW030 12/09 Q1027
RJCK,2020-10-20 23:00,144.1931,43.0408,48.20,39.20,70.88,360.00,4.00,0.00,30.36,M,6.21,M,FEW,M,M,M,2000.00,M,M,M,M,M,M,M,M,M,M,46.34,RJCK 202300Z 36004KT 9999 FEW020 09/04 Q1028
RJCM,2020-10-20 23:00,144.1642,43.8806,41.00,35.60,80.93,190.00,7.00,0.00,30.39,M,6.21,M,FEW,M,M,M,2000.00,M,M,M,M,M,M,M,M,M,M,35.75,RJCM 202300Z 19007KT 9999 FEW020 05/02 Q1029
RJCO,2020-10-20 23:00,141.3814,43.1175,42.80,39.20,86.99,90.00,6.00,0.00,30.39,M,6.21,M,FEW,M,M,M,500.00,M,M,M,M,M,M,M,M,M,M,38.54,RJCO 202300Z 09006KT 9999 FEW005 06/04 Q1029
RJDT,2020-10-20 23:00,129.3306,34.2850,66.20,53.60,63.82,160.00,5.00,0.00,30.12,M,6.21,M,FEW,BKN,M,M,3000.00,M,M,M,M,M,M,M,M,M,M,M,RJDT 202300Z 16005KT 100V210 9999 FEW030 BKN/// 19/12 Q1020
RJEC,2020-10-20 23:00,142.4475,43.6708,39.20,21.20,48.10,180.00,4.00,0.00,30.36,M,6.21,M,FEW,M,M,M,100.00,M,M,M,PRFG,M,M,M,M,M,M,35.83,RJEC 202300Z 18004KT 150V210 9999 PRFG FEW001 04/M06 Q1028
RJFE,2020-10-20 23:00,128.8328,32.6664,68.00,57.20,68.35,130.00,5.00,0.00,30.12,M,6.21,M,FEW,BKN,M,M,4000.00,M,M,M,M,M,M,M,M,M,M,M,RJFE 202300Z 13005KT 060V170 9999 FEW040 BKN/// 20/14 Q1020
RJFF,2020-10-20 23:00,130.4517,33.5844,62.60,50.00,63.38,150.00,6.00,0.00,30.12,M,6.21,M,FEW,BKN,M,M,3500.00,M,M,M,M,M,M,M,M,M,M,M,RJFF 202300Z 15006KT 9999 FEW035 BKN/// 17/10 Q1020 NOSIG
RJFK,2020-10-20 23:00,130.7194,31.8033,68.00,55.40,64.04,80.00,10.00,0.00,30.12,M,6.21,M,FEW,SCT,M,M,2000.00,M,M,M,M,M,M,M,M,M,M,M,RJFK 202300Z 08010KT 040V110 9999 FEW020 SCT/// 20/13 Q1020
RJFM,2020-10-20 23:00,131.4486,31.8772,64.40,57.20,77.45,290.00,4.00,0.00,30.12,M,6.21,M,FEW,BKN,M,M,3000.00,4000.00,M,M,M,M,M,M,M,M,M,M,RJFM 202300Z 29004KT 9999 FEW030 BKN040 18/14 Q1020
RJFO,2020-10-20 23:00,131.7372,33.4794,64.40,55.40,72.56,250.00,3.00,0.00,30.15,M,6.21,M,FEW,SCT,M,M,3500.00,M,M,M,M,M,M,M,M,M,M,M,RJFO 202300Z 25003KT 9999 FEW035 SCT/// 18/13 Q1021
RJAW,2020-10-20 23:00,141.3227,24.7840,78.80,75.20,88.75,170.00,14.00,0.00,29.80,M,6.21,M,FEW,BKN,FEW,BKN,1000.00,1500.00,1500.00,10000.00,VCSH,M,M,M,M,M,M,M,RJAW 202300Z 17014KT 9999 VCSH FEW010 BKN015 FEW015TCU BKN100 26/24 Q1009 RMK 1CU010 5CU015 1TCU015 7AC100 A2982 TCU 15KM SW MOV NE
RJBB,2020-10-20 23:00,135.2328,34.4342,62.60,51.80,67.75,60.00,10.00,0.00,30.24,M,6.21,M,FEW,SCT,M,M,3000.00,M,M,M,M,M,M,M,M,M,M,M,RJBB 202300Z 06010KT 9999 FEW030 SCT/// 17/11 Q1024 NOSIG
RJBE,2020-10-20 23:00,135.2239,34.6328,64.40,53.60,67.95,50.00,12.00,0.00,30.24,M,6.21,M,FEW,M,M,M,3000.00,M,M,M,M,M,M,M,M,M,M,M,RJBE 202300Z 05012KT 9999 FEW030 18/12 Q1024
RJNK,2020-10-20 23:00,136.4075,36.3939,55.40,50.00,81.99,M,2.00,0.00,30.24,M,6.21,M,FEW,M,M,M,3000.00,M,M,M,M,M,M,M,M,M,M,M,RJNK 202300Z VRB02KT 9999 FEW030 13/10 Q1024
RJNT,2020-10-20 23:00,137.1875,36.6483,59.00,44.60,58.77,170.00,7.00,0.00,30.27,M,6.21,M,FEW,M,M,M,10000.00,M,M,M,M,M,M,M,M,M,M,M,RJNT 202300Z 17007KT 120V200 9999 FEW100 15/07 Q1025
RJNW,2020-10-20 23:00,136.9618,37.2931,59.00,50.00,72.01,70.00,6.00,0.00,30.27,M,6.21,M,FEW,M,M,M,2000.00,M,M,M,M,M,M,M,M,M,M,M,RJNW 202300Z 07006KT 9999 FEW020 15/10 Q1025
RJOA,2020-10-20 23:00,132.9194,34.4361,59.00,51.80,76.98,60.00,8.00,0.00,30.24,M,6.21,M,FEW,SCT,BKN,M,1500.00,15000.00,M,M,M,M,M,M,M,M,M,M,RJOA 202300Z 06008KT 9999 FEW015 SCT150 BKN/// 15/11 Q1024
RJOB,2020-10-20 23:00,133.8553,34.7569,55.40,50.00,81.99,100.00,4.00,0.00,30.24,M,6.21,M,FEW,SCT,M,M,2000.00,M,M,M,M,M,M,M,M,M,M,M,RJOB 202300Z 10004KT 9999 FEW020 SCT/// 13/10 Q1024
RJOC,2020-10-20 23:00,132.8900,35.4136,53.60,50.00,87.56,160.00,9.00,0.00,30.21,M,6.21,M,FEW,BKN,M,M,1000.00,M,M,M,M,M,M,M,M,M,M,M,RJOC 202300Z 16009KT 9999 FEW010 BKN/// 12/10 Q1023
RJOH,2020-10-20 23:00,133.2392,35.4933,55.40,50.00,81.99,0.00,0.00,0.00,30.21,M,6.21,M,FEW,BKN,M,M,300.00,25000.00,M,M,M,M,M,M,M,M,M,M,RJOH 202300Z 00000KT 9999 FEW003 BKN250 13/10 Q1023
RJKA,2020-10-20 23:00,129.7125,28.4308,78.80,71.60,78.62,90.00,14.00,0.00,30.00,M,6.21,M,FEW,BKN,M,M,2000.00,M,M,M,M,M,M,M,M,M,M,M,RJKA 202300Z 09014KT 9999 FEW020 BKN/// 26/22 Q1016
RJOK,2020-10-20 23:00,133.6694,33.5461,62.60,51.80,67.75,340.00,9.00,0.00,30.21,M,6.21,M,FEW,M,M,M,2000.00,M,M,M,M,M,M,M,M,M,M,M,RJOK 202300Z 34009KT 9999 FEW020 17/11 Q1023
RJFU,2020-10-20 23:00,129.9136,32.9169,62.60,51.80,67.75,130.00,3.00,0.00,30.12,M,6.21,M,M,M,M,M,M,M,M,M,M,M,M,M,M,M,M,M,RJFU 202300Z 13003KT CAVOK 17/11 Q1020
RJGG,2020-10-20 23:00,136.8054,34.8584,59.00,51.80,76.98,10.00,5.00,0.00,30.27,M,6.21,M,FEW,M,M,M,3000.00,M,M,M,M,M,M,M,M,M,M,M,RJGG 202300Z 01005KT 9999 FEW030 15/11 Q1025 NOSIG
RJKI,2020-10-20 23:00,129.9281,28.3213,77.00,69.80,78.48,90.00,9.00,0.00,30.00,M,6.21,M,FEW,M,M,M,2600.00,M,M,M,M,M,M,M,M,M,M,M,RJKI 202300Z AUTO 09009KT 9999 FEW026 25/21 Q1016
ROIG,2020-10-20 23:00,124.1633,24.3367,78.80,78.80,100.00,70.00,18.00,0.00,29.85,M,6.21,M,FEW,SCT,BKN,M,1000.00,2400.00,4000.00,M,VCSH,M,M,M,M,M,M,M,ROIG 202300Z 07018KT 9999 VCSH FEW010 SCT024 BKN040 26/26 Q1011
ROMD,2020-10-20 23:00,131.2286,25.8289,78.80,73.40,83.55,60.00,11.00,0.00,29.97,M,6.21,M,SCT,SCT,BKN,M,2100.00,3200.00,3600.00,M,M,M,M,M,M,M,M,M,ROMD 202300Z AUTO 06011KT 020V090 9999 SCT021 SCT032 BKN036 26/23 Q1015
ROMY,2020-10-20 23:00,125.2767,24.7933,77.00,75.20,94.19,80.00,12.00,0.00,29.85,M,6.21,M,FEW,BKN,BKN,M,800.00,2900.00,8000.00,M,VCSH,M,M,M,M,M,M,M,ROMY 202300Z 08012KT 9999 VCSH FEW008 BKN029 BKN080 25/24 Q1011
RORY,2020-10-20 23:00,128.4020,27.0440,80.60,69.80,69.71,90.00,14.00,0.00,29.94,M,6.21,M,FEW,M,M,M,2500.00,M,M,M,M,M,M,M,M,M,M,83.90,RORY 202300Z AUTO 09014KT 9999 FEW025 27/21 Q1014
RJDC,2020-10-20 23:00,131.2786,33.9300,68.00,57.20,68.35,100.00,16.00,0.00,30.15,M,6.21,M,FEW,BKN,M,M,2000.00,M,M,M,M,M,M,M,M,M,M,M,RJDC 202300Z 10016KT 9999 FEW020 BKN/// 20/14 Q1021
RJOM,2020-10-20 23:00,132.6997,33.8272,62.60,51.80,67.75,120.00,5.00,0.00,30.18,M,6.21,M,FEW,SCT,M,M,2000.00,M,M,M,M,M,M,M,M,M,M,M,RJOM 202300Z 12005KT 9999 FEW020 SCT/// 17/11 Q1022
RJFS,2020-10-20 23:00,130.3000,33.1500,57.20,50.00,76.82,330.00,4.00,0.00,30.12,M,6.21,M,M,M,M,M,M,M,M,M,M,M,M,M,M,M,M,M,RJFS 202300Z 33004KT CAVOK 14/10 Q1020
RJFT,2020-10-20 23:00,130.8553,32.8372,62.60,53.60,72.38,M,2.00,0.00,30.15,M,6.21,M,FEW,BKN,M,M,3500.00,M,M,M,M,M,M,M,M,M,M,M,RJFT 202300Z VRB02KT 9999 FEW035 BKN/// 17/12 Q1021
RJOT,2020-10-20 23:00,134.0167,34.2167,59.00,53.60,82.25,140.00,6.00,0.00,30.24,M,6.21,M,FEW,BKN,M,M,2000.00,M,M,M,M,M,M,M,M,M,M,M,RJOT 202300Z 14006KT 9999 FEW020 BKN/// 15/12 Q1024
RJSK,2020-10-20 23:00,140.2167,39.6167,46.40,42.80,87.19,140.00,5.00,0.00,30.33,M,6.21,M,FEW,M,M,M,500.00,M,M,M,M,M,M,M,M,M,M,43.50,RJSK 202300Z 14005KT 9999 FEW005 08/06 Q1027
RJOO,2020-10-20 23:00,135.4392,34.7844,62.60,55.40,77.29,60.00,7.00,0.00,30.24,M,6.21,M,FEW,SCT,M,M,3000.00,M,M,M,M,M,M,M,M,M,M,M,RJOO 202300Z 06007KT 040V100 9999 FEW030 SCT/// 17/13 Q1024
RJOR,2020-10-20 23:00,134.1650,35.5300,55.40,48.20,76.66,140.00,9.00,0.00,30.21,M,6.21,M,FEW,BKN,M,M,5000.00,M,M,M,M,M,M,M,M,M,M,M,RJOR 202300Z 14009KT 9999 FEW050 BKN/// 13/09 Q1023
RJOW,2020-10-20 23:00,131.7903,34.6764,53.60,51.80,93.60,M,2.00,0.00,30.15,M,6.21,M,FEW,BKN,M,M,2500.00,M,M,M,M,M,M,M,M,M,M,M,RJOW 202300Z VRB02KT 9999 FEW025 BKN/// 12/11 Q1021
RJOY,2020-10-20 23:00,135.6006,34.5967,60.80,53.60,77.14,M,2.00,0.00,30.24,M,6.21,M,FEW,SCT,M,M,3000.00,M,M,M,M,M,M,M,M,M,M,M,RJOY 202300Z VRB02KT 9999 FEW030 SCT/// 16/12 Q1024
RJSA,2020-10-20 23:00,140.6886,40.7333,51.80,48.20,87.47,100.00,3.00,0.00,30.33,M,6.21,M,FEW,M,M,M,3000.00,M,M,M,M,M,M,M,M,M,M,M,RJSA 202300Z 10003KT 9999 FEW030 11/09 Q1027
RJSC,2020-10-20 23:00,140.3711,38.4119,46.40,42.80,87.19,M,2.00,0.00,30.36,M,6.21,M,FEW,M,M,M,1000.00,M,M,M,M,M,M,M,M,M,M,M,RJSC 202300Z VRB02KT 9999 FEW010 08/06 Q1028
RJSF,2020-10-20 23:00,140.4281,37.2275,48.20,48.20,100.00,M,2.00,0.00,30.36,M,6.21,M,FEW,M,M,M,100.00,M,M,M,M,M,M,M,M,M,M,M,RJSF 202300Z VRB02KT 9999 FEW001 09/09 Q1028
RJSI,2020-10-20 23:00,141.1353,39.4286,46.40,42.80,87.19,10.00,6.00,0.00,30.39,M,6.21,M,FEW,M,M,M,1000.00,M,M,M,M,M,M,M,M,M,M,42.87,RJSI 202300Z 01006KT 9999 FEW010 08/06 Q1029
RJSM,2020-10-20 23:00,141.3684,40.7032,51.80,42.80,71.26,240.00,5.00,0.00,30.36,M,6.21,M,FEW,M,M,M,3000.00,M,M,M,M,M,M,M,M,M,M,M,RJSM 202300Z 24005KT 9999 FEW030 11/06 Q1028
RJSN,2020-10-20 23:00,139.1117,37.9558,55.40,46.40,71.64,110.00,6.00,0.00,30.30,M,6.21,M,FEW,M,M,M,3000.00,M,M,M,M,M,M,M,M,M,M,M,RJSN 202300Z 11006KT 9999 FEW030 13/08 Q1026
RJSS,2020-10-20 23:00,140.9169,38.1397,53.60,42.80,66.70,330.00,6.00,0.00,30.36,M,6.21,M,FEW,M,M,M,3000.00,M,M,M,M,M,M,M,M,M,M,M,RJSS 202300Z 33006KT 9999 FEW030 12/06 Q1028
RJTO,2020-10-20 23:00,139.3603,34.7819,62.60,53.60,72.38,30.00,22.00,0.00,30.27,M,6.21,M,FEW,M,M,M,2000.00,M,M,M,M,M,M,M,M,M,M,M,RJTO 202300Z 03022KT 9999 FEW020 17/12 Q1025
RJTT,2020-10-20 23:00,139.7811,35.5533,60.80,51.80,72.20,360.00,14.00,0.00,30.33,M,6.21,M,FEW,M,M,M,3000.00,M,M,M,M,M,M,M,M,M,M,M,RJTT 202300Z 36014KT 9999 FEW030 16/11 Q1027 NOSIG
RORS,2020-10-20 23:00,125.1447,24.8267,77.00,77.00,100.00,90.00,17.00,0.00,29.85,M,6.21,M,FEW,SCT,BKN,M,1000.00,1500.00,3900.00,M,-SHRA,M,M,M,M,M,M,M,RORS 202300Z 09017KT 9999 -SHRA FEW010 SCT015 BKN039 25/25 Q1011
RJNS,2020-10-20 23:00,138.1894,34.7961,59.00,48.20,67.33,40.00,5.00,0.00,30.27,M,6.21,M,FEW,M,M,M,2500.00,M,M,M,M,M,M,M,M,M,M,M,RJNS 202300Z 04005KT 330V130 9999 FEW025 15/09 Q1025
RJBD,2020-10-20 23:00,135.3644,33.6622,66.20,53.60,63.82,340.00,4.00,0.00,30.21,M,6.21,M,FEW,M,M,M,3500.00,M,M,M,M,M,M,M,M,M,M,M,RJBD 202300Z 34004KT 9999 FEW035 19/12 Q1023
RJOS,2020-10-20 23:00,134.6092,34.1322,57.20,51.80,82.12,300.00,7.00,0.00,30.24,M,6.21,M,FEW,BKN,M,M,3000.00,M,M,M,M,M,M,M,M,M,M,M,RJOS 202300Z 30007KT 9999 FEW030 BKN/// 14/11 Q1024
RJSY,2020-10-20 23:00,139.7872,38.8122,51.80,44.60,76.34,100.00,10.00,0.00,30.30,M,6.21,M,FEW,M,M,M,1000.00,M,M,M,M,M,M,M,M,M,M,M,RJSY 202300Z 10010KT 9999 FEW010 11/07 Q1026
RORK,2020-10-20 23:00,131.3333,25.9167,80.60,73.40,78.76,70.00,20.00,0.00,29.97,M,6.21,M,BKN,BKN,M,M,2100.00,5000.00,M,M,M,M,M,M,M,M,M,85.32,RORK 202300Z AUTO 07020KT 9999 BKN021 BKN050 27/23 Q1015
ROYN,2020-10-20 23:00,122.9780,24.4670,80.60,77.00,88.83,60.00,20.00,0.00,29.85,M,6.21,M,SCT,BKN,BKN,M,1700.00,3100.00,3300.00,M,-RA,M,M,M,M,M,M,87.59,ROYN 202300Z AUTO 06020KT 9999 -RA SCT017 BKN031 BKN033 27/25 Q1011
ROAH,2020-10-20 23:00,127.6458,26.1958,80.60,69.80,69.71,80.00,12.00,0.00,29.91,M,6.21,M,FEW,OVC,M,M,2500.00,M,M,M,M,M,M,M,M,M,M,83.90,ROAH 202300Z 08012KT 040V110 9999 FEW025 OVC/// 27/21 Q1013
RJSR,2020-10-20 23:06,140.3714,40.1919,41.00,41.00,100.00,M,1.00,0.00,30.36,M,0.43,M,FEW,BKN,M,M,100.00,200.00,M,M,FG,M,M,M,M,M,M,M,RJSR 202306Z VRB01KT 0700 R11/0275N FG FEW001 BKN002 05/05 Q1028 RMK 1ST001 7ST002 A3036
ROAH,2020-10-20 23:08,127.6458,26.1958,80.60,71.60,74.11,90.00,15.00,0.00,29.91,M,6.21,27.00,FEW,OVC,M,M,2500.00,M,M,M,M,M,M,M,M,M,M,84.57,ROAH 202308Z 09015G27KT 9999 FEW025 OVC/// 27/22 Q1013 RMK 1CU025 A2994
RJAF,2020-10-20 23:10,137.9228,36.1667,44.60,42.80,93.35,M,1.00,0.00,30.33,M,3.73,M,FEW,SCT,M,M,200.00,1500.00,M,M,VCFG,M,M,M,M,M,M,M,RJAF 202310Z VRB01KT 6000 VCFG FEW002 SCT015 07/06 Q1027 RMK 1ST002 3CU015 A3035
RJFG,2020-10-20 23:10,130.9917,30.6050,71.60,60.80,68.75,80.00,8.00,0.00,30.09,M,6.21,M,FEW,M,M,M,2500.00,M,M,M,M,M,M,M,M,M,M,M,RJFG 202310Z 08008KT 030V120 9999 FEW025 22/16 Q1019 RMK 1CU025 A3012
ROYN,2020-10-20 23:16,122.9780,24.4670,78.80,77.00,94.23,60.00,19.00,0.00,29.85,M,1.86,M,FEW,SCT,BKN,M,1600.00,1900.00,2800.00,M,-RA BR,M,M,M,M,M,M,M,ROYN 202316Z AUTO 06019KT 3000 -RA BR FEW016 SCT019 BKN028 26/25 Q1011 RMK A2987
RJAW,2020-10-20 23:21,141.3227,24.7840,78.80,75.20,88.75,160.00,15.00,0.00,29.80,M,6.21,26.00,FEW,BKN,FEW,BKN,1000.00,1500.00,1500.00,10000.00,-SHRA,M,M,M,M,M,M,M,RJAW 202321Z 16015G26KT 9999 -SHRA FEW010 BKN015 FEW015TCU BKN100 26/24 Q1009 RMK 1CU010 6CU015 1TCU015 7AC100 A2982 TCU 10KM W MOV N
ROYN,2020-10-20 23:21,122.9780,24.4670,80.60,77.00,88.83,60.00,19.00,0.00,29.85,M,6.21,M,SCT,BKN,BKN,M,1800.00,2800.00,3100.00,M,M,M,M,M,M,M,M,87.59,ROYN 202321Z AUTO 06019KT 9999 SCT018 BKN028 BKN031 27/25 Q1011 RMK A2987
RJAA,2020-10-20 23:30,140.3856,35.7653,60.80,53.60,77.14,350.00,9.00,0.00,30.33,M,6.21,M,FEW,M,M,M,3000.00,M,M,M,M,M,M,M,M,M,M,M,RJAA 202330Z 35009KT 9999 FEW030 16/12 Q1027 NOSIG RMK 1CU030 A3033
RJAF,2020-10-20 23:30,137.9228,36.1667,48.20,44.60,87.28,M,1.00,0.00,30.33,M,4.97,M,FEW,M,M,M,300.00,M,M,M,M,M,M,M,M,M,M,M,RJAF 202330Z VRB01KT 8000 FEW003 09/07 Q1027
RJBT,2020-10-20 23:30,134.7869,35.5128,51.80,51.80,100.00,230.00,3.00,0.00,30.24,M,0.12,M,FEW,BKN,M,M,0.00,200.00,M,M,FG,M,M,M,M,M,M,M,RJBT 202330Z 23003KT 170V260 0200 FG FEW000 BKN002 11/11 Q1024
RJCC,2020-10-20 23:30,141.6926,42.7742,46.40,41.00,81.34,M,2.00,0.00,30.36,M,6.21,M,NSC,M,M,M,M,M,M,M,PRFG,M,M,M,M,M,M,M,RJCC 202330Z VRB02KT 9999 PRFG NSC 08/05 Q1028 RMK A3038 FG SE
RJCN,2020-10-20 23:30,144.9600,43.5775,51.80,39.20,61.99,230.00,5.00,0.00,30.36,M,6.21,M,FEW,M,M,M,3000.00,M,M,M,M,M,M,M,M,M,M,M,RJCN 202330Z 23005KT 9999 FEW030 11/04 Q1028
RJCW,2020-10-20 23:30,141.8022,45.4044,50.00,42.80,76.18,170.00,6.00,0.00,30.30,M,6.21,M,FEW,M,M,M,1500.00,M,M,M,M,M,M,M,M,M,M,M,RJCW 202330Z 17006KT 9999 FEW015 10/06 Q1026
RJFF,2020-10-20 23:30,130.4517,33.5844,64.40,50.00,59.50,110.00,3.00,0.00,30.12,M,6.21,M,M,M,M,M,M,M,M,M,M,M,M,M,M,M,M,M,RJFF 202330Z 11003KT 070V160 CAVOK 18/10 Q1020 NOSIG RMK A3014
RJBB,2020-10-20 23:30,135.2328,34.4342,64.40,55.40,72.56,60.00,11.00,0.00,30.24,M,6.21,M,FEW,SCT,M,M,3000.00,M,M,M,M,M,M,M,M,M,M,M,RJBB 202330Z 06011KT 9999 FEW030 SCT/// 18/13 Q1024 NOSIG
RJGG,2020-10-20 23:30,136.8054,34.8584,60.80,51.80,72.20,360.00,6.00,0.00,30.27,M,6.21,M,FEW,M,M,M,3000.00,M,M,M,M,M,M,M,M,M,M,M,RJGG 202330Z 36006KT 9999 FEW030 16/11 Q1025 NOSIG
RJTF,2020-10-20 23:30,139.5281,35.6717,60.80,50.00,67.54,10.00,9.00,0.00,30.33,M,6.21,M,FEW,M,M,M,4000.00,M,M,M,M,M,M,M,M,M,M,M,RJTF 202330Z 01009KT 9999 FEW040 16/10 Q1027
RJTT,2020-10-20 23:30,139.7811,35.5533,60.80,50.00,67.54,10.00,15.00,0.00,30.30,M,6.21,M,FEW,M,M,M,3000.00,M,M,M,M,M,M,M,M,M,M,M,RJTT 202330Z 01015KT 9999 FEW030 16/10 Q1026 NOSIG RMK 1CU030 A3032
RJFG,2020-10-20 23:30,130.9917,30.6050,73.40,62.60,68.94,90.00,10.00,0.00,30.12,M,6.21,M,FEW,M,M,M,2500.00,M,M,M,M,M,M,M,M,M,M,M,RJFG 202330Z 09010KT 050V120 9999 FEW025 23/17 Q1020
RJTI,2020-10-20 23:30,139.8500,35.6300,60.80,50.00,67.54,10.00,7.00,0.00,30.33,M,6.21,M,FEW,M,M,M,3000.00,M,M,M,M,M,M,M,M,M,M,M,RJTI 202330Z 01007KT 340V040 9999 FEW030 16/10 Q1027
ROAH,2020-10-20 23:30,127.6458,26.1958,80.60,69.80,69.71,80.00,15.00,0.00,29.91,M,6.21,25.00,FEW,OVC,M,M,2500.00,M,M,M,M,M,M,M,M,M,M,83.90,ROAH 202330Z 08015G25KT 9999 FEW025 OVC/// 27/21 Q1013 RMK 2CU025 A2994
RJSR,2020-10-20 23:33,140.3714,40.1919,42.80,42.80,100.00,M,1.00,0.00,30.36,M,0.56,M,FEW,BKN,M,M,100.00,200.00,M,M,FG,M,M,M,M,M,M,M,RJSR 202333Z VRB01KT 0900 R11/P2000N FG FEW001 BKN002 06/06 Q1028 RMK 1ST001 7ST002 A3036
RJSR,2020-10-20 23:38,140.3714,40.1919,42.80,42.80,100.00,M,1.00,0.00,30.36,M,0.99,M,FEW,SCT,M,M,100.00,300.00,M,M,BCFG BR,M,M,M,M,M,M,M,RJSR 202338Z VRB01KT 1600 BCFG BR FEW001 SCT003 06/06 Q1028 RMK 1ST001 4ST003 A3036
RJBT,2020-10-20 23:41,134.7869,35.5128,51.80,51.80,100.00,M,2.00,0.00,30.24,M,0.50,M,SCT,BKN,M,M,0.00,200.00,M,M,FG,M,M,M,M,M,M,M,RJBT 202341Z VRB02KT 0800 FG SCT000 BKN002 11/11 Q1024 RMK 3ST000 5ST002 A3024
RJOF,2020-10-20 23:51,131.5464,34.0344,69.80,53.60,56.38,100.00,10.00,0.00,30.15,M,6.21,M,FEW,SCT,M,M,2500.00,18000.00,M,M,M,M,M,M,M,M,M,M,RJOF 202351Z 10010KT 9999 FEW025 SCT180 21/12 Q1021 RMK 1CU025 3AC180 A3016
RJOI,2020-10-20 23:55,132.2357,34.1439,64.90,53.10,65.56,M,6.00,0.00,30.21,1023.10,6.21,M,FEW,BKN,BKN,M,2000.00,18000.00,23000.00,M,M,M,M,M,M,M,M,M,RJOI 202355Z VRB06KT 9999 FEW020 BKN180 BKN230 18/12 A3021 RMK SLP231 T01830117 10183 20122 50000
RJTY,2020-10-20 23:56,139.3485,35.7485,59.40,50.40,72.06,30.00,8.00,0.00,30.38,1029.20,10.00,M,SCT,M,M,M,5500.00,M,M,M,M,M,M,M,M,M,M,M,RJTY 202356Z AUTO 03008KT 10SM SCT055 15/10 A3038 RMK AO2 SLP292 T01520102 10164 20119 52009 FZRANO $
RODN,2020-10-20 23:56,127.7676,26.3556,80.80,69.30,68.08,90.00,15.00,0.00,29.95,1014.70,10.00,26.00,CLR,M,M,M,M,M,M,M,M,M,M,M,M,M,M,83.98,RODN 202356Z AUTO 09015G26KT 10SM CLR 27/21 A2995 RMK AO2 SLP147 60000 T02710207 10271 20256 52008 $
ROTM,2020-10-20 23:56,127.7565,26.2743,80.10,70.00,71.35,80.00,15.00,0.00,29.97,1013.30,6.21,21.00,FEW,OVC,M,M,2500.00,12000.00,M,M,M,M,M,M,M,M,M,83.28,ROTM 202356Z COR 08015G21KT 9999 FEW025 OVC120 27/21 A2997 RMK SLP133 WND WRNG SET T02670211 10267 20261 53007
