station,valid,lon,lat,tmpf,dwpf,relh,drct,sknt,p01i,alti,mslp,vsby,gust,skyc1,skyc2,skyc3,skyc4,skyl1,skyl2,skyl3,skyl4,wxcodes,ice_accretion_1hr,ice_accretion_3hr,ice_accretion_6hr,peak_wind_gust,peak_wind_drct,peak_wind_time,feel,metar
QFB,2020-10-20 00:00,128.7167,35.6500,44.60,44.60,100.00,290.00,2.00,0.00,30.43,M,0.25,M,CLR,M,M,M,M,M,M,M,FG,M,M,M,M,M,M,M,KQFB 200000Z AUTO 29002KT 0400 FG CLR 07/07 A3043 RMK A02 TSNO
QEN,2020-10-20 00:00,128.7500,37.6667,46.40,42.80,87.19,210.00,1.00,0.00,30.38,M,6.21,M,CLR,M,M,M,M,M,M,M,M,M,M,M,M,M,M,M,KQEN 200000Z AUTO 21001KT 9999 CLR 08/06 A3038 RMK A02 TSNO
QES,2020-10-20 00:00,126.4500,36.9667,66.20,53.60,63.82,M,M,0.00,M,M,1.74,M,BKN,M,M,M,900.00,M,M,M,BR,M,M,M,M,M,M,M,KQES 200000Z AUTO 2800 BR BKN009 19/12 / RMK A02 TSNO
QEJ,2020-10-20 00:00,127.9500,38.2000,41.00,41.00,100.00,100.00,1.00,0.00,30.39,M,1.24,M,OVC,M,M,M,200.00,M,M,M,DZ BR,M,M,M,M,M,M,M,KQEJ 200000Z AUTO 10001KT 2000 DZ BR OVC002 05/05 A3039 RMK A02 TSNO
QEI,2020-10-20 00:00,128.0667,37.9500,44.60,41.00,87.09,250.00,1.00,0.00,30.39,M,6.21,M,BKN,M,M,M,500.00,M,M,M,M,M,M,M,M,M,M,M,KQEI 200000Z AUTO 25001KT 9999 BKN005 07/05 A3039 RMK A02 TSNO
QEQ,2020-10-20 00:00,127.5500,37.8500,46.40,46.40,100.00,10.00,1.00,0.00,30.43,M,0.75,M,BKN,M,M,M,200.00,M,M,M,-RA BR,M,M,M,M,M,M,M,KQEQ 200000Z AUTO 01001KT 1200 -RA BR BKN002 08/08 A3043 RMK A02 TSNO
QEW,2020-10-20 00:00,128.1500,36.4000,50.00,42.80,76.18,10.00,1.00,0.00,30.38,M,5.59,M,CLR,M,M,M,M,M,M,M,HZ,M,M,M,M,M,M,M,KQEW 200000Z AUTO 01001KT 9000 HZ CLR 10/06 A3038 RMK A02 TSNO
QEP,2020-10-20 00:00,127.2667,37.4000,46.40,46.40,100.00,160.00,2.00,0.00,30.41,M,0.25,M,CLR,M,M,M,M,M,M,M,FG,M,M,M,M,M,M,M,KQEP 200000Z AUTO 16002KT 0400 FG CLR 08/08 A3041 RMK A02 TSNO
QFT,2020-10-20 00:00,127.3500,37.6000,48.20,44.60,87.28,20.00,2.00,0.00,30.39,M,M,M,BKN,M,M,M,400.00,M,M,M,,M,M,M,M,M,M,M,KQFT 200000Z AUTO 02002KT / // BKN004 09/07 A3039 RMK A02 TSNO
QFU,2020-10-20 00:00,126.9667,37.8000,46.40,46.40,100.00,0.00,0.00,0.00,30.42,M,0.25,M,CLR,M,M,M,M,M,M,M,FG,M,M,M,M,M,M,M,KQFU 200000Z AUTO 00000KT M0400 FG CLR 08/08 A3042 RMK A02 TSNO
QEX,2020-10-20 00:00,128.3000,36.1000,46.40,44.60,93.40,10.00,2.00,0.00,30.31,M,3.73,M,SCT,M,M,M,100.00,M,M,M,,M,M,M,M,M,M,M,KQEX 200000Z AUTO 01002KT 6000 // SCT001 08/07 A3031 RMK A02 TSNO
QFW,2020-10-20 00:00,127.8833,37.6667,42.80,42.80,100.00,10.00,1.00,0.00,30.41,M,3.73,M,OVC,M,M,M,300.00,M,M,M,,M,M,M,M,M,M,M,KQFW 200000Z AUTO 01001KT 6000 // OVC003 06/06 A3041 RMK A02 TSNO
QFV,2020-10-20 00:00,127.5000,38.0500,44.60,39.20,81.20,50.00,1.00,0.00,30.42,M,6.21,M,CLR,M,M,M,M,M,M,M,M,M,M,M,M,M,M,M,KQFV 200000Z AUTO 05001KT 9999 CLR 07/04 A3042 RMK A02 TSNO
RKJB,2020-10-20 00:00,126.3800,34.9800,57.20,50.00,76.82,100.00,5.00,0.00,30.33,M,2.98,M,NSC,M,M,M,M,M,M,M,BR,M,M,M,M,M,M,M,RKJB 200000Z 10005KT 4800 BR NSC 14/10 Q1027 BECMG 6000 NSW
RKPC,2020-10-20 00:00,126.4930,33.5113,66.20,59.00,77.60,100.00,11.00,0.00,30.30,M,6.21,M,FEW,M,M,M,3000.00,M,M,M,M,M,M,M,M,M,M,M,RKPC 200000Z 10011KT 9999 FEW030 19/15 Q1026 NOSIG
RKNY,2020-10-20 00:00,128.6692,38.0613,64.40,44.60,48.55,200.00,3.00,0.00,30.33,M,6.21,M,M,M,M,M,M,M,M,M,M,M,M,M,M,M,M,M,RKNY 200000Z 20003KT CAVOK 18/07 Q1027 NOSIG
RKTN,2020-10-20 00:00,128.6589,35.8941,53.60,48.20,81.87,110.00,1.00,0.00,30.36,M,6.21,M,M,M,M,M,M,M,M,M,M,M,M,M,M,M,M,M,RKTN 200000Z 11001KT CAVOK 12/09 Q1028
RKTU,2020-10-20 00:00,127.4991,36.7166,46.40,46.40,100.00,130.00,1.00,0.00,30.39,M,0.06,M,SCT,SCT,M,M,0.00,300.00,M,M,FG,M,M,M,M,M,M,M,RKTU 200000Z 13001KT 0100 R24/0075 FG SCT000 SCT003 08/08 Q1029
RKPK,2020-10-20 00:00,128.9382,35.1795,59.00,48.20,67.33,360.00,4.00,0.00,30.36,M,6.21,M,M,M,M,M,M,M,M,M,M,M,M,M,M,M,M,M,RKPK 200000Z 36004KT CAVOK 15/09 Q1028
RKSI,2020-10-20 00:00,126.4500,37.4667,53.60,53.60,100.00,60.00,4.00,0.00,30.36,M,0.03,M,VV ,M,M,M,100.00,M,M,M,FG,M,M,M,M,M,M,M,RKSI 200000Z 06004KT 040V100 0050 R15L/0200N R15R/0200N R34/0175N FG VV001 12/12 Q1028 NOSIG
RKSM,2020-10-20 00:00,127.1139,37.4458,55.40,50.00,81.99,200.00,3.00,0.00,30.39,M,1.74,M,FEW,M,M,M,0.00,M,M,M,BR,M,M,M,M,M,M,M,RKSM 200000Z 20003KT 2800 BR FEW000 13/10 A3039
RKSS,2020-10-20 00:00,126.7906,37.5583,51.80,51.80,100.00,320.00,3.00,0.00,30.39,M,0.12,M,VV ,M,M,M,100.00,M,M,M,FG,M,M,M,M,M,M,M,RKSS 200000Z 32003KT 290V010 0200 R14R/0500N R14L/0750D FG VV001 11/11 Q1029 BECMG 1000 BR
QFB,2020-10-20 00:10,128.7167,35.6500,46.40,44.60,93.40,320.00,2.00,0.00,30.43,M,0.75,M,BKN,M,M,M,100.00,M,M,M,BR,M,M,M,M,M,M,M,KQFB 200010Z AUTO 32002KT 1200 BR BKN001 08/07 A3043 RMK A02 TSNO
QEN,2020-10-20 00:10,128.7500,37.6667,48.20,41.00,76.01,220.00,2.00,0.00,30.39,M,6.21,M,CLR,M,M,M,M,M,M,M,M,M,M,M,M,M,M,M,KQEN 200010Z AUTO 22002KT 9999 CLR 09/05 A3039 RMK A02 TSNO
QES,2020-10-20 00:10,126.4500,36.9667,66.20,53.60,63.82,M,M,0.00,M,M,1.99,M,SCT,M,M,M,900.00,M,M,M,BR,M,M,M,M,M,M,M,KQES 200010Z AUTO 3200 BR SCT009 19/12 / RMK A02 TSNO
QEJ,2020-10-20 00:10,127.9500,38.2000,42.80,41.00,93.30,60.00,1.00,0.00,30.39,M,2.98,M,BKN,M,M,M,200.00,M,M,M,BR,M,M,M,M,M,M,M,KQEJ 200010Z AUTO 06001KT 4800 BR BKN002 06/05 A3039 RMK A02 TSNO
QEI,2020-10-20 00:10,128.0667,37.9500,46.40,41.00,81.34,160.00,1.00,0.00,30.40,M,6.21,M,BKN,M,M,M,500.00,M,M,M,M,M,M,M,M,M,M,M,KQEI 200010Z AUTO 16001KT 9999 BKN005 08/05 A3040 RMK A02 TSNO
QEQ,2020-10-20 00:10,127.5500,37.8500,46.40,46.40,100.00,30.00,4.00,0.00,30.43,M,1.24,M,BKN,M,M,M,200.00,M,M,M,BR,M,M,M,M,M,M,44.24,KQEQ 200010Z AUTO 03004KT 2000 BR BKN002 08/08 A3043 RMK A02 TSNO
QEW,2020-10-20 00:10,128.1500,36.4000,51.80,44.60,76.34,120.00,1.00,0.00,30.38,M,6.21,M,CLR,M,M,M,M,M,M,M,M,M,M,M,M,M,M,M,KQEW 200010Z AUTO 12001KT 9999 CLR 11/07 A3038 RMK A02 TSNO
QEP,2020-10-20 00:10,127.2667,37.4000,48.20,48.20,100.00,170.00,1.00,0.00,30.41,M,0.25,M,OVC,M,M,M,100.00,M,M,M,FG,M,M,M,M,M,M,M,KQEP 200010Z AUTO 17001KT 0400 FG OVC001 09/09 A3041 RMK A02 TSNO
QFU,2020-10-20 00:10,126.9667,37.8000,48.20,46.40,93.45,140.00,1.00,0.00,30.43,M,0.25,M,CLR,M,M,M,M,M,M,M,FG,M,M,M,M,M,M,M,KQFU 200010Z AUTO 14001KT M0400 FG CLR 09/08 A3043 RMK A02 TSNO
QEX,2020-10-20 00:10,128.3000,36.1000,46.40,44.60,93.40,360.00,2.00,0.00,30.31,M,4.97,M,FEW,M,M,M,100.00,M,M,M,,M,M,M,M,M,M,M,KQEX 200010Z AUTO 36002KT 8000 // FEW001 08/07 A3031 RMK A02 TSNO
QFV,2020-10-20 00:10,127.5000,38.0500,46.40,41.00,81.34,100.00,1.00,0.00,30.42,M,6.21,M,CLR,M,M,M,M,M,M,M,M,M,M,M,M,M,M,M,KQFV 200010Z AUTO 10001KT 9999 CLR 08/05 A3042 RMK A02 TSNO
RKSS,2020-10-20 00:10,126.7906,37.5583,51.80,51.80,100.00,330.00,3.00,0.00,30.36,M,0.31,M,BKN,M,M,M,100.00,M,M,M,FG,M,M,M,M,M,M,M,RKSS 200010Z 33003KT 270V040 0500 R14R/0550N R14L/1000U FG BKN001 11/11 Q1028 BECMG 1000 BR
QFT,2020-10-20 00:10,127.3500,37.6000,48.20,44.60,87.28,360.00,3.00,0.00,30.39,M,M,M,BKN,M,M,M,500.00,M,M,M,,M,M,M,M,M,M,47.21,KQFT 200010Z AUTO 36003KT / // BKN005 09/07 A3039 RMK A02 TSNO
QFW,2020-10-20 00:10,127.8833,37.6667,44.60,42.80,93.35,340.00,1.00,0.00,30.42,M,4.97,M,OVC,M,M,M,300.00,M,M,M,,M,M,M,M,M,M,M,KQFW 200010Z AUTO 34001KT 8000 // OVC003 07/06 A3042 RMK A02 TSNO
RKTI,2020-10-20 00:11,127.8853,37.0300,46.40,46.40,100.00,130.00,1.00,0.00,30.38,M,0.12,M,SCT,BKN,M,M,0.00,200.00,M,M,FG,M,M,M,M,M,M,M,RKTI 200011Z 13001KT 0200 R36/200 FG SCT000 BKN002 08/08 A3038 RMK CIG002 FG SCT000
RKJB,2020-10-20 00:15,126.3800,34.9800,59.00,50.00,72.01,100.00,5.00,0.00,30.33,M,3.73,M,NSC,M,M,M,M,M,M,M,M,M,M,M,M,M,M,M,RKJB 200015Z 10005KT 6000 NSC 15/10 Q1027 NOSIG
RKTF,2020-10-20 00:15,127.3720,36.3720,50.00,48.20,93.50,170.00,1.00,0.00,30.37,M,3.73,M,CLR,M,M,M,M,M,M,M,BR,M,M,M,M,M,M,M,RKTF 200015Z 17001KT 6000 BR SKC 10/09 A3037
RKTI,2020-10-20 00:16,127.8853,37.0300,M,M,M,130.00,1.00,0.00,30.38,M,M,M,M,M,M,M,M,M,M,M,M,M,M,M,M,M,M,M,RKTI 200016Z 13001KT 300 R36/400 FG SCT000 BKN002 08/08 A3038 RMK CIG002 FG SCT000
RKTS,2020-10-20 00:16,128.1572,36.4083,48.20,48.20,100.00,150.00,2.00,0.00,30.44,M,0.99,M,BKN,M,M,M,200.00,M,M,M,BR,M,M,M,M,M,M,M,RKTS 200016Z 15002KT 1600 BR BKN002 09/09 A3044 RMK CIG002
RKSS,2020-10-20 00:19,126.7906,37.5583,53.60,53.60,100.00,10.00,3.00,0.00,30.36,M,0.50,M,BKN,M,M,M,300.00,M,M,M,FG,M,M,M,M,M,M,M,RKSS 200019Z 01003KT 320V070 0800 R14R/1100U R14L/1000N FG BKN003 12/12 Q1028 BECMG 1000 BR
RKSG,2020-10-20 00:19,127.0311,36.9622,50.00,M,M,90.00,3.00,0.00,30.37,1028.80,0.25,M,BKN,M,M,M,100.00,M,M,M,FG,M,M,M,M,M,M,M,RKSG 200019Z 09003KT 1/4SM R32/2000V3000FT FG BKN001 10/ A3037 RMK AO2A SLP288 $
QFB,2020-10-20 00:20,128.7167,35.6500,46.40,46.40,100.00,310.00,3.00,0.00,30.42,M,2.98,M,BKN,M,M,M,100.00,M,M,M,BR,M,M,M,M,M,M,45.15,KQFB 200020Z AUTO 31003KT 4800 BR BKN001 08/08 A3042 RMK A02 TSNO
QEN,2020-10-20 00:20,128.7500,37.6667,48.20,42.80,81.47,220.00,1.00,0.00,30.38,M,6.21,M,CLR,M,M,M,M,M,M,M,M,M,M,M,M,M,M,M,KQEN 200020Z AUTO 22001KT 9999 CLR 09/06 A3038 RMK A02 TSNO
QEI,2020-10-20 00:20,128.0667,37.9500,46.40,41.00,81.34,180.00,1.00,0.00,30.40,M,6.21,M,SCT,M,M,M,600.00,M,M,M,M,M,M,M,M,M,M,M,KQEI 200020Z AUTO 18001KT 9999 SCT006 08/05 A3040 RMK A02 TSNO
QEW,2020-10-20 00:20,128.1500,36.4000,51.80,42.80,71.26,60.00,1.00,0.00,30.38,M,6.21,M,CLR,M,M,M,M,M,M,M,M,M,M,M,M,M,M,M,KQEW 200020Z AUTO 06001KT 9999 CLR 11/06 A3038 RMK A02 TSNO
QFV,2020-10-20 00:20,127.5000,38.0500,48.20,41.00,76.01,70.00,1.00,0.00,30.42,M,6.21,M,CLR,M,M,M,M,M,M,M,M,M,M,M,M,M,M,M,KQFV 200020Z AUTO 07001KT 9999 CLR 09/05 A3042 RMK A02 TSNO
QES,2020-10-20 00:20,126.4500,36.9667,66.20,53.60,63.82,M,M,0.00,M,M,1.99,M,FEW,M,M,M,400.00,M,M,M,BR,M,M,M,M,M,M,M,KQES 200020Z AUTO 3200 BR FEW004 19/12 / RMK A02 TSNO
QEJ,2020-10-20 00:20,127.9500,38.2000,44.60,41.00,87.09,270.00,1.00,0.00,30.39,M,4.97,M,SCT,M,M,M,200.00,M,M,M,M,M,M,M,M,M,M,M,KQEJ 200020Z AUTO 27001KT 8000 SCT002 07/05 A3039 RMK A02 TSNO
QEQ,2020-10-20 00:20,127.5500,37.8500,48.20,48.20,100.00,60.00,2.00,0.00,30.43,M,1.24,M,SCT,SCT,M,M,200.00,300.00,M,M,BR,M,M,M,M,M,M,M,KQEQ 200020Z AUTO 06002KT 2000 BR SCT002 SCT003 09/09 A3043 RMK A02 TSNO
QEP,2020-10-20 00:20,127.2667,37.4000,48.20,48.20,100.00,0.00,0.00,0.00,30.41,M,0.50,M,OVC,M,M,M,100.00,M,M,M,FG,M,M,M,M,M,M,M,KQEP 200020Z AUTO 00000KT 0800 FG OVC001 09/09 A3041 RMK A02 TSNO
QFT,2020-10-20 00:20,127.3500,37.6000,48.20,44.60,87.28,10.00,3.00,0.00,30.39,M,M,M,SCT,M,M,M,400.00,M,M,M,,M,M,M,M,M,M,47.21,KQFT 200020Z AUTO 01003KT / // SCT004 09/07 A3039 RMK A02 TSNO
QFU,2020-10-20 00:20,126.9667,37.8000,46.40,46.40,100.00,30.00,1.00,0.00,30.43,M,0.25,M,CLR,M,M,M,M,M,M,M,FG,M,M,M,M,M,M,M,KQFU 200020Z AUTO 03001KT M0400 FG CLR 08/08 A3043 RMK A02 TSNO
QEX,2020-10-20 00:20,128.3000,36.1000,48.20,44.60,87.28,30.00,3.00,0.00,30.31,M,6.21,M,CLR,M,M,M,M,M,M,M,M,M,M,M,M,M,M,47.21,KQEX 200020Z AUTO 03003KT 9999 CLR 09/07 A3031 RMK A02 TSNO
QFW,2020-10-20 00:20,127.8833,37.6667,44.60,42.80,93.35,310.00,1.00,0.00,30.42,M,6.21,M,BKN,M,M,M,300.00,M,M,M,M,M,M,M,M,M,M,M,KQFW 200020Z AUTO 31001KT 9999 BKN003 07/06 A3042 RMK A02 TSNO
RKTE,2020-10-20 00:23,127.5001,36.5682,48.20,48.20,100.00,180.00,3.00,0.00,30.34,M,0.99,M,FEW,SCT,M,M,0.00,500.00,M,M,BR,M,M,M,M,M,M,47.21,RKTE 200023Z 18003KT 1600 1600 BR FEW000 SCT005 09/09 A3034 RMK FG FEW000
RKSM,2020-10-20 00:23,127.1139,37.4458,57.20,51.80,82.12,200.00,2.00,0.00,30.39,M,1.99,M,FEW,M,M,M,0.00,M,M,M,BR,M,M,M,M,M,M,M,RKSM 200023Z 20002KT 3200 BR FEW000 14/11 A3039 RMK FG FEW000
RKTI,2020-10-20 00:23,127.8853,37.0300,48.20,46.40,93.45,140.00,1.00,0.00,30.38,M,0.25,M,SCT,BKN,M,M,0.00,200.00,M,M,FG,M,M,M,M,M,M,M,RKTI 200023Z 14001KT 0400 R36/550 FG SCT000 BKN002 09/08 A3038 RMK CIG002 FG SCT000
RKTS,2020-10-20 00:23,128.1572,36.4083,48.20,48.20,100.00,110.00,2.00,0.00,30.44,M,1.99,M,SCT,M,M,M,200.00,M,M,M,BR,M,M,M,M,M,M,M,RKTS 200023Z 11002KT 3200 BR SCT002 09/09 A3044
RKJK,2020-10-20 00:26,126.6220,35.8994,57.20,51.80,82.12,110.00,3.00,0.00,30.34,1027.80,2.50,M,CLR,M,M,M,M,M,M,M,HZ,M,M,M,M,M,M,M,RKJK 200026Z 11003KT 2 1/2SM HZ CLR 14/11 A3034 RMK AO2A SLP278 $
RKSO,2020-10-20 00:28,127.0296,37.0906,51.80,51.80,100.00,80.00,3.00,0.00,30.36,1028.40,0.25,M,VV ,M,M,M,500.00,M,M,M,FG,M,M,M,M,M,M,M,RKSO 200028Z 08003KT 1/4SM FG VV005 11/11 A3036 RMK AO2A SLP284 RVRNO $
QFB,2020-10-20 00:30,128.7167,35.6500,48.20,48.20,100.00,10.00,2.00,0.00,30.42,M,5.59,M,SCT,M,M,M,100.00,M,M,M,M,M,M,M,M,M,M,M,KQFB 200030Z AUTO 01002KT 9000 SCT001 09/09 A3042 RMK A02 TSNO
QEN,2020-10-20 00:30,128.7500,37.6667,50.00,42.80,76.18,200.00,3.00,0.00,30.38,M,6.21,M,CLR,M,M,M,M,M,M,M,M,M,M,M,M,M,M,M,KQEN 200030Z AUTO 20003KT 9999 CLR 10/06 A3038 RMK A02 TSNO
QES,2020-10-20 00:30,126.4500,36.9667,66.20,53.60,63.82,M,M,0.00,M,M,1.99,M,SCT,M,M,M,400.00,M,M,M,BR,M,M,M,M,M,M,M,KQES 200030Z AUTO 3200 BR SCT004 19/12 / RMK A02 TSNO
QEJ,2020-10-20 00:30,127.9500,38.2000,44.60,41.00,87.09,270.00,1.00,0.00,30.39,M,5.59,M,FEW,M,M,M,200.00,M,M,M,HZ,M,M,M,M,M,M,M,KQEJ 200030Z AUTO 27001KT 9000 HZ FEW002 07/05 A3039 RMK A02 TSNO
QEI,2020-10-20 00:30,128.0667,37.9500,48.20,41.00,76.01,200.00,1.00,0.00,30.39,M,6.21,M,FEW,M,M,M,600.00,M,M,M,M,M,M,M,M,M,M,M,KQEI 200030Z AUTO 20001KT 9999 FEW006 09/05 A3039 RMK A02 TSNO
QEQ,2020-10-20 00:30,127.5500,37.8500,46.40,48.20,M,60.00,5.00,0.00,30.42,M,1.74,M,FEW,FEW,M,M,200.00,300.00,M,M,BR,M,M,M,M,M,M,M,KQEQ 200030Z AUTO 06005KT 2800 BR FEW002 FEW003 08/09 A3042 RMK A02 TSNO
QEW,2020-10-20 00:30,128.1500,36.4000,51.80,42.80,71.26,340.00,1.00,0.00,30.38,M,6.21,M,CLR,M,M,M,M,M,M,M,M,M,M,M,M,M,M,M,KQEW 200030Z AUTO 34001KT 9999 CLR 11/06 A3038 RMK A02 TSNO
QEP,2020-10-20 00:30,127.2667,37.4000,48.20,48.20,100.00,80.00,1.00,0.00,30.41,M,0.50,M,OVC,M,M,M,100.00,M,M,M,FG,M,M,M,M,M,M,M,KQEP 200030Z AUTO 08001KT 0800 FG OVC001 09/09 A3041 RMK A02 TSNO
QFT,2020-10-20 00:30,127.3500,37.6000,50.00,44.60,81.61,30.00,2.00,0.00,30.39,M,M,M,FEW,M,M,M,400.00,M,M,M,,M,M,M,M,M,M,M,KQFT 200030Z AUTO 03002KT / // FEW004 10/07 A3039 RMK A02 TSNO
QFU,2020-10-20 00:30,126.9667,37.8000,48.20,46.40,93.45,50.00,2.00,0.00,30.43,M,0.25,M,CLR,M,M,M,M,M,M,M,FG,M,M,M,M,M,M,M,KQFU 200030Z AUTO 05002KT M0400 FG CLR 09/08 A3043 RMK A02 TSNO
QEX,2020-10-20 00:30,128.3000,36.1000,48.20,44.60,87.28,30.00,4.00,0.00,30.31,M,6.21,M,CLR,M,M,M,M,M,M,M,M,M,M,M,M,M,M,46.34,KQEX 200030Z AUTO 03004KT 9999 CLR 09/07 A3031 RMK A02 TSNO
QFW,2020-10-20 00:30,127.8833,37.6667,46.40,42.80,87.19,90.00,1.00,0.00,30.41,M,6.21,M,BKN,M,M,M,400.00,M,M,M,M,M,M,M,M,M,M,M,KQFW 200030Z AUTO 09001KT 9999 BKN004 08/06 A3041 RMK A02 TSNO
QFV,2020-10-20 00:30,127.5000,38.0500,50.00,41.00,71.07,80.00,1.00,0.00,30.42,M,6.21,M,CLR,M,M,M,M,M,M,M,M,M,M,M,M,M,M,M,KQFV 200030Z AUTO 08001KT 9999 CLR 10/05 A3042 RMK A02 TSNO
RKSI,2020-10-20 00:30,126.4500,37.4667,53.60,53.60,100.00,70.00,4.00,0.00,30.36,M,0.09,M,VV ,M,M,M,100.00,M,M,M,FG,M,M,M,M,M,M,M,RKSI 200030Z 07004KT 0150 R15L/0375U R15R/0375N R34/0700N FG VV001 12/12 Q1028 NOSIG
RKTB,2020-10-20 00:33,126.0500,37.0167,60.80,57.20,87.92,100.00,8.00,0.00,30.42,M,4.97,M,FEW,M,M,M,700.00,M,M,M,BR,M,M,M,M,M,M,M,RKTB 200033Z 10008KT 8000 BR FEW007 16/14 A3042
RKTI,2020-10-20 00:33,127.8853,37.0300,48.20,48.20,100.00,360.00,1.00,0.00,30.38,M,0.62,M,SCT,M,M,M,300.00,M,M,M,BR,M,M,M,M,M,M,M,RKTI 200033Z 36001KT 1000 R36/1400 BR SCT003 09/09 A3038
RKSG,2020-10-20 00:34,127.0311,36.9622,51.80,50.00,93.55,90.00,3.00,0.00,30.37,1028.80,0.38,M,FEW,M,M,M,100.00,M,M,M,FG,M,M,M,M,M,M,M,RKSG 200034Z 09003KT 3/8SM R32/4500V5000FT FG FEW001 11/10 A3037 RMK AO2A SLP288 $
RKSW,2020-10-20 00:34,127.0071,37.2394,57.20,57.20,100.00,110.00,2.00,0.00,30.39,M,1.99,M,CLR,M,M,M,M,M,M,M,BR,M,M,M,M,M,M,M,RKSW 200034Z 11002KT 3200 BR SKC 14/14 A3039
RKTS,2020-10-20 00:35,128.1572,36.4083,50.00,50.00,100.00,130.00,2.00,0.00,30.43,M,2.98,M,SCT,M,M,M,200.00,M,M,M,BR,M,M,M,M,M,M,M,RKTS 200035Z 13002KT 4800 BR SCT002 10/10 A3043
RKSS,2020-10-20 00:37,126.7906,37.5583,53.60,53.60,100.00,320.00,4.00,0.00,30.36,M,0.93,M,SCT,M,M,M,1500.00,M,M,M,BR,M,M,M,M,M,M,M,RKSS 200037Z 32004KT 290V010 1500 BR SCT015 12/12 Q1028 BECMG 3000
RKTU,2020-10-20 00:37,127.4991,36.7166,48.20,48.20,100.00,80.00,1.00,0.00,30.39,M,0.25,M,SCT,SCT,M,M,0.00,300.00,M,M,FG,M,M,M,M,M,M,M,RKTU 200037Z 08001KT 0400 R24/0200 FG SCT000 SCT003 09/09 Q1029 RMK FG SCT000
RKTI,2020-10-20 00:39,127.8853,37.0300,48.20,48.20,100.00,300.00,1.00,0.00,30.38,M,0.75,M,SCT,M,M,M,300.00,M,M,M,BR,M,M,M,M,M,M,M,RKTI 200039Z 30001KT 1200 R36/1600 BR SCT003 09/09 A3038
QFB,2020-10-20 00:40,128.7167,35.6500,50.00,48.20,93.50,310.00,1.00,0.00,30.42,M,6.21,M,FEW,M,M,M,100.00,M,M,M,M,M,M,M,M,M,M,M,KQFB 200040Z AUTO 31001KT 9999 FEW001 10/09 A3042 RMK A02 TSNO
QEN,2020-10-20 00:40,128.7500,37.6667,50.00,42.80,76.18,230.00,2.00,0.00,30.38,M,6.21,M,CLR,M,M,M,M,M,M,M,M,M,M,M,M,M,M,M,KQEN 200040Z AUTO 23002KT 9999 CLR 10/06 A3038 RMK A02 TSNO
QES,2020-10-20 00:40,126.4500,36.9667,66.20,53.60,63.82,M,M,0.00,M,M,1.99,M,FEW,M,M,M,400.00,M,M,M,BR,M,M,M,M,M,M,M,KQES 200040Z AUTO 3200 BR FEW004 19/12 / RMK A02 TSNO
QEJ,2020-10-20 00:40,127.9500,38.2000,44.60,41.00,87.09,280.00,1.00,0.00,30.39,M,4.97,M,CLR,M,M,M,M,M,M,M,M,M,M,M,M,M,M,M,KQEJ 200040Z AUTO 28001KT 8000 CLR 07/05 A3039 RMK A02 TSNO
QEI,2020-10-20 00:40,128.0667,37.9500,48.20,41.00,76.01,200.00,2.00,0.00,30.39,M,6.21,M,CLR,M,M,M,M,M,M,M,M,M,M,M,M,M,M,M,KQEI 200040Z AUTO 20002KT 9999 CLR 09/05 A3039 RMK A02 TSNO
QEQ,2020-10-20 00:40,127.5500,37.8500,48.20,48.20,100.00,60.00,3.00,0.00,30.42,M,1.99,M,FEW,M,M,M,300.00,M,M,M,BR,M,M,M,M,M,M,47.21,KQEQ 200040Z AUTO 06003KT 3200 BR FEW003 09/09 A3042 RMK A02 TSNO
QEW,2020-10-20 00:40,128.1500,36.4000,51.80,42.80,71.26,40.00,2.00,0.00,30.37,M,6.21,M,CLR,M,M,M,M,M,M,M,M,M,M,M,M,M,M,M,KQEW 200040Z AUTO 04002KT 9999 CLR 11/06 A3037 RMK A02 TSNO
QEP,2020-10-20 00:40,127.2667,37.4000,50.00,48.20,93.50,240.00,1.00,0.00,30.41,M,0.75,M,OVC,M,M,M,200.00,M,M,M,BR,M,M,M,M,M,M,M,KQEP 200040Z AUTO 24001KT 1200 BR OVC002 10/09 A3041 RMK A02 TSNO
QFT,2020-10-20 00:40,127.3500,37.6000,51.80,46.40,81.74,30.00,2.00,0.00,30.38,M,M,M,FEW,M,M,M,500.00,M,M,M,,M,M,M,M,M,M,M,KQFT 200040Z AUTO 03002KT / // FEW005 11/08 A3038 RMK A02 TSNO
QFU,2020-10-20 00:40,126.9667,37.8000,48.20,48.20,100.00,70.00,1.00,0.00,30.43,M,0.25,M,CLR,M,M,M,M,M,M,M,FG,M,M,M,M,M,M,M,KQFU 200040Z AUTO 07001KT M0400 FG CLR 09/09 A3043 RMK A02 TSNO
QEX,2020-10-20 00:40,128.3000,36.1000,50.00,44.60,81.61,40.00,4.00,0.00,30.31,M,6.21,M,CLR,M,M,M,M,M,M,M,M,M,M,M,M,M,M,M,KQEX 200040Z AUTO 04004KT 9999 CLR 10/07 A3031 RMK A02 TSNO
QFW,2020-10-20 00:40,127.8833,37.6667,48.20,41.00,76.01,60.00,1.00,0.00,30.41,M,6.21,M,FEW,M,M,M,500.00,M,M,M,M,M,M,M,M,M,M,M,KQFW 200040Z AUTO 06001KT 9999 FEW005 09/05 A3041 RMK A02 TSNO
QFV,2020-10-20 00:40,127.5000,38.0500,50.00,41.00,71.07,10.00,1.00,0.00,30.42,M,6.21,M,CLR,M,M,M,M,M,M,M,M,M,M,M,M,M,M,M,KQFV 200040Z AUTO 01001KT 9999 CLR 10/05 A3042 RMK A02 TSNO
RKSO,2020-10-20 00:41,127.0296,37.0906,51.80,51.80,100.00,50.00,3.00,0.00,30.36,1028.40,0.50,M,CLR,M,M,M,M,M,M,M,M,M,M,M,M,M,M,M,RKSO 200041Z 05003KT 1/2SM CLR 11/11 A3036 RMK AO2A SLP284
RKTI,2020-10-20 00:42,127.8853,37.0300,48.20,48.20,100.00,290.00,1.00,0.00,30.38,M,0.99,M,SCT,M,M,M,300.00,M,M,M,BR,M,M,M,M,M,M,M,RKTI 200042Z 29001KT 1600 BR SCT003 09/09 A3038
RKTU,2020-10-20 00:42,127.4991,36.7166,48.20,48.20,100.00,80.00,1.00,0.00,30.39,M,0.25,M,SCT,SCT,M,M,0.00,300.00,M,M,FG,M,M,M,M,M,M,M,RKTU 200042Z 08001KT 0400 R24/0200 FG SCT000 SCT003 09/09 Q1029 RMK FG SCT000
RKTU,2020-10-20 00:44,127.4991,36.7166,48.20,48.20,100.00,80.00,1.00,0.00,30.39,M,0.25,M,SCT,SCT,M,M,0.00,300.00,M,M,FG,M,M,M,M,M,M,M,RKTU 200044Z 08001KT 0400 FG SCT000 SCT003 09/09 Q1029 RMK FG SCT000
RKJK,2020-10-20 00:46,126.6220,35.8994,59.00,53.60,82.25,60.00,3.00,0.00,30.33,1027.50,3.00,M,CLR,M,M,M,M,M,M,M,HZ,M,M,M,M,M,M,M,RKJK 200046Z AUTO 06003KT 3SM HZ CLR 15/12 A3033 RMK AO2 SLP275 $
RKTE,2020-10-20 00:46,127.5001,36.5682,51.80,51.80,100.00,110.00,1.00,0.00,30.34,M,1.99,M,FEW,M,M,M,0.00,M,M,M,BR,M,M,M,M,M,M,M,RKTE 200046Z 11001KT 3200 BR FEW000 11/11 A3034 RMK FG FEW000
QFB,2020-10-20 00:50,128.7167,35.6500,51.80,48.20,87.47,300.00,2.00,0.00,30.41,M,6.21,M,CLR,M,M,M,M,M,M,M,M,M,M,M,M,M,M,M,KQFB 200050Z AUTO 30002KT 9999 CLR 11/09 A3041 RMK A02 TSNO
RKTU,2020-10-20 00:50,127.4991,36.7166,48.20,48.20,100.00,350.00,1.00,0.00,30.39,M,0.50,M,SCT,SCT,M,M,0.00,400.00,M,M,FG,M,M,M,M,M,M,M,RKTU 200050Z 35001KT 0800 R24/0900 FG SCT000 SCT004 09/09 Q1029 RMK FG SCT000
QEN,2020-10-20 00:50,128.7500,37.6667,51.80,44.60,76.34,200.00,2.00,0.00,30.38,M,6.21,M,CLR,M,M,M,M,M,M,M,M,M,M,M,M,M,M,M,KQEN 200050Z AUTO 20002KT 9999 CLR 11/07 A3038 RMK A02 TSNO
QES,2020-10-20 00:50,126.4500,36.9667,66.20,53.60,63.82,M,M,0.00,M,M,1.99,M,FEW,M,M,M,500.00,M,M,M,BR,M,M,M,M,M,M,M,KQES 200050Z AUTO 3200 BR FEW005 19/12 / RMK A02 TSNO
QEJ,2020-10-20 00:50,127.9500,38.2000,46.40,42.80,87.19,270.00,1.00,0.00,30.39,M,4.97,M,CLR,M,M,M,M,M,M,M,HZ,M,M,M,M,M,M,M,KQEJ 200050Z AUTO 27001KT 8000 HZ CLR 08/06 A3039 RMK A02 TSNO
QEI,2020-10-20 00:50,128.0667,37.9500,48.20,41.00,76.01,210.00,2.00,0.00,30.39,M,6.21,M,CLR,M,M,M,M,M,M,M,M,M,M,M,M,M,M,M,KQEI 200050Z AUTO 21002KT 9999 CLR 09/05 A3039 RMK A02 TSNO
QEQ,2020-10-20 00:50,127.5500,37.8500,48.20,50.00,M,60.00,3.00,0.00,30.42,M,1.99,M,FEW,M,M,M,400.00,M,M,M,BR,M,M,M,M,M,M,M,KQEQ 200050Z AUTO 06003KT 3200 BR FEW004 09/10 A3042 RMK A02 TSNO
QEW,2020-10-20 00:50,128.1500,36.4000,53.60,44.60,71.45,60.00,1.00,0.00,30.37,M,6.21,M,CLR,M,M,M,M,M,M,M,M,M,M,M,M,M,M,M,KQEW 200050Z AUTO 06001KT 9999 CLR 12/07 A3037 RMK A02 TSNO
QEP,2020-10-20 00:50,127.2667,37.4000,50.00,50.00,100.00,260.00,1.00,0.00,30.41,M,0.99,M,OVC,M,M,M,200.00,M,M,M,BR,M,M,M,M,M,M,M,KQEP 200050Z AUTO 26001KT 1600 BR OVC002 10/10 A3041 RMK A02 TSNO
QFT,2020-10-20 00:50,127.3500,37.6000,51.80,46.40,81.74,30.00,2.00,0.00,30.38,M,M,M,CLR,M,M,M,M,M,M,M,,M,M,M,M,M,M,M,KQFT 200050Z AUTO 03002KT / // CLR 11/08 A3038 RMK A02 TSNO
QFU,2020-10-20 00:50,126.9667,37.8000,48.20,48.20,100.00,20.00,1.00,0.00,30.42,M,0.25,M,CLR,M,M,M,M,M,M,M,FG,M,M,M,M,M,M,M,KQFU 200050Z AUTO 02001KT 0400 FG CLR 09/09 A3042 RMK A02 TSNO
QEX,2020-10-20 00:50,128.3000,36.1000,50.00,44.60,81.61,30.00,3.00,0.00,30.30,M,6.21,M,CLR,M,M,M,M,M,M,M,M,M,M,M,M,M,M,M,KQEX 200050Z AUTO 03003KT 9999 CLR 10/07 A3030 RMK A02 TSNO
QFW,2020-10-20 00:50,127.8833,37.6667,48.20,41.00,76.01,10.00,2.00,0.00,30.41,M,6.21,M,FEW,M,M,M,500.00,M,M,M,M,M,M,M,M,M,M,M,KQFW 200050Z AUTO 01002KT 9999 FEW005 09/05 A3041 RMK A02 TSNO
QFV,2020-10-20 00:50,127.5000,38.0500,51.80,42.80,71.26,130.00,1.00,0.00,30.42,M,6.21,M,CLR,M,M,M,M,M,M,M,M,M,M,M,M,M,M,M,KQFV 200050Z AUTO 13001KT 9999 CLR 11/06 A3042 RMK A02 TSNO
RKSG,2020-10-20 00:54,127.0311,36.9622,53.60,51.80,93.60,130.00,4.00,0.00,30.36,1028.40,0.50,M,CLR,M,M,M,M,M,M,M,FG,M,M,M,M,M,M,M,RKSG 200054Z 13004KT 1/2SM R32/3500V6000FT FG CLR 12/11 A3036 RMK AO2A SLP284 $
RKTI,2020-10-20 00:55,127.8853,37.0300,51.80,50.00,93.55,130.00,1.00,0.00,30.37,M,1.99,M,FEW,M,M,M,500.00,M,M,M,BR,M,M,M,M,M,M,M,RKTI 200055Z 13001KT 3200 BR FEW005 11/10 A3037
RKJK,2020-10-20 00:56,126.6220,35.8994,60.40,53.20,77.10,50.00,3.00,0.00,30.34,1027.80,3.00,M,CLR,M,M,M,M,M,M,M,HZ,M,M,M,M,M,M,M,RKJK 200056Z AUTO 05003KT 3SM HZ CLR 16/12 A3034 RMK AO2 SLP278 T01580118 $
RKSY,2020-10-20 00:58,126.9753,37.5241,59.90,49.80,69.22,0.00,0.00,0.00,30.35,1028.10,6.21,M,CLR,M,M,M,M,M,M,M,M,M,M,M,M,M,M,M,RKSY 200058Z AUTO 00000KT 9999 CLR 16/10 A3035 RMK AO2 SLP281 T01550099 $
RKSO,2020-10-20 00:58,127.0296,37.0906,53.40,53.20,99.27,0.00,0.00,0.00,30.36,1028.40,1.00,M,CLR,M,M,M,M,M,M,M,M,M,M,M,M,M,M,M,RKSO 200058Z 00000KT 1SM CLR 12/12 A3036 RMK AO2A SLP284 T01190118 $
QFB,2020-10-20 01:00,128.7167,35.6500,53.60,48.20,81.87,330.00,2.00,0.00,30.41,M,6.21,M,CLR,M,M,M,M,M,M,M,M,M,M,M,M,M,M,M,KQFB 200100Z AUTO 33002KT 9999 CLR 12/09 A3041 RMK A02 TSNO
RKTU,2020-10-20 01:00,127.4991,36.7166,46.40,46.40,100.00,130.00,1.00,0.00,30.39,M,0.12,M,SCT,SCT,M,M,0.00,300.00,M,M,FG,M,M,M,M,M,M,M,RKTU 200100Z 13001KT 0200 R24/0100 FG SCT000 SCT003 08/08 Q1029 RMK FG SCT000
QEN,2020-10-20 01:00,128.7500,37.6667,53.60,41.00,62.23,200.00,1.00,0.00,30.38,M,6.21,M,CLR,M,M,M,M,M,M,M,M,M,M,M,M,M,M,M,KQEN 200100Z AUTO 20001KT 9999 CLR 12/05 A3038 RMK A02 TSNO
QES,2020-10-20 01:00,126.4500,36.9667,66.20,53.60,63.82,M,M,0.00,M,M,2.49,M,CLR,M,M,M,M,M,M,M,BR,M,M,M,M,M,M,M,KQES 200100Z AUTO 4000 BR CLR 19/12 / RMK A02 TSNO
QEJ,2020-10-20 01:00,127.9500,38.2000,48.20,42.80,81.47,280.00,1.00,0.00,30.39,M,6.21,M,CLR,M,M,M,M,M,M,M,M,M,M,M,M,M,M,M,KQEJ 200100Z AUTO 28001KT 9999 CLR 09/06 A3039 RMK A02 TSNO
QEI,2020-10-20 01:00,128.0667,37.9500,51.80,41.00,66.48,190.00,1.00,0.00,30.39,M,6.21,M,CLR,M,M,M,M,M,M,M,M,M,M,M,M,M,M,M,KQEI 200100Z AUTO 19001KT 9999 CLR 11/05 A3039 RMK A02 TSNO
QEW,2020-10-20 01:00,128.1500,36.4000,53.60,44.60,71.45,350.00,2.00,0.00,30.37,M,6.21,M,CLR,M,M,M,M,M,M,M,M,M,M,M,M,M,M,M,KQEW 200100Z AUTO 35002KT 9999 CLR 12/07 A3037 RMK A02 TSNO
QEP,2020-10-20 01:00,127.2667,37.4000,50.00,48.20,93.50,310.00,2.00,0.00,30.40,M,1.24,M,OVC,M,M,M,300.00,M,M,M,BR,M,M,M,M,M,M,M,KQEP 200100Z AUTO 31002KT 2000 BR OVC003 10/09 A3040 RMK A02 TSNO
QFT,2020-10-20 01:00,127.3500,37.6000,53.60,46.40,76.50,20.00,3.00,0.00,30.37,M,M,M,CLR,M,M,M,M,M,M,M,,M,M,M,M,M,M,M,KQFT 200100Z AUTO 02003KT / // CLR 12/08 A3037 RMK A02 TSNO
QFU,2020-10-20 01:00,126.9667,37.8000,50.00,50.00,100.00,60.00,1.00,0.00,30.42,M,0.75,M,OVC,M,M,M,200.00,M,M,M,BR,M,M,M,M,M,M,M,KQFU 200100Z AUTO 06001KT 1200 BR OVC002 10/10 A3042 RMK A02 TSNO
QEX,2020-10-20 01:00,128.3000,36.1000,51.80,46.40,81.74,50.00,3.00,0.00,30.30,M,6.21,M,CLR,M,M,M,M,M,M,M,M,M,M,M,M,M,M,M,KQEX 200100Z AUTO 05003KT 9999 CLR 11/08 A3030 RMK A02 TSNO
QFW,2020-10-20 01:00,127.8833,37.6667,50.00,41.00,71.07,350.00,1.00,0.00,30.41,M,6.21,M,CLR,M,M,M,M,M,M,M,M,M,M,M,M,M,M,M,KQFW 200100Z AUTO 35001KT 9999 CLR 10/05 A3041 RMK A02 TSNO
QFV,2020-10-20 01:00,127.5000,38.0500,53.60,42.80,66.70,160.00,1.00,0.00,30.41,M,6.21,M,CLR,M,M,M,M,M,M,M,M,M,M,M,M,M,M,M,KQFV 200100Z AUTO 16001KT 9999 CLR 12/06 A3041 RMK A02 TSNO
RKJB,2020-10-20 01:00,126.3800,34.9800,62.60,50.00,63.38,80.00,6.00,0.00,30.33,M,3.73,M,NSC,M,M,M,M,M,M,M,M,M,M,M,M,M,M,M,RKJB 200100Z 08006KT 050V110 6000 NSC 17/10 Q1027 NOSIG
RKPC,2020-10-20 01:00,126.4930,33.5113,69.80,57.20,64.26,90.00,15.00,0.00,30.27,M,6.21,M,FEW,M,M,M,3000.00,M,M,M,M,M,M,M,M,M,M,M,RKPC 200100Z 09015KT 060V120 9999 FEW030 21/14 Q1025 NOSIG
RKNY,2020-10-20 01:00,128.6692,38.0613,64.40,48.20,55.63,110.00,2.00,0.00,30.33,M,6.21,M,M,M,M,M,M,M,M,M,M,M,M,M,M,M,M,M,RKNY 200100Z 11002KT CAVOK 18/09 Q1027 NOSIG
RKSS,2020-10-20 01:00,126.7906,37.5583,55.40,55.40,100.00,320.00,4.00,0.00,30.36,M,1.24,M,SCT,M,M,M,1500.00,M,M,M,BR,M,M,M,M,M,M,M,RKSS 200100Z 32004KT 290V020 2000 BR SCT015 13/13 Q1028 BECMG 5000
RKTN,2020-10-20 01:00,128.6589,35.8941,60.80,48.20,63.15,180.00,1.00,0.00,30.36,M,6.21,M,M,M,M,M,M,M,M,M,M,M,M,M,M,M,M,M,RKTN 200100Z 18001KT CAVOK 16/09 Q1028
QEQ,2020-10-20 01:00,127.5500,37.8500,50.00,51.80,M,90.00,2.00,0.00,30.41,M,1.99,M,CLR,M,M,M,M,M,M,M,BR,M,M,M,M,M,M,M,KQEQ 200100Z AUTO 09002KT 3200 BR CLR 10/11 A3041 RMK A02 TSNO
RKPK,2020-10-20 01:00,128.9382,35.1795,62.60,46.40,55.37,350.00,4.00,0.00,30.33,M,6.21,M,M,M,M,M,M,M,M,M,M,M,M,M,M,M,M,M,RKPK 200100Z 35004KT CAVOK 17/08 Q1027
RKSI,2020-10-20 01:00,126.4500,37.4667,55.40,55.40,100.00,50.00,5.00,0.00,30.36,M,0.28,M,VV ,M,M,M,100.00,M,M,M,FG,M,M,M,M,M,M,M,RKSI 200100Z 05005KT 020V090 0450 R15L/0900N R15R/0900N R34/0800N FG VV001 13/13 Q1028 NOSIG
RKSM,2020-10-20 01:00,127.1139,37.4458,59.00,51.80,76.98,240.00,1.00,0.00,30.38,M,2.49,M,CLR,M,M,M,M,M,M,M,BR,M,M,M,M,M,M,M,RKSM 200100Z 24001KT 4000 BR SKC 15/11 A3038
QFB,2020-10-20 01:10,128.7167,35.6500,55.40,48.20,76.66,290.00,2.00,0.00,30.40,M,6.21,M,CLR,M,M,M,M,M,M,M,M,M,M,M,M,M,M,M,KQFB 200110Z AUTO 29002KT 9999 CLR 13/09 A3040 RMK A02 TSNO
QEN,2020-10-20 01:10,128.7500,37.6667,57.20,35.60,44.19,110.00,4.00,0.00,30.37,M,6.21,M,CLR,M,M,M,M,M,M,M,M,M,M,M,M,M,M,M,KQEN 200110Z AUTO 11004KT 9999 CLR 14/02 A3037 RMK A02 TSNO
QEI,2020-10-20 01:10,128.0667,37.9500,50.00,41.00,71.07,320.00,3.00,0.00,30.38,M,6.21,M,CLR,M,M,M,M,M,M,M,M,M,M,M,M,M,M,M,KQEI 200110Z AUTO 32003KT 9999 CLR 10/05 A3038 RMK A02 TSNO
QEQ,2020-10-20 01:10,127.5500,37.8500,51.80,50.00,93.55,90.00,2.00,0.00,30.41,M,2.98,M,CLR,M,M,M,M,M,M,M,M,M,M,M,M,M,M,M,KQEQ 200110Z AUTO 09002KT 4800 CLR 11/10 A3041 RMK A02 TSNO
QEW,2020-10-20 01:10,128.1500,36.4000,53.60,44.60,71.45,40.00,3.00,0.00,30.37,M,6.21,M,CLR,M,M,M,M,M,M,M,M,M,M,M,M,M,M,M,KQEW 200110Z AUTO 04003KT 9999 CLR 12/07 A3037 RMK A02 TSNO
QFT,2020-10-20 01:10,127.3500,37.6000,53.60,46.40,76.50,20.00,4.00,0.00,30.37,M,M,M,CLR,M,M,M,M,M,M,M,,M,M,M,M,M,M,M,KQFT 200110Z AUTO 02004KT / // CLR 12/08 A3037 RMK A02 TSNO
QEX,2020-10-20 01:10,128.3000,36.1000,53.60,44.60,71.45,20.00,2.00,0.00,30.30,M,6.21,M,CLR,M,M,M,M,M,M,M,M,M,M,M,M,M,M,M,KQEX 200110Z AUTO 02002KT 9999 CLR 12/07 A3030 RMK A02 TSNO
QFW,2020-10-20 01:10,127.8833,37.6667,48.20,41.00,76.01,320.00,2.00,0.00,30.40,M,6.21,M,CLR,M,M,M,M,M,M,M,M,M,M,M,M,M,M,M,KQFW 200110Z AUTO 32002KT 9999 CLR 09/05 A3040 RMK A02 TSNO
QFV,2020-10-20 01:10,127.5000,38.0500,55.40,42.80,62.46,110.00,2.00,0.00,30.41,M,6.21,M,CLR,M,M,M,M,M,M,M,M,M,M,M,M,M,M,M,KQFV 200110Z AUTO 11002KT 9999 CLR 13/06 A3041 RMK A02 TSNO
RKSG,2020-10-20 01:10,127.0311,36.9622,55.40,53.60,93.65,120.00,4.00,0.00,30.36,1028.40,0.62,M,CLR,M,M,M,M,M,M,M,BR,M,M,M,M,M,M,M,RKSG 200110Z 12004KT 5/8SM BR CLR 13/12 A3036 RMK AO2A SLP284 $
QES,2020-10-20 01:10,126.4500,36.9667,66.20,53.60,63.82,M,M,0.00,M,M,2.49,M,CLR,M,M,M,M,M,M,M,BR,M,M,M,M,M,M,M,KQES 200110Z AUTO 4000 BR CLR 19/12 / RMK A02 TSNO
QEJ,2020-10-20 01:10,127.9500,38.2000,50.00,42.80,76.18,260.00,1.00,0.00,30.38,M,6.21,M,CLR,M,M,M,M,M,M,M,M,M,M,M,M,M,M,M,KQEJ 200110Z AUTO 26001KT 9999 CLR 10/06 A3038 RMK A02 TSNO
QEP,2020-10-20 01:10,127.2667,37.4000,51.80,48.20,87.47,330.00,2.00,0.00,30.40,M,1.49,M,OVC,M,M,M,300.00,M,M,M,BR,M,M,M,M,M,M,M,KQEP 200110Z AUTO 33002KT 2400 BR OVC003 11/09 A3040 RMK A02 TSNO
QFU,2020-10-20 01:10,126.9667,37.8000,51.80,48.20,87.47,120.00,2.00,0.00,30.41,M,0.75,M,BKN,M,M,M,200.00,M,M,M,BR,M,M,M,M,M,M,M,KQFU 200110Z AUTO 12002KT 1200 BR BKN002 11/09 A3041 RMK A02 TSNO
RKSU,2020-10-20 01:11,127.6329,37.4369,50.00,50.00,100.00,190.00,1.00,0.00,30.41,M,1.99,M,FEW,SCT,M,M,0.00,200.00,M,M,BR,M,M,M,M,M,M,M,RKSU 200111Z 19001KT 3200 BR FEW000 SCT002 10/10 A3041
RKSD,2020-10-20 01:16,127.2667,37.3500,M,M,M,20.00,1.00,0.00,30.37,M,M,M,M,M,M,M,M,M,M,M,M,M,M,M,M,M,M,M,RKSD 200116Z 02001KT 800 FG SCT000 BKN005 10/09 A3037 RMK CIG005 FG SCT000
RKSS,2020-10-20 01:20,126.7906,37.5583,59.00,53.60,82.25,340.00,3.00,0.00,30.36,M,2.17,M,FEW,M,M,M,1500.00,M,M,M,BR,M,M,M,M,M,M,M,RKSS 200120Z 34003KT 270V060 3500 BR FEW015 15/12 Q1028 BECMG 6000 NSW
QFB,2020-10-20 01:20,128.7167,35.6500,57.20,48.20,71.83,310.00,2.00,0.00,30.40,M,6.21,M,CLR,M,M,M,M,M,M,M,M,M,M,M,M,M,M,M,KQFB 200120Z AUTO 31002KT 9999 CLR 14/09 A3040 RMK A02 TSNO
QEN,2020-10-20 01:20,128.7500,37.6667,57.20,35.60,44.19,120.00,2.00,0.00,30.37,M,6.21,M,CLR,M,M,M,M,M,M,M,M,M,M,M,M,M,M,M,KQEN 200120Z AUTO 12002KT 9999 CLR 14/02 A3037 RMK A02 TSNO
QES,2020-10-20 01:20,126.4500,36.9667,66.20,53.60,63.82,M,M,0.00,M,M,2.49,M,CLR,M,M,M,M,M,M,M,BR,M,M,M,M,M,M,M,KQES 200120Z AUTO 4000 BR CLR 19/12 / RMK A02 TSNO
QEJ,2020-10-20 01:20,127.9500,38.2000,51.80,42.80,71.26,250.00,1.00,0.00,30.38,M,6.21,M,CLR,M,M,M,M,M,M,M,M,M,M,M,M,M,M,M,KQEJ 200120Z AUTO 25001KT 9999 CLR 11/06 A3038 RMK A02 TSNO
QEI,2020-10-20 01:20,128.0667,37.9500,51.80,42.80,71.26,330.00,3.00,0.00,30.38,M,6.21,M,CLR,M,M,M,M,M,M,M,M,M,M,M,M,M,M,M,KQEI 200120Z AUTO 33003KT 9999 CLR 11/06 A3038 RMK A02 TSNO
QEQ,2020-10-20 01:20,127.5500,37.8500,53.60,50.00,87.56,40.00,1.00,0.00,30.41,M,2.98,M,CLR,M,M,M,M,M,M,M,HZ,M,M,M,M,M,M,M,KQEQ 200120Z AUTO 04001KT 4800 HZ CLR 12/10 A3041 RMK A02 TSNO
QEW,2020-10-20 01:20,128.1500,36.4000,55.40,46.40,71.64,30.00,2.00,0.00,30.36,M,6.21,M,CLR,M,M,M,M,M,M,M,M,M,M,M,M,M,M,M,KQEW 200120Z AUTO 03002KT 9999 CLR 13/08 A3036 RMK A02 TSNO
QEP,2020-10-20 01:20,127.2667,37.4000,51.80,48.20,87.47,360.00,3.00,0.00,30.40,M,1.24,M,BKN,M,M,M,300.00,M,M,M,BR,M,M,M,M,M,M,M,KQEP 200120Z AUTO 36003KT 2000 BR BKN003 11/09 A3040 RMK A02 TSNO
QFT,2020-10-20 01:20,127.3500,37.6000,55.40,46.40,71.64,350.00,4.00,0.00,30.37,M,M,M,CLR,M,M,M,M,M,M,M,,M,M,M,M,M,M,M,KQFT 200120Z AUTO 35004KT / // CLR 13/08 A3037 RMK A02 TSNO
QFU,2020-10-20 01:20,126.9667,37.8000,51.80,48.20,87.47,150.00,1.00,0.00,30.41,M,0.99,M,SCT,M,M,M,200.00,M,M,M,HZ,M,M,M,M,M,M,M,KQFU 200120Z AUTO 15001KT 1600 HZ SCT002 11/09 A3041 RMK A02 TSNO
QEX,2020-10-20 01:20,128.3000,36.1000,55.40,44.60,66.91,40.00,3.00,0.00,30.29,M,6.21,M,CLR,M,M,M,M,M,M,M,M,M,M,M,M,M,M,M,KQEX 200120Z AUTO 04003KT 9999 CLR 13/07 A3029 RMK A02 TSNO
QFW,2020-10-20 01:20,127.8833,37.6667,50.00,42.80,76.18,330.00,2.00,0.00,30.39,M,6.21,M,CLR,M,M,M,M,M,M,M,M,M,M,M,M,M,M,M,KQFW 200120Z AUTO 33002KT 9999 CLR 10/06 A3039 RMK A02 TSNO
QFV,2020-10-20 01:20,127.5000,38.0500,55.40,42.80,62.46,110.00,3.00,0.00,30.40,M,6.21,M,CLR,M,M,M,M,M,M,M,M,M,M,M,M,M,M,M,KQFV 200120Z AUTO 11003KT 9999 CLR 13/06 A3040 RMK A02 TSNO
RKSO,2020-10-20 01:23,127.0296,37.0906,55.40,55.40,100.00,0.00,0.00,0.00,30.34,1027.70,1.75,M,CLR,M,M,M,M,M,M,M,BR,M,M,M,M,M,M,M,RKSO 200123Z 00000KT 1 3/4SM BR CLR 13/13 A3034 RMK AO2A SLP277
RKSU,2020-10-20 01:24,127.6329,37.4369,51.80,51.80,100.00,200.00,1.00,0.00,30.41,M,2.98,M,FEW,M,M,M,200.00,M,M,M,BR,M,M,M,M,M,M,M,RKSU 200124Z 20001KT 4800 BR FEW002 11/11 A3041
RKTU,2020-10-20 01:26,127.4991,36.7166,53.60,53.60,100.00,100.00,1.00,0.00,30.36,M,1.99,M,NSC,M,M,M,M,M,M,M,BR,M,M,M,M,M,M,M,RKTU 200126Z 10001KT 3200 BR NSC 12/12 Q1028
RKSO,2020-10-20 01:28,127.0296,37.0906,55.40,55.40,100.00,0.00,0.00,0.00,30.34,1027.70,3.00,M,CLR,M,M,M,M,M,M,M,BR,M,M,M,M,M,M,M,RKSO 200128Z 00000KT 3SM BR CLR 13/13 A3034 RMK AO2A SLP277
RKTE,2020-10-20 01:30,127.5001,36.5682,57.20,50.00,76.82,40.00,2.00,0.00,30.33,M,2.98,M,CLR,M,M,M,M,M,M,M,BR,M,M,M,M,M,M,M,RKTE 200130Z 04002KT 4800 BR SKC 14/10 A3033
QFB,2020-10-20 01:30,128.7167,35.6500,59.00,50.00,72.01,310.00,3.00,0.00,30.39,M,6.21,M,CLR,M,M,M,M,M,M,M,M,M,M,M,M,M,M,M,KQFB 200130Z AUTO 31003KT 9999 CLR 15/10 A3039 RMK A02 TSNO
QEN,2020-10-20 01:30,128.7500,37.6667,57.20,35.60,44.19,140.00,3.00,0.00,30.37,M,6.21,M,CLR,M,M,M,M,M,M,M,M,M,M,M,M,M,M,M,KQEN 200130Z AUTO 14003KT 9999 CLR 14/02 A3037 RMK A02 TSNO
QES,2020-10-20 01:30,126.4500,36.9667,66.20,53.60,63.82,M,M,0.00,M,M,2.49,M,CLR,M,M,M,M,M,M,M,BR,M,M,M,M,M,M,M,KQES 200130Z AUTO 4000 BR CLR 19/12 / RMK A02 TSNO
QEJ,2020-10-20 01:30,127.9500,38.2000,53.60,42.80,66.70,250.00,2.00,0.00,30.37,M,6.21,M,CLR,M,M,M,M,M,M,M,M,M,M,M,M,M,M,M,KQEJ 200130Z AUTO 25002KT 9999 CLR 12/06 A3037 RMK A02 TSNO
QEI,2020-10-20 01:30,128.0667,37.9500,51.80,42.80,71.26,330.00,4.00,0.00,30.37,M,6.21,M,CLR,M,M,M,M,M,M,M,M,M,M,M,M,M,M,M,KQEI 200130Z AUTO 33004KT 9999 CLR 11/06 A3037 RMK A02 TSNO
QEQ,2020-10-20 01:30,127.5500,37.8500,55.40,48.20,76.66,350.00,3.00,0.00,30.40,M,3.73,M,CLR,M,M,M,M,M,M,M,HZ,M,M,M,M,M,M,M,KQEQ 200130Z AUTO 35003KT 6000 HZ CLR 13/09 A3040 RMK A02 TSNO
QEW,2020-10-20 01:30,128.1500,36.4000,57.20,44.60,62.69,30.00,1.00,0.00,30.36,M,6.21,M,CLR,M,M,M,M,M,M,M,M,M,M,M,M,M,M,M,KQEW 200130Z AUTO 03001KT 9999 CLR 14/07 A3036 RMK A02 TSNO
QEP,2020-10-20 01:30,127.2667,37.4000,53.60,48.20,81.87,310.00,3.00,0.00,30.39,M,1.74,M,SCT,M,M,M,400.00,M,M,M,HZ,M,M,M,M,M,M,M,KQEP 200130Z AUTO 31003KT 2800 HZ SCT004 12/09 A3039 RMK A02 TSNO
QFT,2020-10-20 01:30,127.3500,37.6000,55.40,46.40,71.64,350.00,4.00,0.00,30.36,M,M,M,CLR,M,M,M,M,M,M,M,,M,M,M,M,M,M,M,KQFT 200130Z AUTO 35004KT / // CLR 13/08 A3036 RMK A02 TSNO
QFU,2020-10-20 01:30,126.9667,37.8000,53.60,48.20,81.87,80.00,1.00,0.00,30.41,M,1.49,M,FEW,M,M,M,300.00,M,M,M,HZ,M,M,M,M,M,M,M,KQFU 200130Z AUTO 08001KT 2400 HZ FEW003 12/09 A3041 RMK A02 TSNO
QEX,2020-10-20 01:30,128.3000,36.1000,57.20,44.60,62.69,30.00,4.00,0.00,30.29,M,6.21,M,CLR,M,M,M,M,M,M,M,M,M,M,M,M,M,M,M,KQEX 200130Z AUTO 03004KT 9999 CLR 14/07 A3029 RMK A02 TSNO
QFW,2020-10-20 01:30,127.8833,37.6667,51.80,42.80,71.26,350.00,2.00,0.00,30.39,M,6.21,M,CLR,M,M,M,M,M,M,M,M,M,M,M,M,M,M,M,KQFW 200130Z AUTO 35002KT 9999 CLR 11/06 A3039 RMK A02 TSNO
QFV,2020-10-20 01:30,127.5000,38.0500,57.20,42.80,58.52,170.00,1.00,0.00,30.39,M,6.21,M,CLR,M,M,M,M,M,M,M,M,M,M,M,M,M,M,M,KQFV 200130Z AUTO 17001KT 9999 CLR 14/06 A3039 RMK A02 TSNO
RKSI,2020-10-20 01:30,126.4500,37.4667,59.00,57.20,93.74,40.00,4.00,0.00,30.36,M,0.47,M,VV ,M,M,M,100.00,M,M,M,FG,M,M,M,M,M,M,M,RKSI 200130Z 04004KT 0750 R15L/1200U R15R/1100U R34/1400U FG VV001 15/14 Q1028 NOSIG
RKSG,2020-10-20 01:33,127.0311,36.9622,57.20,55.40,93.69,90.00,3.00,0.00,30.35,1028.10,1.50,M,CLR,M,M,M,M,M,M,M,BR,M,M,M,M,M,M,M,RKSG 200133Z 09003KT 1 1/2SM BR CLR 14/13 A3035 RMK AO2A SLP281 $
RKSW,2020-10-20 01:34,127.0071,37.2394,62.60,51.80,67.75,20.00,1.00,0.00,30.38,M,2.98,M,CLR,M,M,M,M,M,M,M,BR,M,M,M,M,M,M,M,RKSW 200134Z 02001KT 4800 BR SKC 17/11 A3038
RKNN,2020-10-20 01:35,128.9436,37.7536,69.80,44.60,40.29,70.00,2.00,0.00,30.34,M,6.21,M,CLR,M,M,M,M,M,M,M,M,M,M,M,M,M,M,M,RKNN 200135Z 07002KT 9999 SKC 21/07 A3034
QFB,2020-10-20 01:40,128.7167,35.6500,60.80,50.00,67.54,290.00,2.00,0.00,30.39,M,6.21,M,CLR,M,M,M,M,M,M,M,M,M,M,M,M,M,M,M,KQFB 200140Z AUTO 29002KT 9999 CLR 16/10 A3039 RMK A02 TSNO
QEN,2020-10-20 01:40,128.7500,37.6667,57.20,33.80,41.13,90.00,3.00,0.00,30.37,M,6.21,M,CLR,M,M,M,M,M,M,M,M,M,M,M,M,M,M,M,KQEN 200140Z AUTO 09003KT 9999 CLR 14/01 A3037 RMK A02 TSNO
QES,2020-10-20 01:40,126.4500,36.9667,66.20,53.60,63.82,M,M,0.00,M,M,1.99,M,CLR,M,M,M,M,M,M,M,BR,M,M,M,M,M,M,M,KQES 200140Z AUTO 3200 BR CLR 19/12 / RMK A02 TSNO
QEJ,2020-10-20 01:40,127.9500,38.2000,53.60,42.80,66.70,290.00,1.00,0.00,30.37,M,6.21,M,CLR,M,M,M,M,M,M,M,M,M,M,M,M,M,M,M,KQEJ 200140Z AUTO 29001KT 9999 CLR 12/06 A3037 RMK A02 TSNO
QEI,2020-10-20 01:40,128.0667,37.9500,51.80,42.80,71.26,330.00,2.00,0.00,30.37,M,6.21,M,CLR,M,M,M,M,M,M,M,M,M,M,M,M,M,M,M,KQEI 200140Z AUTO 33002KT 9999 CLR 11/06 A3037 RMK A02 TSNO
QEQ,2020-10-20 01:40,127.5500,37.8500,55.40,50.00,81.99,30.00,2.00,0.00,30.40,M,3.73,M,CLR,M,M,M,M,M,M,M,HZ,M,M,M,M,M,M,M,KQEQ 200140Z AUTO 03002KT 6000 HZ CLR 13/10 A3040 RMK A02 TSNO
QEW,2020-10-20 01:40,128.1500,36.4000,57.20,44.60,62.69,10.00,2.00,0.00,30.36,M,6.21,M,CLR,M,M,M,M,M,M,M,M,M,M,M,M,M,M,M,KQEW 200140Z AUTO 01002KT 9999 CLR 14/07 A3036 RMK A02 TSNO
QEP,2020-10-20 01:40,127.2667,37.4000,53.60,48.20,81.87,310.00,3.00,0.00,30.39,M,2.49,M,FEW,M,M,M,400.00,M,M,M,HZ,M,M,M,M,M,M,M,KQEP 200140Z AUTO 31003KT 4000 HZ FEW004 12/09 A3039 RMK A02 TSNO
QFT,2020-10-20 01:40,127.3500,37.6000,57.20,46.40,67.12,360.00,3.00,0.00,30.36,M,M,M,CLR,M,M,M,M,M,M,M,,M,M,M,M,M,M,M,KQFT 200140Z AUTO 36003KT / // CLR 14/08 A3036 RMK A02 TSNO
QFU,2020-10-20 01:40,126.9667,37.8000,55.40,48.20,76.66,100.00,2.00,0.00,30.40,M,1.49,M,CLR,M,M,M,M,M,M,M,HZ,M,M,M,M,M,M,M,KQFU 200140Z AUTO 10002KT 2400 HZ CLR 13/09 A3040 RMK A02 TSNO
QEX,2020-10-20 01:40,128.3000,36.1000,57.20,46.40,67.12,10.00,3.00,0.00,30.28,M,6.21,M,CLR,M,M,M,M,M,M,M,M,M,M,M,M,M,M,M,KQEX 200140Z AUTO 01003KT 9999 CLR 14/08 A3028 RMK A02 TSNO
QFW,2020-10-20 01:40,127.8833,37.6667,53.60,42.80,66.70,60.00,1.00,0.00,30.39,M,6.21,M,CLR,M,M,M,M,M,M,M,M,M,M,M,M,M,M,M,KQFW 200140Z AUTO 06001KT 9999 CLR 12/06 A3039 RMK A02 TSNO
QFV,2020-10-20 01:40,127.5000,38.0500,59.00,42.80,54.86,120.00,2.00,0.00,30.39,M,6.21,M,CLR,M,M,M,M,M,M,M,M,M,M,M,M,M,M,M,KQFV 200140Z AUTO 12002KT 9999 CLR 15/06 A3039 RMK A02 TSNO
RKSD,2020-10-20 01:41,127.2667,37.3500,53.60,51.80,93.60,350.00,1.00,0.00,30.36,M,0.99,M,FEW,BKN,M,M,0.00,500.00,M,M,BR,M,M,M,M,M,M,M,RKSD 200141Z 35001KT 1600 BR FEW000 BKN005 12/11 A3036 RMK CIG005 FG FEW000
QFB,2020-10-20 01:50,128.7167,35.6500,62.60,50.00,63.38,250.00,2.00,0.00,30.39,M,6.21,M,CLR,M,M,M,M,M,M,M,M,M,M,M,M,M,M,M,KQFB 200150Z AUTO 25002KT 9999 CLR 17/10 A3039 RMK A02 TSNO
RKTU,2020-10-20 01:50,127.4991,36.7166,55.40,55.40,100.00,90.00,2.00,0.00,30.36,M,2.98,M,NSC,M,M,M,M,M,M,M,BR,M,M,M,M,M,M,M,RKTU 200150Z 09002KT 4800 BR NSC 13/13 Q1028
QEN,2020-10-20 01:50,128.7500,37.6667,57.20,33.80,41.13,120.00,2.00,0.00,30.37,M,6.21,M,CLR,M,M,M,M,M,M,M,M,M,M,M,M,M,M,M,KQEN 200150Z AUTO 12002KT 9999 CLR 14/01 A3037 RMK A02 TSNO
QES,2020-10-20 01:50,126.4500,36.9667,66.20,53.60,63.82,M,M,0.00,M,M,2.49,M,CLR,M,M,M,M,M,M,M,BR,M,M,M,M,M,M,M,KQES 200150Z AUTO 4000 BR CLR 19/12 / RMK A02 TSNO
QEJ,2020-10-20 01:50,127.9500,38.2000,55.40,42.80,62.46,170.00,2.00,0.00,30.36,M,6.21,M,CLR,M,M,M,M,M,M,M,M,M,M,M,M,M,M,M,KQEJ 200150Z AUTO 17002KT 9999 CLR 13/06 A3036 RMK A02 TSNO
QEI,2020-10-20 01:50,128.0667,37.9500,53.60,42.80,66.70,310.00,2.00,0.00,30.36,M,6.21,M,CLR,M,M,M,M,M,M,M,M,M,M,M,M,M,M,M,KQEI 200150Z AUTO 31002KT 9999 CLR 12/06 A3036 RMK A02 TSNO
QEQ,2020-10-20 01:50,127.5500,37.8500,57.20,48.20,71.83,340.00,3.00,0.00,30.40,M,3.73,M,CLR,M,M,M,M,M,M,M,HZ,M,M,M,M,M,M,M,KQEQ 200150Z AUTO 34003KT 6000 HZ CLR 14/09 A3040 RMK A02 TSNO
QEW,2020-10-20 01:50,128.1500,36.4000,59.00,44.60,58.77,30.00,2.00,0.00,30.35,M,6.21,M,CLR,M,M,M,M,M,M,M,M,M,M,M,M,M,M,M,KQEW 200150Z AUTO 03002KT 9999 CLR 15/07 A3035 RMK A02 TSNO
QEP,2020-10-20 01:50,127.2667,37.4000,53.60,50.00,87.56,260.00,4.00,0.00,30.39,M,2.49,M,CLR,M,M,M,M,M,M,M,HZ,M,M,M,M,M,M,M,KQEP 200150Z AUTO 26004KT 4000 HZ CLR 12/10 A3039 RMK A02 TSNO
QFT,2020-10-20 01:50,127.3500,37.6000,59.00,46.40,62.92,350.00,2.00,0.00,30.35,M,M,M,CLR,M,M,M,M,M,M,M,,M,M,M,M,M,M,M,KQFT 200150Z AUTO 35002KT / // CLR 15/08 A3035 RMK A02 TSNO
QFU,2020-10-20 01:50,126.9667,37.8000,57.20,50.00,76.82,290.00,1.00,0.00,30.40,M,1.74,M,CLR,M,M,M,M,M,M,M,HZ,M,M,M,M,M,M,M,KQFU 200150Z AUTO 29001KT 2800 HZ CLR 14/10 A3040 RMK A02 TSNO
QEX,2020-10-20 01:50,128.3000,36.1000,59.00,46.40,62.92,10.00,3.00,0.00,30.28,M,6.21,M,CLR,M,M,M,M,M,M,M,M,M,M,M,M,M,M,M,KQEX 200150Z AUTO 01003KT 9999 CLR 15/08 A3028 RMK A02 TSNO
QFW,2020-10-20 01:50,127.8833,37.6667,53.60,42.80,66.70,80.00,2.00,0.00,30.38,M,6.21,M,CLR,M,M,M,M,M,M,M,M,M,M,M,M,M,M,M,KQFW 200150Z AUTO 08002KT 9999 CLR 12/06 A3038 RMK A02 TSNO
QFV,2020-10-20 01:50,127.5000,38.0500,59.00,42.80,54.86,170.00,2.00,0.00,30.38,M,6.21,M,CLR,M,M,M,M,M,M,M,M,M,M,M,M,M,M,M,KQFV 200150Z AUTO 17002KT 9999 CLR 15/06 A3038 RMK A02 TSNO
RKSD,2020-10-20 01:54,127.2667,37.3500,55.40,53.60,93.65,360.00,1.00,0.00,30.36,M,1.99,M,FEW,SCT,M,M,0.00,500.00,M,M,BR,M,M,M,M,M,M,M,RKSD 200154Z 36001KT 3200 BR FEW000 SCT005 13/12 A3036 RMK FG FEW000
RKJK,2020-10-20 01:56,126.6220,35.8994,66.00,50.40,57.11,40.00,5.00,0.00,30.31,1026.80,4.00,M,CLR,M,M,M,M,M,M,M,HZ,M,M,M,M,M,M,M,RKJK 200156Z AUTO 04005KT 4SM HZ CLR 19/10 A3031 RMK AO2 SLP268 T01890102 $
RKSG,2020-10-20 01:56,127.0311,36.9622,59.00,51.80,76.98,0.00,0.00,0.00,30.35,1028.10,1.75,M,CLR,M,M,M,M,M,M,M,HZ,M,M,M,M,M,M,M,RKSG 200156Z 00000KT 1 3/4SM HZ CLR 15/11 A3035 RMK AO2A SLP281 $
RKSY,2020-10-20 01:58,126.9753,37.5241,63.30,49.80,61.38,150.00,3.00,0.00,30.34,1027.70,6.21,M,CLR,M,M,M,M,M,M,M,M,M,M,M,M,M,M,M,RKSY 200158Z AUTO 15003KT 9999 CLR 17/10 A3034 RMK AO2 SLP277 T01740099 $
RKSO,2020-10-20 01:58,127.0296,37.0906,62.40,57.20,83.08,50.00,3.00,0.00,30.34,1027.70,3.00,M,CLR,M,M,M,M,M,M,M,BR,M,M,M,M,M,M,M,RKSO 200158Z 05003KT 3SM BR CLR 17/14 A3034 RMK AO2A SLP277 T01690140 $
QFB,2020-10-20 02:00,128.7167,35.6500,64.40,48.20,55.63,280.00,2.00,0.00,30.38,M,6.21,M,CLR,M,M,M,M,M,M,M,M,M,M,M,M,M,M,M,KQFB 200200Z AUTO 28002KT 9999 CLR 18/09 A3038 RMK A02 TSNO
QEN,2020-10-20 02:00,128.7500,37.6667,57.20,33.80,41.13,40.00,2.00,0.00,30.37,M,6.21,M,CLR,M,M,M,M,M,M,M,M,M,M,M,M,M,M,M,KQEN 200200Z AUTO 04002KT 9999 CLR 14/01 A3037 RMK A02 TSNO
QES,2020-10-20 02:00,126.4500,36.9667,66.20,53.60,63.82,M,M,0.00,M,M,2.49,M,CLR,M,M,M,M,M,M,M,BR,M,M,M,M,M,M,M,KQES 200200Z AUTO 4000 BR CLR 19/12 / RMK A02 TSNO
QEJ,2020-10-20 02:00,127.9500,38.2000,57.20,42.80,58.52,200.00,2.00,0.00,30.36,M,6.21,M,CLR,M,M,M,M,M,M,M,M,M,M,M,M,M,M,M,KQEJ 200200Z AUTO 20002KT 9999 CLR 14/06 A3036 RMK A02 TSNO
QEI,2020-10-20 02:00,128.0667,37.9500,55.40,42.80,62.46,320.00,3.00,0.00,30.36,M,6.21,M,CLR,M,M,M,M,M,M,M,M,M,M,M,M,M,M,M,KQEI 200200Z AUTO 32003KT 9999 CLR 13/06 A3036 RMK A02 TSNO
QEQ,2020-10-20 02:00,127.5500,37.8500,59.00,48.20,67.33,360.00,2.00,0.00,30.40,M,4.97,M,CLR,M,M,M,M,M,M,M,HZ,M,M,M,M,M,M,M,KQEQ 200200Z AUTO 36002KT 8000 HZ CLR 15/09 A3040 RMK A02 TSNO
QEW,2020-10-20 02:00,128.1500,36.4000,59.00,44.60,58.77,40.00,2.00,0.00,30.35,M,6.21,M,CLR,M,M,M,M,M,M,M,M,M,M,M,M,M,M,M,KQEW 200200Z AUTO 04002KT 9999 CLR 15/07 A3035 RMK A02 TSNO
QEP,2020-10-20 02:00,127.2667,37.4000,57.20,50.00,76.82,260.00,3.00,0.00,30.38,M,2.98,M,CLR,M,M,M,M,M,M,M,HZ,M,M,M,M,M,M,M,KQEP 200200Z AUTO 26003KT 4800 HZ CLR 14/10 A3038 RMK A02 TSNO
QFT,2020-10-20 02:00,127.3500,37.6000,59.00,46.40,62.92,330.00,4.00,0.00,30.35,M,M,M,CLR,M,M,M,M,M,M,M,,M,M,M,M,M,M,M,KQFT 200200Z AUTO 33004KT / // CLR 15/08 A3035 RMK A02 TSNO
QFU,2020-10-20 02:00,126.9667,37.8000,59.00,50.00,72.01,90.00,1.00,0.00,30.40,M,1.99,M,CLR,M,M,M,M,M,M,M,HZ,M,M,M,M,M,M,M,KQFU 200200Z AUTO 09001KT 3200 HZ CLR 15/10 A3040 RMK A02 TSNO
QEX,2020-10-20 02:00,128.3000,36.1000,59.00,46.40,62.92,340.00,2.00,0.00,30.27,M,6.21,M,CLR,M,M,M,M,M,M,M,M,M,M,M,M,M,M,M,KQEX 200200Z AUTO 34002KT 9999 CLR 15/08 A3027 RMK A02 TSNO
QFW,2020-10-20 02:00,127.8833,37.6667,55.40,42.80,62.46,220.00,2.00,0.00,30.38,M,6.21,M,CLR,M,M,M,M,M,M,M,M,M,M,M,M,M,M,M,KQFW 200200Z AUTO 22002KT 9999 CLR 13/06 A3038 RMK A02 TSNO
QFV,2020-10-20 02:00,127.5000,38.0500,60.80,41.00,48.00,140.00,2.00,0.00,30.38,M,6.21,M,CLR,M,M,M,M,M,M,M,M,M,M,M,M,M,M,M,KQFV 200200Z AUTO 14002KT 9999 CLR 16/05 A3038 RMK A02 TSNO
RKJB,2020-10-20 02:00,126.3800,34.9800,66.20,48.20,52.25,100.00,3.00,0.00,30.33,M,4.97,M,NSC,M,M,M,M,M,M,M,M,M,M,M,M,M,M,M,RKJB 200200Z 10003KT 040V140 8000 NSC 19/09 Q1027 NOSIG
RKPC,2020-10-20 02:00,126.4930,33.5113,71.60,59.00,64.48,80.00,16.00,0.00,30.27,M,6.21,M,FEW,M,M,M,3500.00,M,M,M,M,M,M,M,M,M,M,M,RKPC 200200Z 08016KT 050V110 9999 FEW035 22/15 Q1025 NOSIG
RKNY,2020-10-20 02:00,128.6692,38.0613,64.40,50.00,59.50,110.00,3.00,0.00,30.33,M,6.21,M,M,M,M,M,M,M,M,M,M,M,M,M,M,M,M,M,RKNY 200200Z 11003KT 070V130 CAVOK 18/10 Q1027 NOSIG
RKSS,2020-10-20 02:00,126.7906,37.5583,64.40,51.80,63.60,20.00,2.00,0.00,30.36,M,3.11,M,FEW,M,M,M,1500.00,M,M,M,BR,M,M,M,M,M,M,M,RKSS 200200Z 02002KT 5000 2000NW BR FEW015 18/11 Q1028 NOSIG
RKTN,2020-10-20 02:00,128.6589,35.8941,64.40,48.20,55.63,290.00,3.00,0.00,30.33,M,6.21,M,M,M,M,M,M,M,M,M,M,M,M,M,M,M,M,M,RKTN 200200Z 29003KT CAVOK 18/09 Q1027
RKTU,2020-10-20 02:00,127.4991,36.7166,57.20,55.40,93.69,90.00,2.00,0.00,30.36,M,2.98,M,NSC,M,M,M,M,M,M,M,BR,M,M,M,M,M,M,M,RKTU 200200Z 09002KT 4800 BR NSC 14/13 Q1028
RKSI,2020-10-20 02:00,126.4500,37.4667,60.80,55.40,82.37,30.00,3.00,0.00,30.36,M,0.87,M,SCT,M,M,M,400.00,M,M,M,BR,M,M,M,M,M,M,M,RKSI 200200Z 03003KT 350V060 1400 R33R/P2000N R33L/P2000N R34/1800N BR SCT004 16/13 Q1028 BECMG 2500
RKSM,2020-10-20 02:00,127.1139,37.4458,64.40,51.80,63.60,130.00,1.00,0.00,30.36,M,2.98,M,CLR,M,M,M,M,M,M,M,HZ,M,M,M,M,M,M,M,RKSM 200200Z 13001KT 4800 HZ SKC 18/11 A3036
RKPK,2020-10-20 02:00,128.9382,35.1795,68.00,46.40,45.88,360.00,4.00,0.00,30.30,M,6.21,M,M,M,M,M,M,M,M,M,M,M,M,M,M,M,M,M,RKPK 200200Z 36004KT CAVOK 20/08 Q1026
QFB,2020-10-20 02:10,128.7167,35.6500,66.20,50.00,55.88,260.00,2.00,0.00,30.37,M,6.21,M,CLR,M,M,M,M,M,M,M,M,M,M,M,M,M,M,M,KQFB 200210Z AUTO 26002KT 9999 CLR 19/10 A3037 RMK A02 TSNO
QEN,2020-10-20 02:10,128.7500,37.6667,57.20,35.60,44.19,90.00,5.00,0.00,30.36,M,6.21,M,CLR,M,M,M,M,M,M,M,M,M,M,M,M,M,M,M,KQEN 200210Z AUTO 09005KT 9999 CLR 14/02 A3036 RMK A02 TSNO
QES,2020-10-20 02:10,126.4500,36.9667,66.20,53.60,63.82,M,M,0.00,M,M,2.49,M,CLR,M,M,M,M,M,M,M,BR,M,M,M,M,M,M,M,KQES 200210Z AUTO 4000 BR CLR 19/12 / RMK A02 TSNO
QEJ,2020-10-20 02:10,127.9500,38.2000,59.00,41.00,51.18,220.00,1.00,0.00,30.35,M,6.21,M,CLR,M,M,M,M,M,M,M,M,M,M,M,M,M,M,M,KQEJ 200210Z AUTO 22001KT 9999 CLR 15/05 A3035 RMK A02 TSNO
QEI,2020-10-20 02:10,128.0667,37.9500,55.40,42.80,62.46,330.00,3.00,0.00,30.35,M,6.21,M,CLR,M,M,M,M,M,M,M,M,M,M,M,M,M,M,M,KQEI 200210Z AUTO 33003KT 9999 CLR 13/06 A3035 RMK A02 TSNO
QEQ,2020-10-20 02:10,127.5500,37.8500,59.00,48.20,67.33,330.00,2.00,0.00,30.40,M,6.21,M,CLR,M,M,M,M,M,M,M,M,M,M,M,M,M,M,M,KQEQ 200210Z AUTO 33002KT 9999 CLR 15/09 A3040 RMK A02 TSNO
QEW,2020-10-20 02:10,128.1500,36.4000,59.00,44.60,58.77,320.00,2.00,0.00,30.34,M,6.21,M,CLR,M,M,M,M,M,M,M,M,M,M,M,M,M,M,M,KQEW 200210Z AUTO 32002KT 9999 CLR 15/07 A3034 RMK A02 TSNO
QEP,2020-10-20 02:10,127.2667,37.4000,59.00,50.00,72.01,300.00,2.00,0.00,30.38,M,2.98,M,CLR,M,M,M,M,M,M,M,HZ,M,M,M,M,M,M,M,KQEP 200210Z AUTO 30002KT 4800 HZ CLR 15/10 A3038 RMK A02 TSNO
QFT,2020-10-20 02:10,127.3500,37.6000,59.00,46.40,62.92,320.00,3.00,0.00,30.35,M,M,M,CLR,M,M,M,M,M,M,M,,M,M,M,M,M,M,M,KQFT 200210Z AUTO 32003KT / // CLR 15/08 A3035 RMK A02 TSNO
QFU,2020-10-20 02:10,126.9667,37.8000,62.60,50.00,63.38,120.00,2.00,0.00,30.40,M,2.49,M,CLR,M,M,M,M,M,M,M,HZ,M,M,M,M,M,M,M,KQFU 200210Z AUTO 12002KT 4000 HZ CLR 17/10 A3040 RMK A02 TSNO
QEX,2020-10-20 02:10,128.3000,36.1000,60.80,46.40,59.01,350.00,3.00,0.00,30.27,M,6.21,M,CLR,M,M,M,M,M,M,M,M,M,M,M,M,M,M,M,KQEX 200210Z AUTO 35003KT 9999 CLR 16/08 A3027 RMK A02 TSNO
QFW,2020-10-20 02:10,127.8833,37.6667,59.00,42.80,54.86,280.00,1.00,0.00,30.37,M,6.21,M,CLR,M,M,M,M,M,M,M,M,M,M,M,M,M,M,M,KQFW 200210Z AUTO 28001KT 9999 CLR 15/06 A3037 RMK A02 TSNO
QFV,2020-10-20 02:10,127.5000,38.0500,60.80,42.80,51.45,140.00,2.00,0.00,30.38,M,6.21,M,CLR,M,M,M,M,M,M,M,M,M,M,M,M,M,M,M,KQFV 200210Z AUTO 14002KT 9999 CLR 16/06 A3038 RMK A02 TSNO
RKSD,2020-10-20 02:16,127.2667,37.3500,57.20,51.80,82.12,280.00,2.00,0.00,30.36,M,2.98,M,FEW,M,M,M,500.00,M,M,M,BR,M,M,M,M,M,M,M,RKSD 200216Z 28002KT 4800 BR FEW005 14/11 A3036
RKSG,2020-10-20 02:18,127.0311,36.9622,62.60,51.80,67.75,0.00,0.00,0.00,30.34,1027.70,2.00,M,CLR,M,M,M,M,M,M,M,HZ,M,M,M,M,M,M,M,RKSG 200218Z 00000KT 2SM HZ CLR 17/11 A3034 RMK AO2A SLP277 $
RKSO,2020-10-20 02:18,127.0296,37.0906,64.40,53.60,67.95,80.00,3.00,0.00,30.33,1027.40,4.00,M,CLR,M,M,M,M,M,M,M,HZ,M,M,M,M,M,M,M,RKSO 200218Z 08003KT 4SM HZ CLR 18/12 A3033 RMK AO2A SLP274
QFB,2020-10-20 02:20,128.7167,35.6500,66.20,46.40,48.83,290.00,3.00,0.00,30.37,M,6.21,M,CLR,M,M,M,M,M,M,M,M,M,M,M,M,M,M,M,KQFB 200220Z AUTO 29003KT 9999 CLR 19/08 A3037 RMK A02 TSNO
QEN,2020-10-20 02:20,128.7500,37.6667,57.20,35.60,44.19,120.00,4.00,0.00,30.36,M,6.21,M,CLR,M,M,M,M,M,M,M,M,M,M,M,M,M,M,M,KQEN 200220Z AUTO 12004KT 9999 CLR 14/02 A3036 RMK A02 TSNO
QES,2020-10-20 02:20,126.4500,36.9667,66.20,53.60,63.82,M,M,0.00,M,M,2.49,M,CLR,M,M,M,M,M,M,M,BR,M,M,M,M,M,M,M,KQES 200220Z AUTO 4000 BR CLR 19/12 / RMK A02 TSNO
QEJ,2020-10-20 02:20,127.9500,38.2000,60.80,41.00,48.00,330.00,1.00,0.00,30.34,M,6.21,M,CLR,M,M,M,M,M,M,M,M,M,M,M,M,M,M,M,KQEJ 200220Z AUTO 33001KT 9999 CLR 16/05 A3034 RMK A02 TSNO
QEI,2020-10-20 02:20,128.0667,37.9500,57.20,44.60,62.69,330.00,4.00,0.00,30.34,M,6.21,M,CLR,M,M,M,M,M,M,M,M,M,M,M,M,M,M,M,KQEI 200220Z AUTO 33004KT 9999 CLR 14/07 A3034 RMK A02 TSNO
QEQ,2020-10-20 02:20,127.5500,37.8500,60.80,48.20,63.15,30.00,3.00,0.00,30.40,M,6.21,M,CLR,M,M,M,M,M,M,M,M,M,M,M,M,M,M,M,KQEQ 200220Z AUTO 03003KT 9999 CLR 16/09 A3040 RMK A02 TSNO
QEW,2020-10-20 02:20,128.1500,36.4000,60.80,44.60,55.12,40.00,1.00,0.00,30.34,M,6.21,M,CLR,M,M,M,M,M,M,M,M,M,M,M,M,M,M,M,KQEW 200220Z AUTO 04001KT 9999 CLR 16/07 A3034 RMK A02 TSNO
QEP,2020-10-20 02:20,127.2667,37.4000,59.00,50.00,72.01,10.00,2.00,0.00,30.38,M,2.98,M,CLR,M,M,M,M,M,M,M,HZ,M,M,M,M,M,M,M,KQEP 200220Z AUTO 01002KT 4800 HZ CLR 15/10 A3038 RMK A02 TSNO
QFT,2020-10-20 02:20,127.3500,37.6000,60.80,46.40,59.01,330.00,3.00,0.00,30.35,M,M,M,CLR,M,M,M,M,M,M,M,,M,M,M,M,M,M,M,KQFT 200220Z AUTO 33003KT / // CLR 16/08 A3035 RMK A02 TSNO
QFU,2020-10-20 02:20,126.9667,37.8000,60.80,50.00,67.54,340.00,1.00,0.00,30.40,M,2.98,M,CLR,M,M,M,M,M,M,M,HZ,M,M,M,M,M,M,M,KQFU 200220Z AUTO 34001KT 4800 HZ CLR 16/10 A3040 RMK A02 TSNO
QEX,2020-10-20 02:20,128.3000,36.1000,60.80,48.20,63.15,40.00,2.00,0.00,30.27,M,6.21,M,CLR,M,M,M,M,M,M,M,M,M,M,M,M,M,M,M,KQEX 200220Z AUTO 04002KT 9999 CLR 16/09 A3027 RMK A02 TSNO
QFW,2020-10-20 02:20,127.8833,37.6667,59.00,42.80,54.86,120.00,1.00,0.00,30.37,M,6.21,M,CLR,M,M,M,M,M,M,M,M,M,M,M,M,M,M,M,KQFW 200220Z AUTO 12001KT 9999 CLR 15/06 A3037 RMK A02 TSNO
QFV,2020-10-20 02:20,127.5000,38.0500,62.60,41.00,45.04,150.00,2.00,0.00,30.37,M,6.21,M,CLR,M,M,M,M,M,M,M,M,M,M,M,M,M,M,M,KQFV 200220Z AUTO 15002KT 9999 CLR 17/05 A3037 RMK A02 TSNO
QFB,2020-10-20 02:30,128.7167,35.6500,68.00,46.40,45.88,280.00,3.00,0.00,30.36,M,6.21,M,CLR,M,M,M,M,M,M,M,M,M,M,M,M,M,M,M,KQFB 200230Z AUTO 28003KT 9999 CLR 20/08 A3036 RMK A02 TSNO
QEN,2020-10-20 02:30,128.7500,37.6667,57.20,35.60,44.19,100.00,5.00,0.00,30.36,M,6.21,M,CLR,M,M,M,M,M,M,M,M,M,M,M,M,M,M,M,KQEN 200230Z AUTO 10005KT 9999 CLR 14/02 A3036 RMK A02 TSNO
QES,2020-10-20 02:30,126.4500,36.9667,66.20,53.60,63.82,M,M,0.00,M,M,2.49,M,CLR,M,M,M,M,M,M,M,BR,M,M,M,M,M,M,M,KQES 200230Z AUTO 4000 BR CLR 19/12 / RMK A02 TSNO
QEJ,2020-10-20 02:30,127.9500,38.2000,60.80,42.80,51.45,300.00,1.00,0.00,30.34,M,6.21,M,CLR,M,M,M,M,M,M,M,M,M,M,M,M,M,M,M,KQEJ 200230Z AUTO 30001KT 9999 CLR 16/06 A3034 RMK A02 TSNO
QEI,2020-10-20 02:30,128.0667,37.9500,57.20,42.80,58.52,330.00,4.00,0.00,30.34,M,6.21,M,CLR,M,M,M,M,M,M,M,M,M,M,M,M,M,M,M,KQEI 200230Z AUTO 33004KT 9999 CLR 14/06 A3034 RMK A02 TSNO
QEQ,2020-10-20 02:30,127.5500,37.8500,62.60,46.40,55.37,350.00,3.00,0.00,30.39,M,6.21,M,CLR,M,M,M,M,M,M,M,M,M,M,M,M,M,M,M,KQEQ 200230Z AUTO 35003KT 9999 CLR 17/08 A3039 RMK A02 TSNO
QEW,2020-10-20 02:30,128.1500,36.4000,60.80,44.60,55.12,340.00,2.00,0.00,30.34,M,6.21,M,CLR,M,M,M,M,M,M,M,M,M,M,M,M,M,M,M,KQEW 200230Z AUTO 34002KT 9999 CLR 16/07 A3034 RMK A02 TSNO
QEP,2020-10-20 02:30,127.2667,37.4000,60.80,50.00,67.54,350.00,2.00,0.00,30.37,M,2.98,M,CLR,M,M,M,M,M,M,M,HZ,M,M,M,M,M,M,M,KQEP 200230Z AUTO 35002KT 4800 HZ CLR 16/10 A3037 RMK A02 TSNO
QFT,2020-10-20 02:30,127.3500,37.6000,60.80,46.40,59.01,330.00,5.00,0.00,30.34,M,M,M,CLR,M,M,M,M,M,M,M,,M,M,M,M,M,M,M,KQFT 200230Z AUTO 33005KT / // CLR 16/08 A3034 RMK A02 TSNO
QFU,2020-10-20 02:30,126.9667,37.8000,62.60,50.00,63.38,0.00,0.00,0.00,30.40,M,2.98,M,CLR,M,M,M,M,M,M,M,HZ,M,M,M,M,M,M,M,KQFU 200230Z AUTO 00000KT 4800 HZ CLR 17/10 A3040 RMK A02 TSNO
QEX,2020-10-20 02:30,128.3000,36.1000,60.80,46.40,59.01,20.00,3.00,0.00,30.27,M,6.21,M,CLR,M,M,M,M,M,M,M,M,M,M,M,M,M,M,M,KQEX 200230Z AUTO 02003KT 9999 CLR 16/08 A3027 RMK A02 TSNO
QFW,2020-10-20 02:30,127.8833,37.6667,60.80,42.80,51.45,160.00,1.00,0.00,30.37,M,6.21,M,CLR,M,M,M,M,M,M,M,M,M,M,M,M,M,M,M,KQFW 200230Z AUTO 16001KT 9999 CLR 16/06 A3037 RMK A02 TSNO
QFV,2020-10-20 02:30,127.5000,38.0500,64.40,41.00,42.28,140.00,3.00,0.00,30.38,M,6.21,M,CLR,M,M,M,M,M,M,M,M,M,M,M,M,M,M,M,KQFV 200230Z AUTO 14003KT 9999 CLR 18/05 A3038 RMK A02 TSNO
RKSI,2020-10-20 02:30,126.4500,37.4667,62.60,55.40,77.29,20.00,3.00,0.00,30.36,M,1.37,M,NSC,M,M,M,M,M,M,M,BR,M,M,M,M,M,M,M,RKSI 200230Z 02003KT 350V050 2200 BR NSC 17/13 Q1028 BECMG 4000
RKSG,2020-10-20 02:37,127.0311,36.9622,64.40,50.00,59.50,0.00,0.00,0.00,30.33,1027.40,2.25,M,CLR,M,M,M,M,M,M,M,HZ,M,M,M,M,M,M,M,RKSG 200237Z COR 00000KT 2 1/4SM HZ CLR 18/10 A3033 RMK AO2A SLP274 $ COR 0237
QFB,2020-10-20 02:40,128.7167,35.6500,68.00,44.60,42.85,50.00,1.00,0.00,30.36,M,6.21,M,CLR,M,M,M,M,M,M,M,M,M,M,M,M,M,M,M,KQFB 200240Z AUTO 05001KT 9999 CLR 20/07 A3036 RMK A02 TSNO
QEN,2020-10-20 02:40,128.7500,37.6667,57.20,37.40,47.44,110.00,4.00,0.00,30.36,M,6.21,M,CLR,M,M,M,M,M,M,M,M,M,M,M,M,M,M,M,KQEN 200240Z AUTO 11004KT 9999 CLR 14/03 A3036 RMK A02 TSNO
QEI,2020-10-20 02:40,128.0667,37.9500,59.00,44.60,58.77,320.00,3.00,0.00,30.34,M,6.21,M,CLR,M,M,M,M,M,M,M,M,M,M,M,M,M,M,M,KQEI 200240Z AUTO 32003KT 9999 CLR 15/07 A3034 RMK A02 TSNO
QEW,2020-10-20 02:40,128.1500,36.4000,60.80,46.40,59.01,360.00,2.00,0.00,30.33,M,6.21,M,CLR,M,M,M,M,M,M,M,M,M,M,M,M,M,M,M,KQEW 200240Z AUTO 36002KT 9999 CLR 16/08 A3033 RMK A02 TSNO
QEX,2020-10-20 02:40,128.3000,36.1000,62.60,46.40,55.37,10.00,4.00,0.00,30.26,M,6.21,M,CLR,M,M,M,M,M,M,M,M,M,M,M,M,M,M,M,KQEX 200240Z AUTO 01004KT 9999 CLR 17/08 A3026 RMK A02 TSNO
QES,2020-10-20 02:40,126.4500,36.9667,66.20,53.60,63.82,M,M,0.00,M,M,1.99,M,CLR,M,M,M,M,M,M,M,BR,M,M,M,M,M,M,M,KQES 200240Z AUTO 3200 BR CLR 19/12 / RMK A02 TSNO
QEJ,2020-10-20 02:40,127.9500,38.2000,60.80,42.80,51.45,300.00,1.00,0.00,30.33,M,6.21,M,CLR,M,M,M,M,M,M,M,M,M,M,M,M,M,M,M,KQEJ 200240Z AUTO 30001KT 9999 CLR 16/06 A3033 RMK A02 TSNO
QEQ,2020-10-20 02:40,127.5500,37.8500,62.60,44.60,51.72,10.00,2.00,0.00,30.39,M,6.21,M,CLR,M,M,M,M,M,M,M,M,M,M,M,M,M,M,M,KQEQ 200240Z AUTO 01002KT 9999 CLR 17/07 A3039 RMK A02 TSNO
QEP,2020-10-20 02:40,127.2667,37.4000,60.80,50.00,67.54,350.00,2.00,0.00,30.37,M,2.98,M,CLR,M,M,M,M,M,M,M,HZ,M,M,M,M,M,M,M,KQEP 200240Z AUTO 35002KT 4800 HZ CLR 16/10 A3037 RMK A02 TSNO
QFT,2020-10-20 02:40,127.3500,37.6000,62.60,46.40,55.37,330.00,3.00,0.00,30.34,M,M,M,CLR,M,M,M,M,M,M,M,,M,M,M,M,M,M,M,KQFT 200240Z AUTO 33003KT / // CLR 17/08 A3034 RMK A02 TSNO
QFU,2020-10-20 02:40,126.9667,37.8000,64.40,46.40,51.98,40.00,1.00,0.00,30.39,M,2.98,M,CLR,M,M,M,M,M,M,M,HZ,M,M,M,M,M,M,M,KQFU 200240Z AUTO 04001KT 4800 HZ CLR 18/08 A3039 RMK A02 TSNO
QFW,2020-10-20 02:40,127.8833,37.6667,59.00,41.00,51.18,290.00,2.00,0.00,30.36,M,6.21,M,CLR,M,M,M,M,M,M,M,M,M,M,M,M,M,M,M,KQFW 200240Z AUTO 29002KT 9999 CLR 15/05 A3036 RMK A02 TSNO
QFV,2020-10-20 02:40,127.5000,38.0500,64.40,41.00,42.28,140.00,4.00,0.00,30.38,M,6.21,M,CLR,M,M,M,M,M,M,M,M,M,M,M,M,M,M,M,KQFV 200240Z AUTO 14004KT 9999 CLR 18/05 A3038 RMK A02 TSNO
QFB,2020-10-20 02:50,128.7167,35.6500,68.00,44.60,42.85,310.00,2.00,0.00,30.36,M,6.21,M,CLR,M,M,M,M,M,M,M,M,M,M,M,M,M,M,M,KQFB 200250Z AUTO 31002KT 9999 CLR 20/07 A3036 RMK A02 TSNO
QEN,2020-10-20 02:50,128.7500,37.6667,57.20,37.40,47.44,80.00,5.00,0.00,30.36,M,6.21,M,CLR,M,M,M,M,M,M,M,M,M,M,M,M,M,M,M,KQEN 200250Z AUTO 08005KT 9999 CLR 14/03 A3036 RMK A02 TSNO
QES,2020-10-20 02:50,126.4500,36.9667,66.20,53.60,63.82,M,M,0.00,M,M,1.99,M,CLR,M,M,M,M,M,M,M,BR,M,M,M,M,M,M,M,KQES 200250Z AUTO 3200 BR CLR 19/12 / RMK A02 TSNO
QEJ,2020-10-20 02:50,127.9500,38.2000,64.40,42.80,45.32,230.00,1.00,0.00,30.33,M,6.21,M,CLR,M,M,M,M,M,M,M,M,M,M,M,M,M,M,M,KQEJ 200250Z AUTO 23001KT 9999 CLR 18/06 A3033 RMK A02 TSNO
QEI,2020-10-20 02:50,128.0667,37.9500,60.80,44.60,55.12,310.00,2.00,0.00,30.33,M,6.21,M,CLR,M,M,M,M,M,M,M,M,M,M,M,M,M,M,M,KQEI 200250Z AUTO 31002KT 9999 CLR 16/07 A3033 RMK A02 TSNO
QEQ,2020-10-20 02:50,127.5500,37.8500,62.60,46.40,55.37,40.00,2.00,0.00,30.38,M,6.21,M,CLR,M,M,M,M,M,M,M,M,M,M,M,M,M,M,M,KQEQ 200250Z AUTO 04002KT 9999 CLR 17/08 A3038 RMK A02 TSNO
QEW,2020-10-20 02:50,128.1500,36.4000,62.60,46.40,55.37,360.00,2.00,0.00,30.33,M,6.21,M,CLR,M,M,M,M,M,M,M,M,M,M,M,M,M,M,M,KQEW 200250Z AUTO 36002KT 9999 CLR 17/08 A3033 RMK A02 TSNO
QEP,2020-10-20 02:50,127.2667,37.4000,60.80,50.00,67.54,340.00,3.00,0.00,30.37,M,3.73,M,CLR,M,M,M,M,M,M,M,HZ,M,M,M,M,M,M,M,KQEP 200250Z AUTO 34003KT 6000 HZ CLR 16/10 A3037 RMK A02 TSNO
QFT,2020-10-20 02:50,127.3500,37.6000,62.60,46.40,55.37,340.00,3.00,0.00,30.34,M,M,M,CLR,M,M,M,M,M,M,M,,M,M,M,M,M,M,M,KQFT 200250Z AUTO 34003KT / // CLR 17/08 A3034 RMK A02 TSNO
QFU,2020-10-20 02:50,126.9667,37.8000,66.20,44.60,45.60,80.00,1.00,0.00,30.39,M,4.97,M,CLR,M,M,M,M,M,M,M,HZ,M,M,M,M,M,M,M,KQFU 200250Z AUTO 08001KT 8000 HZ CLR 19/07 A3039 RMK A02 TSNO
QEX,2020-10-20 02:50,128.3000,36.1000,62.60,46.40,55.37,310.00,3.00,0.00,30.26,M,6.21,M,CLR,M,M,M,M,M,M,M,M,M,M,M,M,M,M,M,KQEX 200250Z AUTO 31003KT 9999 CLR 17/08 A3026 RMK A02 TSNO
QFW,2020-10-20 02:50,127.8833,37.6667,60.80,42.80,51.45,260.00,2.00,0.00,30.35,M,6.21,M,CLR,M,M,M,M,M,M,M,M,M,M,M,M,M,M,M,KQFW 200250Z AUTO 26002KT 9999 CLR 16/06 A3035 RMK A02 TSNO
QFV,2020-10-20 02:50,127.5000,38.0500,64.40,37.40,36.74,100.00,5.00,0.00,30.37,M,6.21,M,CLR,M,M,M,M,M,M,M,M,M,M,M,M,M,M,M,KQFV 200250Z AUTO 10005KT 9999 CLR 18/03 A3037 RMK A02 TSNO
RKJK,2020-10-20 02:56,126.6220,35.8994,69.30,44.60,40.98,40.00,6.00,0.00,30.30,1026.50,7.00,M,CLR,M,M,M,M,M,M,M,M,M,M,M,M,M,M,M,RKJK 200256Z AUTO 04006KT 7SM CLR 21/07 A3030 RMK AO2 SLP265 T02070070 57014 $
RKSG,2020-10-20 02:57,127.0311,36.9622,65.10,51.10,60.48,0.00,0.00,0.00,30.32,1027.00,2.50,M,FEW,M,M,M,4000.00,M,M,M,HZ,M,M,M,M,M,M,M,RKSG 200257Z 00000KT 2 1/2SM HZ FEW040 18/11 A3032 RMK AO2A SLP270 T01840106 58015 $
RKSY,2020-10-20 02:58,126.9753,37.5241,66.00,46.20,48.80,0.00,0.00,0.00,30.33,1027.40,6.21,M,CLR,M,M,M,M,M,M,M,M,M,M,M,M,M,M,M,RKSY 200258Z AUTO 00000KT 9999 CLR 19/08 A3033 RMK AO2 SLP274 T01890079 57013 $
RKSO,2020-10-20 02:58,127.0296,37.0906,66.70,49.30,53.51,0.00,0.00,0.00,30.32,1027.10,5.00,M,CLR,M,M,M,M,M,M,M,HZ,M,M,M,M,M,M,M,RKSO 200258Z 00000KT 5SM HZ CLR 19/10 A3032 RMK AO2A SLP271 T01930096 57016 $
RKPK,2020-10-20 03:00,128.9382,35.1795,71.60,46.40,40.57,60.00,3.00,0.00,30.30,M,6.21,M,FEW,M,M,M,4000.00,M,M,M,M,M,M,M,M,M,M,M,RKPK 200300Z 06003KT 9999 FEW040 22/08 Q1026
QFW,2020-10-20 03:00,127.8833,37.6667,62.60,42.80,48.28,220.00,1.00,0.00,30.35,M,6.21,M,CLR,M,M,M,M,M,M,M,M,M,M,M,M,M,M,M,KQFW 200300Z AUTO 22001KT 9999 CLR 17/06 A3035 RMK A02 TSNO
QFB,2020-10-20 03:00,128.7167,35.6500,69.80,41.00,35.09,40.00,4.00,0.00,30.36,M,6.21,M,CLR,M,M,M,M,M,M,M,M,M,M,M,M,M,M,M,KQFB 200300Z AUTO 04004KT 9999 CLR 21/05 A3036 RMK A02 TSNO
QEN,2020-10-20 03:00,128.7500,37.6667,57.20,37.40,47.44,110.00,5.00,0.00,30.35,M,6.21,M,CLR,M,M,M,M,M,M,M,M,M,M,M,M,M,M,M,KQEN 200300Z AUTO 11005KT 9999 CLR 14/03 A3035 RMK A02 TSNO
QES,2020-10-20 03:00,126.4500,36.9667,66.20,53.60,63.82,M,M,0.00,M,M,1.74,M,CLR,M,M,M,M,M,M,M,HZ,M,M,M,M,M,M,M,KQES 200300Z AUTO 2800 HZ CLR 19/12 / RMK A02 TSNO
QEJ,2020-10-20 03:00,127.9500,38.2000,62.60,42.80,48.28,170.00,2.00,0.00,30.33,M,6.21,M,CLR,M,M,M,M,M,M,M,M,M,M,M,M,M,M,M,KQEJ 200300Z AUTO 17002KT 9999 CLR 17/06 A3033 RMK A02 TSNO
QEI,2020-10-20 03:00,128.0667,37.9500,62.60,44.60,51.72,350.00,1.00,0.00,30.33,M,6.21,M,CLR,M,M,M,M,M,M,M,M,M,M,M,M,M,M,M,KQEI 200300Z AUTO 35001KT 9999 CLR 17/07 A3033 RMK A02 TSNO
QEQ,2020-10-20 03:00,127.5500,37.8500,64.40,44.60,48.55,60.00,3.00,0.00,30.38,M,6.21,M,CLR,M,M,M,M,M,M,M,M,M,M,M,M,M,M,M,KQEQ 200300Z AUTO 06003KT 9999 CLR 18/07 A3038 RMK A02 TSNO
QEW,2020-10-20 03:00,128.1500,36.4000,62.60,44.60,51.72,10.00,1.00,0.00,30.33,M,6.21,M,CLR,M,M,M,M,M,M,M,M,M,M,M,M,M,M,M,KQEW 200300Z AUTO 01001KT 9999 CLR 17/07 A3033 RMK A02 TSNO
QEP,2020-10-20 03:00,127.2667,37.4000,62.60,50.00,63.38,120.00,2.00,0.00,30.36,M,3.73,M,CLR,M,M,M,M,M,M,M,HZ,M,M,M,M,M,M,M,KQEP 200300Z AUTO 12002KT 6000 HZ CLR 17/10 A3036 RMK A02 TSNO
QFT,2020-10-20 03:00,127.3500,37.6000,62.60,46.40,55.37,330.00,3.00,0.00,30.33,M,M,M,CLR,M,M,M,M,M,M,M,,M,M,M,M,M,M,M,KQFT 200300Z AUTO 33003KT / // CLR 17/08 A3033 RMK A02 TSNO
QFU,2020-10-20 03:00,126.9667,37.8000,66.20,42.80,42.57,50.00,2.00,0.00,30.38,M,6.21,M,CLR,M,M,M,M,M,M,M,M,M,M,M,M,M,M,M,KQFU 200300Z AUTO 05002KT 9999 CLR 19/06 A3038 RMK A02 TSNO
QEX,2020-10-20 03:00,128.3000,36.1000,64.40,46.40,51.98,350.00,3.00,0.00,30.25,M,6.21,M,CLR,M,M,M,M,M,M,M,M,M,M,M,M,M,M,M,KQEX 200300Z AUTO 35003KT 9999 CLR 18/08 A3025 RMK A02 TSNO
QFV,2020-10-20 03:00,127.5000,38.0500,66.20,37.40,34.51,130.00,3.00,0.00,30.37,M,6.21,M,CLR,M,M,M,M,M,M,M,M,M,M,M,M,M,M,M,KQFV 200300Z AUTO 13003KT 9999 CLR 19/03 A3037 RMK A02 TSNO
RKJB,2020-10-20 03:00,126.3800,34.9800,71.60,44.60,37.89,130.00,2.00,0.00,30.30,M,6.21,M,M,M,M,M,M,M,M,M,M,M,M,M,M,M,M,M,RKJB 200300Z 13002KT CAVOK 22/07 Q1026 NOSIG
RKPC,2020-10-20 03:00,126.4930,33.5113,71.60,59.00,64.48,70.00,18.00,0.00,30.27,M,6.21,M,SCT,M,M,M,3500.00,M,M,M,M,M,M,M,M,M,M,M,RKPC 200300Z 07018KT 9999 SCT035 22/15 Q1025 NOSIG
RKNY,2020-10-20 03:00,128.6692,38.0613,64.40,50.00,59.50,110.00,6.00,0.00,30.30,M,6.21,M,M,M,M,M,M,M,M,M,M,M,M,M,M,M,M,M,RKNY 200300Z 11006KT CAVOK 18/10 Q1026 NOSIG
RKSS,2020-10-20 03:00,126.7906,37.5583,68.00,46.40,45.88,20.00,4.00,0.00,30.33,M,4.97,M,NSC,M,M,M,M,M,M,M,M,M,M,M,M,M,M,M,RKSS 200300Z 02004KT 320V120 8000 NSC 20/08 Q1027 NOSIG
RKTN,2020-10-20 03:00,128.6589,35.8941,68.00,46.40,45.88,200.00,1.00,0.00,30.30,M,6.21,M,M,M,M,M,M,M,M,M,M,M,M,M,M,M,M,M,RKTN 200300Z 20001KT CAVOK 20/08 Q1026
RKTU,2020-10-20 03:00,127.4991,36.7166,64.40,51.80,63.60,320.00,2.00,0.00,30.33,M,3.73,M,NSC,M,M,M,M,M,M,M,M,M,M,M,M,M,M,M,RKTU 200300Z 32002KT 6000 NSC 18/11 Q1027
RKSI,2020-10-20 03:00,126.4500,37.4667,64.40,53.60,67.95,40.00,4.00,0.00,30.33,M,2.17,M,NSC,M,M,M,M,M,M,M,BR,M,M,M,M,M,M,M,RKSI 200300Z 04004KT 360V090 3500 BR NSC 18/12 Q1027 BECMG 6000 NSW
RKSM,2020-10-20 03:00,127.1139,37.4458,69.80,50.00,49.37,130.00,1.00,0.00,30.35,M,3.73,M,FEW,M,M,M,3000.00,M,M,M,HZ,M,M,M,M,M,M,M,RKSM 200300Z 13001KT 6000 HZ FEW030 21/10 A3035
RKNW,2020-10-20 03:08,127.9467,37.3375,66.20,46.40,48.83,190.00,3.00,0.00,30.33,M,6.21,M,CLR,M,M,M,M,M,M,M,M,M,M,M,M,M,M,M,RKNW 200308Z 19003KT 9999 SKC 19/08 A3033
QFB,2020-10-20 03:10,128.7167,35.6500,69.80,39.20,32.72,120.00,2.00,0.00,30.35,M,6.21,M,CLR,M,M,M,M,M,M,M,M,M,M,M,M,M,M,M,KQFB 200310Z AUTO 12002KT 9999 CLR 21/04 A3035 RMK A02 TSNO
QEN,2020-10-20 03:10,128.7500,37.6667,59.00,37.40,44.47,100.00,5.00,0.00,30.35,M,6.21,M,CLR,M,M,M,M,M,M,M,M,M,M,M,M,M,M,M,KQEN 200310Z AUTO 10005KT 9999 CLR 15/03 A3035 RMK A02 TSNO
QES,2020-10-20 03:10,126.4500,36.9667,66.20,53.60,63.82,M,M,0.00,M,M,1.74,M,CLR,M,M,M,M,M,M,M,HZ,M,M,M,M,M,M,M,KQES 200310Z AUTO 2800 HZ CLR 19/12 / RMK A02 TSNO
QEJ,2020-10-20 03:10,127.9500,38.2000,64.40,42.80,45.32,180.00,1.00,0.00,30.33,M,6.21,M,CLR,M,M,M,M,M,M,M,M,M,M,M,M,M,M,M,KQEJ 200310Z AUTO 18001KT 9999 CLR 18/06 A3033 RMK A02 TSNO
QEI,2020-10-20 03:10,128.0667,37.9500,64.40,44.60,48.55,300.00,3.00,0.00,30.32,M,6.21,M,CLR,M,M,M,M,M,M,M,M,M,M,M,M,M,M,M,KQEI 200310Z AUTO 30003KT 9999 CLR 18/07 A3032 RMK A02 TSNO
QEQ,2020-10-20 03:10,127.5500,37.8500,64.40,42.80,45.32,60.00,1.00,0.00,30.38,M,6.21,M,CLR,M,M,M,M,M,M,M,M,M,M,M,M,M,M,M,KQEQ 200310Z AUTO 06001KT 9999 CLR 18/06 A3038 RMK A02 TSNO
QEW,2020-10-20 03:10,128.1500,36.4000,64.40,46.40,51.98,330.00,2.00,0.00,30.32,M,6.21,M,CLR,M,M,M,M,M,M,M,M,M,M,M,M,M,M,M,KQEW 200310Z AUTO 33002KT 9999 CLR 18/08 A3032 RMK A02 TSNO
QEP,2020-10-20 03:10,127.2667,37.4000,64.40,50.00,59.50,320.00,2.00,0.00,30.36,M,3.73,M,CLR,M,M,M,M,M,M,M,HZ,M,M,M,M,M,M,M,KQEP 200310Z AUTO 32002KT 6000 HZ CLR 18/10 A3036 RMK A02 TSNO
QFT,2020-10-20 03:10,127.3500,37.6000,64.40,46.40,51.98,340.00,3.00,0.00,30.33,M,M,M,CLR,M,M,M,M,M,M,M,,M,M,M,M,M,M,M,KQFT 200310Z AUTO 34003KT / // CLR 18/08 A3033 RMK A02 TSNO
QFU,2020-10-20 03:10,126.9667,37.8000,66.20,42.80,42.57,50.00,3.00,0.00,30.38,M,6.21,M,CLR,M,M,M,M,M,M,M,M,M,M,M,M,M,M,M,KQFU 200310Z AUTO 05003KT 9999 CLR 19/06 A3038 RMK A02 TSNO
QEX,2020-10-20 03:10,128.3000,36.1000,64.40,46.40,51.98,30.00,3.00,0.00,30.25,M,6.21,M,CLR,M,M,M,M,M,M,M,M,M,M,M,M,M,M,M,KQEX 200310Z AUTO 03003KT 9999 CLR 18/08 A3025 RMK A02 TSNO
QFW,2020-10-20 03:10,127.8833,37.6667,62.60,42.80,48.28,200.00,2.00,0.00,30.35,M,6.21,M,CLR,M,M,M,M,M,M,M,M,M,M,M,M,M,M,M,KQFW 200310Z AUTO 20002KT 9999 CLR 17/06 A3035 RMK A02 TSNO
QFV,2020-10-20 03:10,127.5000,38.0500,66.20,37.40,34.51,150.00,3.00,0.00,30.36,M,6.21,M,CLR,M,M,M,M,M,M,M,M,M,M,M,M,M,M,M,KQFV 200310Z AUTO 15003KT 9999 CLR 19/03 A3036 RMK A02 TSNO
QFB,2020-10-20 03:20,128.7167,35.6500,69.80,39.20,32.72,360.00,9.00,0.00,30.35,M,6.21,12.00,CLR,M,M,M,M,M,M,M,M,M,M,M,M,M,M,M,KQFB 200320Z AUTO 36009G12KT 9999 CLR 21/04 A3035 RMK A02 TSNO
QEN,2020-10-20 03:20,128.7500,37.6667,57.20,37.40,47.44,110.00,7.00,0.00,30.35,M,6.21,M,CLR,M,M,M,M,M,M,M,M,M,M,M,M,M,M,M,KQEN 200320Z AUTO 11007KT 9999 CLR 14/03 A3035 RMK A02 TSNO
QES,2020-10-20 03:20,126.4500,36.9667,66.20,53.60,63.82,M,M,0.00,M,M,1.99,M,CLR,M,M,M,M,M,M,M,HZ,M,M,M,M,M,M,M,KQES 200320Z AUTO 3200 HZ CLR 19/12 / RMK A02 TSNO
QEJ,2020-10-20 03:20,127.9500,38.2000,64.40,42.80,45.32,90.00,1.00,0.00,30.32,M,6.21,M,CLR,M,M,M,M,M,M,M,M,M,M,M,M,M,M,M,KQEJ 200320Z AUTO 09001KT 9999 CLR 18/06 A3032 RMK A02 TSNO
QEI,2020-10-20 03:20,128.0667,37.9500,66.20,44.60,45.60,290.00,2.00,0.00,30.32,M,6.21,M,CLR,M,M,M,M,M,M,M,M,M,M,M,M,M,M,M,KQEI 200320Z AUTO 29002KT 9999 CLR 19/07 A3032 RMK A02 TSNO
QEQ,2020-10-20 03:20,127.5500,37.8500,64.40,41.00,42.28,60.00,3.00,0.00,30.37,M,6.21,M,CLR,M,M,M,M,M,M,M,M,M,M,M,M,M,M,M,KQEQ 200320Z AUTO 06003KT 9999 CLR 18/05 A3037 RMK A02 TSNO
QEW,2020-10-20 03:20,128.1500,36.4000,64.40,46.40,51.98,70.00,2.00,0.00,30.32,M,6.21,M,CLR,M,M,M,M,M,M,M,M,M,M,M,M,M,M,M,KQEW 200320Z AUTO 07002KT 9999 CLR 18/08 A3032 RMK A02 TSNO
QEP,2020-10-20 03:20,127.2667,37.4000,64.40,50.00,59.50,40.00,2.00,0.00,30.35,M,3.73,M,CLR,M,M,M,M,M,M,M,HZ,M,M,M,M,M,M,M,KQEP 200320Z AUTO 04002KT 6000 HZ CLR 18/10 A3035 RMK A02 TSNO
QFT,2020-10-20 03:20,127.3500,37.6000,66.20,46.40,48.83,320.00,2.00,0.00,30.33,M,M,M,CLR,M,M,M,M,M,M,M,,M,M,M,M,M,M,M,KQFT 200320Z AUTO 32002KT / // CLR 19/08 A3033 RMK A02 TSNO
QFU,2020-10-20 03:20,126.9667,37.8000,66.20,37.40,34.51,10.00,1.00,0.00,30.37,M,6.21,M,CLR,M,M,M,M,M,M,M,M,M,M,M,M,M,M,M,KQFU 200320Z AUTO 01001KT 9999 CLR 19/03 A3037 RMK A02 TSNO
QEX,2020-10-20 03:20,128.3000,36.1000,64.40,46.40,51.98,360.00,3.00,0.00,30.24,M,6.21,M,CLR,M,M,M,M,M,M,M,M,M,M,M,M,M,M,M,KQEX 200320Z AUTO 36003KT 9999 CLR 18/08 A3024 RMK A02 TSNO
QFW,2020-10-20 03:20,127.8833,37.6667,64.40,42.80,45.32,20.00,1.00,0.00,30.34,M,6.21,M,CLR,M,M,M,M,M,M,M,M,M,M,M,M,M,M,M,KQFW 200320Z AUTO 02001KT 9999 CLR 18/06 A3034 RMK A02 TSNO
QFV,2020-10-20 03:20,127.5000,38.0500,66.20,35.60,32.14,120.00,3.00,0.00,30.35,M,6.21,M,CLR,M,M,M,M,M,M,M,M,M,M,M,M,M,M,M,KQFV 200320Z AUTO 12003KT 9999 CLR 19/02 A3035 RMK A02 TSNO
RKSG,2020-10-20 03:23,127.0311,36.9622,68.00,46.40,45.88,M,4.00,0.00,30.31,1026.70,3.00,M,FEW,M,M,M,4000.00,M,M,M,HZ,M,M,M,M,M,M,M,RKSG 200323Z VRB04KT 3SM HZ FEW040 20/08 A3031 RMK AO2A SLP267 $
QFB,2020-10-20 03:30,128.7167,35.6500,71.60,39.20,30.77,20.00,2.00,0.00,30.34,M,6.21,M,CLR,M,M,M,M,M,M,M,M,M,M,M,M,M,M,M,KQFB 200330Z AUTO 02002KT 9999 CLR 22/04 A3034 RMK A02 TSNO
QEN,2020-10-20 03:30,128.7500,37.6667,57.20,37.40,47.44,110.00,5.00,0.00,30.34,M,6.21,M,CLR,M,M,M,M,M,M,M,M,M,M,M,M,M,M,M,KQEN 200330Z AUTO 11005KT 9999 CLR 14/03 A3034 RMK A02 TSNO
QES,2020-10-20 03:30,126.4500,36.9667,66.20,53.60,63.82,M,M,0.00,M,M,1.99,M,CLR,M,M,M,M,M,M,M,HZ,M,M,M,M,M,M,M,KQES 200330Z AUTO 3200 HZ CLR 19/12 / RMK A02 TSNO
QEJ,2020-10-20 03:30,127.9500,38.2000,66.20,41.00,39.72,180.00,3.00,0.00,30.31,M,6.21,M,CLR,M,M,M,M,M,M,M,M,M,M,M,M,M,M,M,KQEJ 200330Z AUTO 18003KT 9999 CLR 19/05 A3031 RMK A02 TSNO
QEI,2020-10-20 03:30,128.0667,37.9500,66.20,41.00,39.72,280.00,2.00,0.00,30.31,M,6.21,M,CLR,M,M,M,M,M,M,M,M,M,M,M,M,M,M,M,KQEI 200330Z AUTO 28002KT 9999 CLR 19/05 A3031 RMK A02 TSNO
QEQ,2020-10-20 03:30,127.5500,37.8500,66.20,42.80,42.57,10.00,2.00,0.00,30.36,M,6.21,M,CLR,M,M,M,M,M,M,M,M,M,M,M,M,M,M,M,KQEQ 200330Z AUTO 01002KT 9999 CLR 19/06 A3036 RMK A02 TSNO
QEW,2020-10-20 03:30,128.1500,36.4000,64.40,44.60,48.55,50.00,2.00,0.00,30.31,M,6.21,M,CLR,M,M,M,M,M,M,M,M,M,M,M,M,M,M,M,KQEW 200330Z AUTO 05002KT 9999 CLR 18/07 A3031 RMK A02 TSNO
QEP,2020-10-20 03:30,127.2667,37.4000,64.40,48.20,55.63,300.00,2.00,0.00,30.34,M,3.73,M,CLR,M,M,M,M,M,M,M,HZ,M,M,M,M,M,M,M,KQEP 200330Z AUTO 30002KT 6000 HZ CLR 18/09 A3034 RMK A02 TSNO
QFT,2020-10-20 03:30,127.3500,37.6000,66.20,46.40,48.83,300.00,1.00,0.00,30.31,M,M,M,CLR,M,M,M,M,M,M,M,,M,M,M,M,M,M,M,KQFT 200330Z AUTO 30001KT / // CLR 19/08 A3031 RMK A02 TSNO
QFU,2020-10-20 03:30,126.9667,37.8000,68.00,39.20,34.80,90.00,2.00,0.00,30.36,M,6.21,M,CLR,M,M,M,M,M,M,M,M,M,M,M,M,M,M,M,KQFU 200330Z AUTO 09002KT 9999 CLR 20/04 A3036 RMK A02 TSNO
QEX,2020-10-20 03:30,128.3000,36.1000,66.20,46.40,48.83,330.00,2.00,0.00,30.23,M,6.21,M,CLR,M,M,M,M,M,M,M,M,M,M,M,M,M,M,M,KQEX 200330Z AUTO 33002KT 9999 CLR 19/08 A3023 RMK A02 TSNO
QFW,2020-10-20 03:30,127.8833,37.6667,64.40,44.60,48.55,190.00,1.00,0.00,30.34,M,6.21,M,CLR,M,M,M,M,M,M,M,M,M,M,M,M,M,M,M,KQFW 200330Z AUTO 19001KT 9999 CLR 18/07 A3034 RMK A02 TSNO
QFV,2020-10-20 03:30,127.5000,38.0500,66.20,33.80,29.92,120.00,3.00,0.00,30.35,M,6.21,M,CLR,M,M,M,M,M,M,M,M,M,M,M,M,M,M,M,KQFV 200330Z AUTO 12003KT 9999 CLR 19/01 A3035 RMK A02 TSNO
RKSI,2020-10-20 03:30,126.4500,37.4667,66.20,51.80,59.74,30.00,4.00,0.00,30.30,M,2.67,M,NSC,M,M,M,M,M,M,M,BR,M,M,M,M,M,M,M,RKSI 200330Z 03004KT 360V070 4300 BR NSC 19/11 Q1026 BECMG 6000 NSW
QFB,2020-10-20 03:40,128.7167,35.6500,71.60,39.20,30.77,300.00,3.00,0.00,30.34,M,6.21,M,CLR,M,M,M,M,M,M,M,M,M,M,M,M,M,M,M,KQFB 200340Z AUTO 30003KT 9999 CLR 22/04 A3034 RMK A02 TSNO
QEN,2020-10-20 03:40,128.7500,37.6667,57.20,39.20,50.91,90.00,4.00,0.00,30.34,M,6.21,M,CLR,M,M,M,M,M,M,M,M,M,M,M,M,M,M,M,KQEN 200340Z AUTO 09004KT 9999 CLR 14/04 A3034 RMK A02 TSNO
QES,2020-10-20 03:40,126.4500,36.9667,66.20,53.60,63.82,M,M,0.00,M,M,1.74,M,CLR,M,M,M,M,M,M,M,HZ,M,M,M,M,M,M,M,KQES 200340Z AUTO 2800 HZ CLR 19/12 / RMK A02 TSNO
QEJ,2020-10-20 03:40,127.9500,38.2000,68.00,41.00,37.32,130.00,2.00,0.00,30.31,M,6.21,M,CLR,M,M,M,M,M,M,M,M,M,M,M,M,M,M,M,KQEJ 200340Z AUTO 13002KT 9999 CLR 20/05 A3031 RMK A02 TSNO
QEI,2020-10-20 03:40,128.0667,37.9500,64.40,41.00,42.28,360.00,3.00,0.00,30.31,M,6.21,M,CLR,M,M,M,M,M,M,M,M,M,M,M,M,M,M,M,KQEI 200340Z AUTO 36003KT 9999 CLR 18/05 A3031 RMK A02 TSNO
QEQ,2020-10-20 03:40,127.5500,37.8500,66.20,41.00,39.72,360.00,2.00,0.00,30.35,M,6.21,M,CLR,M,M,M,M,M,M,M,M,M,M,M,M,M,M,M,KQEQ 200340Z AUTO 36002KT 9999 CLR 19/05 A3035 RMK A02 TSNO
QEW,2020-10-20 03:40,128.1500,36.4000,66.20,44.60,45.60,10.00,2.00,0.00,30.30,M,6.21,M,CLR,M,M,M,M,M,M,M,M,M,M,M,M,M,M,M,KQEW 200340Z AUTO 01002KT 9999 CLR 19/07 A3030 RMK A02 TSNO
QEP,2020-10-20 03:40,127.2667,37.4000,64.40,44.60,48.55,300.00,4.00,0.00,30.33,M,4.97,M,CLR,M,M,M,M,M,M,M,HZ,M,M,M,M,M,M,M,KQEP 200340Z AUTO 30004KT 8000 HZ CLR 18/07 A3033 RMK A02 TSNO
QFT,2020-10-20 03:40,127.3500,37.6000,66.20,44.60,45.60,290.00,2.00,0.00,30.31,M,M,M,CLR,M,M,M,M,M,M,M,,M,M,M,M,M,M,M,KQFT 200340Z AUTO 29002KT / // CLR 19/07 A3031 RMK A02 TSNO
QFU,2020-10-20 03:40,126.9667,37.8000,68.00,33.80,28.11,90.00,3.00,0.00,30.35,M,6.21,M,CLR,M,M,M,M,M,M,M,M,M,M,M,M,M,M,M,KQFU 200340Z AUTO 09003KT 9999 CLR 20/01 A3035 RMK A02 TSNO
QEX,2020-10-20 03:40,128.3000,36.1000,66.20,44.60,45.60,20.00,2.00,0.00,30.23,M,6.21,M,CLR,M,M,M,M,M,M,M,M,M,M,M,M,M,M,M,KQEX 200340Z AUTO 02002KT 9999 CLR 19/07 A3023 RMK A02 TSNO
QFW,2020-10-20 03:40,127.8833,37.6667,64.40,42.80,45.32,180.00,1.00,0.00,30.33,M,6.21,M,CLR,M,M,M,M,M,M,M,M,M,M,M,M,M,M,M,KQFW 200340Z AUTO 18001KT 9999 CLR 18/06 A3033 RMK A02 TSNO
QFV,2020-10-20 03:40,127.5000,38.0500,66.20,33.80,29.92,130.00,3.00,0.00,30.34,M,6.21,M,CLR,M,M,M,M,M,M,M,M,M,M,M,M,M,M,M,KQFV 200340Z AUTO 13003KT 9999 CLR 19/01 A3034 RMK A02 TSNO
QFB,2020-10-20 03:50,128.7167,35.6500,71.60,41.00,33.00,30.00,1.00,0.00,30.33,M,6.21,11.00,CLR,M,M,M,M,M,M,M,M,M,M,M,M,M,M,M,KQFB 200350Z AUTO 03001G11KT 9999 CLR 22/05 A3033 RMK A02 TSNO
QEN,2020-10-20 03:50,128.7500,37.6667,59.00,39.20,47.72,110.00,4.00,0.00,30.34,M,6.21,M,CLR,M,M,M,M,M,M,M,M,M,M,M,M,M,M,M,KQEN 200350Z AUTO 11004KT 9999 CLR 15/04 A3034 RMK A02 TSNO
QES,2020-10-20 03:50,126.4500,36.9667,66.20,53.60,63.82,M,M,0.00,M,M,1.49,M,CLR,M,M,M,M,M,M,M,BR,M,M,M,M,M,M,M,KQES 200350Z AUTO 2400 BR CLR 19/12 / RMK A02 TSNO
QEJ,2020-10-20 03:50,127.9500,38.2000,68.00,37.40,32.43,220.00,2.00,0.00,30.30,M,6.21,M,CLR,M,M,M,M,M,M,M,M,M,M,M,M,M,M,M,KQEJ 200350Z AUTO 22002KT 9999 CLR 20/03 A3030 RMK A02 TSNO
QEI,2020-10-20 03:50,128.0667,37.9500,66.20,42.80,42.57,320.00,3.00,0.00,30.30,M,6.21,M,CLR,M,M,M,M,M,M,M,M,M,M,M,M,M,M,M,KQEI 200350Z AUTO 32003KT 9999 CLR 19/06 A3030 RMK A02 TSNO
QEW,2020-10-20 03:50,128.1500,36.4000,66.20,42.80,42.57,30.00,3.00,0.00,30.29,M,6.21,M,CLR,M,M,M,M,M,M,M,M,M,M,M,M,M,M,M,KQEW 200350Z AUTO 03003KT 9999 CLR 19/06 A3029 RMK A02 TSNO
QEP,2020-10-20 03:50,127.2667,37.4000,66.20,44.60,45.60,10.00,3.00,0.00,30.32,M,6.21,M,CLR,M,M,M,M,M,M,M,M,M,M,M,M,M,M,M,KQEP 200350Z AUTO 01003KT 9999 CLR 19/07 A3032 RMK A02 TSNO
QFT,2020-10-20 03:50,127.3500,37.6000,68.00,42.80,40.00,310.00,2.00,0.00,30.29,M,M,M,CLR,M,M,M,M,M,M,M,,M,M,M,M,M,M,M,KQFT 200350Z AUTO 31002KT / // CLR 20/06 A3029 RMK A02 TSNO
QFU,2020-10-20 03:50,126.9667,37.8000,68.00,33.80,28.11,30.00,2.00,0.00,30.34,M,6.21,M,CLR,M,M,M,M,M,M,M,M,M,M,M,M,M,M,M,KQFU 200350Z AUTO 03002KT 9999 CLR 20/01 A3034 RMK A02 TSNO
QEX,2020-10-20 03:50,128.3000,36.1000,68.00,44.60,42.85,40.00,3.00,0.00,30.22,M,6.21,M,CLR,M,M,M,M,M,M,M,M,M,M,M,M,M,M,M,KQEX 200350Z AUTO 04003KT 9999 CLR 20/07 A3022 RMK A02 TSNO
QFV,2020-10-20 03:50,127.5000,38.0500,66.20,35.60,32.14,100.00,4.00,0.00,30.34,M,6.21,M,CLR,M,M,M,M,M,M,M,M,M,M,M,M,M,M,M,KQFV 200350Z AUTO 10004KT 9999 CLR 19/02 A3034 RMK A02 TSNO
QEQ,2020-10-20 03:50,127.5500,37.8500,66.20,41.00,39.72,320.00,3.00,0.00,30.35,M,6.21,M,CLR,M,M,M,M,M,M,M,M,M,M,M,M,M,M,M,KQEQ 200350Z AUTO 32003KT 9999 CLR 19/05 A3035 RMK A02 TSNO
QFW,2020-10-20 03:50,127.8833,37.6667,66.20,41.00,39.72,150.00,2.00,0.00,30.32,M,6.21,M,CLR,M,M,M,M,M,M,M,M,M,M,M,M,M,M,M,KQFW 200350Z AUTO 15002KT 9999 CLR 19/05 A3032 RMK A02 TSNO
RKSG,2020-10-20 03:55,127.0311,36.9622,68.70,47.30,46.34,M,3.00,0.00,30.28,1025.70,3.00,M,CLR,M,M,M,M,M,M,M,HZ,M,M,M,M,M,M,M,RKSG 200355Z VRB03KT 3SM HZ CLR 20/09 A3028 RMK SLP257 T02040085 $
RKJK,2020-10-20 03:56,126.6220,35.8994,71.10,40.50,32.92,20.00,8.00,0.00,30.29,1026.10,10.00,M,CLR,M,M,M,M,M,M,M,M,M,M,M,M,M,M,M,RKJK 200356Z AUTO 02008KT 10SM CLR 22/05 A3029 RMK AO2 SLP261 T02170047 $
RKSY,2020-10-20 03:58,126.9753,37.5241,68.00,45.30,44.01,160.00,3.00,0.00,30.28,1025.70,6.21,M,CLR,M,M,M,M,M,M,M,M,M,M,M,M,M,M,M,RKSY 200358Z AUTO 16003KT 9999 CLR 20/07 A3028 RMK AO2 SLP257 T02000074 $
RKSO,2020-10-20 03:58,127.0296,37.0906,70.00,44.10,39.26,60.00,5.00,0.00,30.27,1025.40,6.00,M,CLR,M,M,M,M,M,M,M,M,M,M,M,M,M,M,M,RKSO 200358Z 06005KT 6SM CLR 21/07 A3027 RMK AO2A SLP254 T02110067 $
RKPK,2020-10-20 04:00,128.9382,35.1795,73.40,42.80,33.29,80.00,9.00,0.00,30.27,M,6.21,M,M,M,M,M,M,M,M,M,M,M,M,M,M,M,M,M,RKPK 200400Z 08009KT CAVOK 23/06 Q1025
QFT,2020-10-20 04:00,127.3500,37.6000,68.00,41.00,37.32,290.00,2.00,0.00,30.29,M,M,M,CLR,M,M,M,M,M,M,M,,M,M,M,M,M,M,M,KQFT 200400Z AUTO 29002KT / // CLR 20/05 A3029 RMK A02 TSNO
QFU,2020-10-20 04:00,126.9667,37.8000,68.00,35.60,30.20,360.00,1.00,0.00,30.34,M,6.21,M,CLR,M,M,M,M,M,M,M,M,M,M,M,M,M,M,M,KQFU 200400Z AUTO 36001KT 9999 CLR 20/02 A3034 RMK A02 TSNO
QFW,2020-10-20 04:00,127.8833,37.6667,66.20,39.20,37.03,220.00,2.00,0.00,30.31,M,6.21,M,CLR,M,M,M,M,M,M,M,M,M,M,M,M,M,M,M,KQFW 200400Z AUTO 22002KT 9999 CLR 19/04 A3031 RMK A02 TSNO
RKSI,2020-10-20 04:00,126.4500,37.4667,68.00,42.80,40.00,40.00,3.00,0.00,30.30,M,4.35,M,NSC,M,M,M,M,M,M,M,M,M,M,M,M,M,M,M,RKSI 200400Z 04003KT 360V090 7000 NSC 20/06 Q1026 NOSIG
QFB,2020-10-20 04:00,128.7167,35.6500,69.80,39.20,32.72,320.00,2.00,0.00,30.33,M,6.21,M,CLR,M,M,M,M,M,M,M,M,M,M,M,M,M,M,M,KQFB 200400Z AUTO 32002KT 9999 CLR 21/04 A3033 RMK A02 TSNO
QEN,2020-10-20 04:00,128.7500,37.6667,57.20,39.20,50.91,90.00,5.00,0.00,30.34,M,6.21,M,CLR,M,M,M,M,M,M,M,M,M,M,M,M,M,M,M,KQEN 200400Z AUTO 09005KT 9999 CLR 14/04 A3034 RMK A02 TSNO
QEI,2020-10-20 04:00,128.0667,37.9500,66.20,42.80,42.57,180.00,2.00,0.00,30.30,M,6.21,M,CLR,M,M,M,M,M,M,M,M,M,M,M,M,M,M,M,KQEI 200400Z AUTO 18002KT 9999 CLR 19/06 A3030 RMK A02 TSNO
QEW,2020-10-20 04:00,128.1500,36.4000,66.20,42.80,42.57,330.00,2.00,0.00,30.29,M,6.21,M,CLR,M,M,M,M,M,M,M,M,M,M,M,M,M,M,M,KQEW 200400Z AUTO 33002KT 9999 CLR 19/06 A3029 RMK A02 TSNO
QEX,2020-10-20 04:00,128.3000,36.1000,68.00,41.00,37.32,50.00,3.00,0.00,30.21,M,6.21,M,CLR,M,M,M,M,M,M,M,M,M,M,M,M,M,M,M,KQEX 200400Z AUTO 05003KT 9999 CLR 20/05 A3021 RMK A02 TSNO
RKJB,2020-10-20 04:00,126.3800,34.9800,69.80,48.20,46.16,290.00,5.00,0.00,30.30,M,6.21,M,M,M,M,M,M,M,M,M,M,M,M,M,M,M,M,M,RKJB 200400Z 29005KT 200V340 CAVOK 21/09 Q1026 NOSIG
RKPC,2020-10-20 04:00,126.4930,33.5113,69.80,59.00,68.55,70.00,17.00,0.00,30.27,M,6.21,M,FEW,M,M,M,4000.00,M,M,M,M,M,M,M,M,M,M,M,RKPC 200400Z 07017KT 9999 FEW040 21/15 Q1025 NOSIG
RKNY,2020-10-20 04:00,128.6692,38.0613,66.20,50.00,55.88,110.00,5.00,0.00,30.27,M,6.21,M,M,M,M,M,M,M,M,M,M,M,M,M,M,M,M,M,RKNY 200400Z 11005KT CAVOK 19/10 Q1025 NOSIG
RKSS,2020-10-20 04:00,126.7906,37.5583,68.00,44.60,42.85,10.00,5.00,0.00,30.30,M,6.21,M,M,M,M,M,M,M,M,M,M,M,M,M,M,M,M,M,RKSS 200400Z 01005KT 310V080 CAVOK 20/07 Q1026 NOSIG
RKTN,2020-10-20 04:00,128.6589,35.8941,71.60,39.20,30.77,170.00,3.00,0.00,30.27,M,6.21,M,M,M,M,M,M,M,M,M,M,M,M,M,M,M,M,M,RKTN 200400Z 17003KT CAVOK 22/04 Q1025
RKTU,2020-10-20 04:00,127.4991,36.7166,68.00,46.40,45.88,40.00,2.00,0.00,30.30,M,6.21,M,M,M,M,M,M,M,M,M,M,M,M,M,M,M,M,M,RKTU 200400Z 04002KT CAVOK 20/08 Q1026
QES,2020-10-20 04:00,126.4500,36.9667,66.20,53.60,63.82,M,M,0.00,M,M,1.24,M,CLR,M,M,M,M,M,M,M,BR,M,M,M,M,M,M,M,KQES 200400Z AUTO 2000 BR CLR 19/12 / RMK A02 TSNO
QEJ,2020-10-20 04:00,127.9500,38.2000,68.00,39.20,34.80,210.00,1.00,0.00,30.29,M,6.21,M,CLR,M,M,M,M,M,M,M,M,M,M,M,M,M,M,M,KQEJ 200400Z AUTO 21001KT 9999 CLR 20/04 A3029 RMK A02 TSNO
QEQ,2020-10-20 04:00,127.5500,37.8500,66.20,41.00,39.72,310.00,2.00,0.00,30.34,M,6.21,M,CLR,M,M,M,M,M,M,M,M,M,M,M,M,M,M,M,KQEQ 200400Z AUTO 31002KT 9999 CLR 19/05 A3034 RMK A02 TSNO
QEP,2020-10-20 04:00,127.2667,37.4000,66.20,42.80,42.57,350.00,4.00,0.00,30.32,M,6.21,M,CLR,M,M,M,M,M,M,M,M,M,M,M,M,M,M,M,KQEP 200400Z AUTO 35004KT 9999 CLR 19/06 A3032 RMK A02 TSNO
RKSM,2020-10-20 04:00,127.1139,37.4458,69.80,42.80,37.61,80.00,4.00,0.00,30.31,M,5.59,M,FEW,M,M,M,3000.00,M,M,M,HZ,M,M,M,M,M,M,M,RKSM 200400Z 08004KT 9000 HZ FEW030 21/06 A3031
QFV,2020-10-20 04:00,127.5000,38.0500,66.20,35.60,32.14,100.00,6.00,0.00,30.32,M,6.21,M,CLR,M,M,M,M,M,M,M,M,M,M,M,M,M,M,M,KQFV 200400Z AUTO 10006KT 9999 CLR 19/02 A3032 RMK A02 TSNO
QFB,2020-10-20 04:10,128.7167,35.6500,71.60,39.20,30.77,320.00,4.00,0.00,30.32,M,6.21,M,CLR,M,M,M,M,M,M,M,M,M,M,M,M,M,M,M,KQFB 200410Z AUTO 32004KT 9999 CLR 22/04 A3032 RMK A02 TSNO
QEN,2020-10-20 04:10,128.7500,37.6667,57.20,41.00,54.60,100.00,6.00,0.00,30.33,M,6.21,M,CLR,M,M,M,M,M,M,M,M,M,M,M,M,M,M,M,KQEN 200410Z AUTO 10006KT 9999 CLR 14/05 A3033 RMK A02 TSNO
QES,2020-10-20 04:10,126.4500,36.9667,66.20,53.60,63.82,M,M,0.00,M,M,1.24,M,CLR,M,M,M,M,M,M,M,BR,M,M,M,M,M,M,M,KQES 200410Z AUTO 2000 BR CLR 19/12 / RMK A02 TSNO
QEJ,2020-10-20 04:10,127.9500,38.2000,68.00,37.40,32.43,190.00,4.00,0.00,30.29,M,6.21,M,CLR,M,M,M,M,M,M,M,M,M,M,M,M,M,M,M,KQEJ 200410Z AUTO 19004KT 9999 CLR 20/03 A3029 RMK A02 TSNO
QEI,2020-10-20 04:10,128.0667,37.9500,68.00,42.80,40.00,290.00,1.00,0.00,30.29,M,6.21,M,CLR,M,M,M,M,M,M,M,M,M,M,M,M,M,M,M,KQEI 200410Z AUTO 29001KT 9999 CLR 20/06 A3029 RMK A02 TSNO
QEQ,2020-10-20 04:10,127.5500,37.8500,68.00,41.00,37.32,220.00,2.00,0.00,30.33,M,6.21,M,CLR,M,M,M,M,M,M,M,M,M,M,M,M,M,M,M,KQEQ 200410Z AUTO 22002KT 9999 CLR 20/05 A3033 RMK A02 TSNO
QEW,2020-10-20 04:10,128.1500,36.4000,66.20,42.80,42.57,120.00,3.00,0.00,30.28,M,6.21,M,CLR,M,M,M,M,M,M,M,M,M,M,M,M,M,M,M,KQEW 200410Z AUTO 12003KT 9999 CLR 19/06 A3028 RMK A02 TSNO
QEP,2020-10-20 04:10,127.2667,37.4000,66.20,42.80,42.57,210.00,3.00,0.00,30.31,M,6.21,M,CLR,M,M,M,M,M,M,M,M,M,M,M,M,M,M,M,KQEP 200410Z AUTO 21003KT 9999 CLR 19/06 A3031 RMK A02 TSNO
QFT,2020-10-20 04:10,127.3500,37.6000,68.00,35.60,30.20,290.00,2.00,0.00,30.28,M,M,M,CLR,M,M,M,M,M,M,M,,M,M,M,M,M,M,M,KQFT 200410Z AUTO 29002KT / // CLR 20/02 A3028 RMK A02 TSNO
QFU,2020-10-20 04:10,126.9667,37.8000,69.80,35.60,28.39,320.00,3.00,0.00,30.33,M,6.21,M,CLR,M,M,M,M,M,M,M,M,M,M,M,M,M,M,M,KQFU 200410Z AUTO 32003KT 9999 CLR 21/02 A3033 RMK A02 TSNO
QEX,2020-10-20 04:10,128.3000,36.1000,68.00,39.20,34.80,350.00,2.00,0.00,30.21,M,6.21,M,CLR,M,M,M,M,M,M,M,M,M,M,M,M,M,M,M,KQEX 200410Z AUTO 35002KT 9999 CLR 20/04 A3021 RMK A02 TSNO
QFW,2020-10-20 04:10,127.8833,37.6667,68.00,39.20,34.80,310.00,1.00,0.00,30.30,M,6.21,M,CLR,M,M,M,M,M,M,M,M,M,M,M,M,M,M,M,KQFW 200410Z AUTO 31001KT 9999 CLR 20/04 A3030 RMK A02 TSNO
QFV,2020-10-20 04:10,127.5000,38.0500,66.20,37.40,34.51,100.00,6.00,0.00,30.32,M,6.21,M,CLR,M,M,M,M,M,M,M,M,M,M,M,M,M,M,M,KQFV 200410Z AUTO 10006KT 9999 CLR 19/03 A3032 RMK A02 TSNO
QFB,2020-10-20 04:20,128.7167,35.6500,71.60,41.00,33.00,350.00,4.00,0.00,30.32,M,6.21,11.00,CLR,M,M,M,M,M,M,M,M,M,M,M,M,M,M,M,KQFB 200420Z AUTO 35004G11KT 9999 CLR 22/05 A3032 RMK A02 TSNO
QEN,2020-10-20 04:20,128.7500,37.6667,57.20,41.00,54.60,100.00,6.00,0.00,30.32,M,6.21,M,CLR,M,M,M,M,M,M,M,M,M,M,M,M,M,M,M,KQEN 200420Z AUTO 10006KT 9999 CLR 14/05 A3032 RMK A02 TSNO
QES,2020-10-20 04:20,126.4500,36.9667,66.20,53.60,63.82,M,M,0.00,M,M,1.49,M,CLR,M,M,M,M,M,M,M,BR,M,M,M,M,M,M,M,KQES 200420Z AUTO 2400 BR CLR 19/12 / RMK A02 TSNO
QEJ,2020-10-20 04:20,127.9500,38.2000,69.80,39.20,32.72,180.00,2.00,0.00,30.28,M,6.21,M,CLR,M,M,M,M,M,M,M,M,M,M,M,M,M,M,M,KQEJ 200420Z AUTO 18002KT 9999 CLR 21/04 A3028 RMK A02 TSNO
QEI,2020-10-20 04:20,128.0667,37.9500,68.00,42.80,40.00,80.00,2.00,0.00,30.28,M,6.21,M,CLR,M,M,M,M,M,M,M,M,M,M,M,M,M,M,M,KQEI 200420Z AUTO 08002KT 9999 CLR 20/06 A3028 RMK A02 TSNO
QEQ,2020-10-20 04:20,127.5500,37.8500,68.00,39.20,34.80,120.00,1.00,0.00,30.33,M,6.21,M,CLR,M,M,M,M,M,M,M,M,M,M,M,M,M,M,M,KQEQ 200420Z AUTO 12001KT 9999 CLR 20/04 A3033 RMK A02 TSNO
QEW,2020-10-20 04:20,128.1500,36.4000,68.00,44.60,42.85,30.00,4.00,0.00,30.28,M,6.21,M,CLR,M,M,M,M,M,M,M,M,M,M,M,M,M,M,M,KQEW 200420Z AUTO 03004KT 9999 CLR 20/07 A3028 RMK A02 TSNO
QEP,2020-10-20 04:20,127.2667,37.4000,66.20,42.80,42.57,280.00,4.00,0.00,30.30,M,6.21,M,CLR,M,M,M,M,M,M,M,M,M,M,M,M,M,M,M,KQEP 200420Z AUTO 28004KT 9999 CLR 19/06 A3030 RMK A02 TSNO
QFT,2020-10-20 04:20,127.3500,37.6000,68.00,32.00,26.15,320.00,2.00,0.00,30.27,M,M,M,CLR,M,M,M,M,M,M,M,,M,M,M,M,M,M,M,KQFT 200420Z AUTO 32002KT / // CLR 20/M00 A3027 RMK A02 TSNO
QFU,2020-10-20 04:20,126.9667,37.8000,68.00,37.40,32.43,360.00,4.00,0.00,30.32,M,6.21,M,CLR,M,M,M,M,M,M,M,M,M,M,M,M,M,M,M,KQFU 200420Z AUTO 36004KT 9999 CLR 20/03 A3032 RMK A02 TSNO
QEX,2020-10-20 04:20,128.3000,36.1000,68.00,41.00,37.32,260.00,2.00,0.00,30.21,M,6.21,M,CLR,M,M,M,M,M,M,M,M,M,M,M,M,M,M,M,KQEX 200420Z AUTO 26002KT 9999 CLR 20/05 A3021 RMK A02 TSNO
QFW,2020-10-20 04:20,127.8833,37.6667,66.20,41.00,39.72,310.00,2.00,0.00,30.29,M,6.21,M,CLR,M,M,M,M,M,M,M,M,M,M,M,M,M,M,M,KQFW 200420Z AUTO 31002KT 9999 CLR 19/05 A3029 RMK A02 TSNO
QFV,2020-10-20 04:20,127.5000,38.0500,66.20,37.40,34.51,110.00,6.00,0.00,30.31,M,6.21,M,CLR,M,M,M,M,M,M,M,M,M,M,M,M,M,M,M,KQFV 200420Z AUTO 11006KT 9999 CLR 19/03 A3031 RMK A02 TSNO
RKTN,2020-10-20 04:22,128.6589,35.8941,73.40,32.00,21.76,140.00,10.00,0.00,30.27,M,6.21,M,M,M,M,M,M,M,M,M,M,M,M,M,M,M,M,M,RKTN 200422Z 14010KT CAVOK 23/00 Q1025
QFB,2020-10-20 04:30,128.7167,35.6500,71.60,41.00,33.00,350.00,2.00,0.00,30.31,M,6.21,M,CLR,M,M,M,M,M,M,M,M,M,M,M,M,M,M,M,KQFB 200430Z AUTO 35002KT 9999 CLR 22/05 A3031 RMK A02 TSNO
QEN,2020-10-20 04:30,128.7500,37.6667,57.20,41.00,54.60,100.00,6.00,0.00,30.32,M,6.21,M,CLR,M,M,M,M,M,M,M,M,M,M,M,M,M,M,M,KQEN 200430Z AUTO 10006KT 9999 CLR 14/05 A3032 RMK A02 TSNO
QES,2020-10-20 04:30,126.4500,36.9667,66.20,53.60,63.82,M,M,0.00,M,M,1.99,M,CLR,M,M,M,M,M,M,M,BR,M,M,M,M,M,M,M,KQES 200430Z AUTO 3200 BR CLR 19/12 / RMK A02 TSNO
QEJ,2020-10-20 04:30,127.9500,38.2000,69.80,39.20,32.72,150.00,1.00,0.00,30.27,M,6.21,M,CLR,M,M,M,M,M,M,M,M,M,M,M,M,M,M,M,KQEJ 200430Z AUTO 15001KT 9999 CLR 21/04 A3027 RMK A02 TSNO
QEI,2020-10-20 04:30,128.0667,37.9500,68.00,41.00,37.32,240.00,2.00,0.00,30.27,M,6.21,M,CLR,M,M,M,M,M,M,M,M,M,M,M,M,M,M,M,KQEI 200430Z AUTO 24002KT 9999 CLR 20/05 A3027 RMK A02 TSNO
QEQ,2020-10-20 04:30,127.5500,37.8500,68.00,39.20,34.80,280.00,3.00,0.00,30.32,M,6.21,M,CLR,M,M,M,M,M,M,M,M,M,M,M,M,M,M,M,KQEQ 200430Z AUTO 28003KT 9999 CLR 20/04 A3032 RMK A02 TSNO
QEW,2020-10-20 04:30,128.1500,36.4000,68.00,42.80,40.00,290.00,1.00,0.00,30.27,M,6.21,M,CLR,M,M,M,M,M,M,M,M,M,M,M,M,M,M,M,KQEW 200430Z AUTO 29001KT 9999 CLR 20/06 A3027 RMK A02 TSNO
QEP,2020-10-20 04:30,127.2667,37.4000,68.00,42.80,40.00,240.00,4.00,0.00,30.30,M,6.21,M,CLR,M,M,M,M,M,M,M,M,M,M,M,M,M,M,M,KQEP 200430Z AUTO 24004KT 9999 CLR 20/06 A3030 RMK A02 TSNO
QFT,2020-10-20 04:30,127.3500,37.6000,68.00,33.80,28.11,340.00,3.00,0.00,30.26,M,M,M,CLR,M,M,M,M,M,M,M,,M,M,M,M,M,M,M,KQFT 200430Z AUTO 34003KT / // CLR 20/01 A3026 RMK A02 TSNO
QFU,2020-10-20 04:30,126.9667,37.8000,68.00,37.40,32.43,360.00,2.00,0.00,30.32,M,6.21,M,CLR,M,M,M,M,M,M,M,M,M,M,M,M,M,M,M,KQFU 200430Z AUTO 36002KT 9999 CLR 20/03 A3032 RMK A02 TSNO
QEX,2020-10-20 04:30,128.3000,36.1000,69.80,42.80,37.61,240.00,2.00,0.00,30.20,M,6.21,M,CLR,M,M,M,M,M,M,M,M,M,M,M,M,M,M,M,KQEX 200430Z AUTO 24002KT 9999 CLR 21/06 A3020 RMK A02 TSNO
QFW,2020-10-20 04:30,127.8833,37.6667,68.00,41.00,37.32,220.00,2.00,0.00,30.28,M,6.21,M,CLR,M,M,M,M,M,M,M,M,M,M,M,M,M,M,M,KQFW 200430Z AUTO 22002KT 9999 CLR 20/05 A3028 RMK A02 TSNO
QFV,2020-10-20 04:30,127.5000,38.0500,66.20,37.40,34.51,120.00,6.00,0.00,30.30,M,6.21,M,CLR,M,M,M,M,M,M,M,M,M,M,M,M,M,M,M,KQFV 200430Z AUTO 12006KT 9999 CLR 19/03 A3030 RMK A02 TSNO
RKSI,2020-10-20 04:30,126.4500,37.4667,68.00,46.40,45.88,350.00,4.00,0.00,30.27,M,5.59,M,NSC,M,M,M,M,M,M,M,M,M,M,M,M,M,M,M,RKSI 200430Z 35004KT 290V040 9000 NSC 20/08 Q1025 NOSIG
QFB,2020-10-20 04:40,128.7167,35.6500,73.40,41.00,31.05,40.00,3.00,0.00,30.31,M,6.21,10.00,CLR,M,M,M,M,M,M,M,M,M,M,M,M,M,M,M,KQFB 200440Z AUTO 04003G10KT 9999 CLR 23/05 A3031 RMK A02 TSNO
QEN,2020-10-20 04:40,128.7500,37.6667,57.20,41.00,54.60,110.00,3.00,0.00,30.32,M,6.21,M,CLR,M,M,M,M,M,M,M,M,M,M,M,M,M,M,M,KQEN 200440Z AUTO 11003KT 9999 CLR 14/05 A3032 RMK A02 TSNO
QES,2020-10-20 04:40,126.4500,36.9667,66.20,53.60,63.82,M,M,0.00,M,M,2.49,M,CLR,M,M,M,M,M,M,M,BR,M,M,M,M,M,M,M,KQES 200440Z AUTO 4000 BR CLR 19/12 / RMK A02 TSNO
QEJ,2020-10-20 04:40,127.9500,38.2000,68.00,39.20,34.80,320.00,1.00,0.00,30.26,M,6.21,M,CLR,M,M,M,M,M,M,M,M,M,M,M,M,M,M,M,KQEJ 200440Z AUTO 32001KT 9999 CLR 20/04 A3026 RMK A02 TSNO
QEI,2020-10-20 04:40,128.0667,37.9500,68.00,41.00,37.32,330.00,4.00,0.00,30.26,M,6.21,M,CLR,M,M,M,M,M,M,M,M,M,M,M,M,M,M,M,KQEI 200440Z AUTO 33004KT 9999 CLR 20/05 A3026 RMK A02 TSNO
QEQ,2020-10-20 04:40,127.5500,37.8500,68.00,39.20,34.80,270.00,3.00,0.00,30.32,M,6.21,M,CLR,M,M,M,M,M,M,M,M,M,M,M,M,M,M,M,KQEQ 200440Z AUTO 27003KT 9999 CLR 20/04 A3032 RMK A02 TSNO
QEW,2020-10-20 04:40,128.1500,36.4000,68.00,42.80,40.00,250.00,1.00,0.00,30.27,M,6.21,M,CLR,M,M,M,M,M,M,M,M,M,M,M,M,M,M,M,KQEW 200440Z AUTO 25001KT 9999 CLR 20/06 A3027 RMK A02 TSNO
QEP,2020-10-20 04:40,127.2667,37.4000,68.00,42.80,40.00,270.00,3.00,0.00,30.29,M,6.21,M,CLR,M,M,M,M,M,M,M,M,M,M,M,M,M,M,M,KQEP 200440Z AUTO 27003KT 9999 CLR 20/06 A3029 RMK A02 TSNO
QFT,2020-10-20 04:40,127.3500,37.6000,69.80,35.60,28.39,300.00,2.00,0.00,30.26,M,M,M,CLR,M,M,M,M,M,M,M,,M,M,M,M,M,M,M,KQFT 200440Z AUTO 30002KT / // CLR 21/02 A3026 RMK A02 TSNO
QFU,2020-10-20 04:40,126.9667,37.8000,69.80,35.60,28.39,190.00,2.00,0.00,30.32,M,6.21,M,CLR,M,M,M,M,M,M,M,M,M,M,M,M,M,M,M,KQFU 200440Z AUTO 19002KT 9999 CLR 21/02 A3032 RMK A02 TSNO
QEX,2020-10-20 04:40,128.3000,36.1000,69.80,42.80,37.61,340.00,2.00,0.00,30.20,M,6.21,M,CLR,M,M,M,M,M,M,M,M,M,M,M,M,M,M,M,KQEX 200440Z AUTO 34002KT 9999 CLR 21/06 A3020 RMK A02 TSNO
QFW,2020-10-20 04:40,127.8833,37.6667,68.00,41.00,37.32,220.00,3.00,0.00,30.28,M,6.21,M,CLR,M,M,M,M,M,M,M,M,M,M,M,M,M,M,M,KQFW 200440Z AUTO 22003KT 9999 CLR 20/05 A3028 RMK A02 TSNO
QFV,2020-10-20 04:40,127.5000,38.0500,66.20,39.20,37.03,110.00,6.00,0.00,30.30,M,6.21,M,CLR,M,M,M,M,M,M,M,M,M,M,M,M,M,M,M,KQFV 200440Z AUTO 11006KT 9999 CLR 19/04 A3030 RMK A02 TSNO
QFB,2020-10-20 04:50,128.7167,35.6500,71.60,41.00,33.00,30.00,3.00,0.00,30.31,M,6.21,M,CLR,M,M,M,M,M,M,M,M,M,M,M,M,M,M,M,KQFB 200450Z AUTO 03003KT 9999 CLR 22/05 A3031 RMK A02 TSNO
QEN,2020-10-20 04:50,128.7500,37.6667,57.20,41.00,54.60,100.00,5.00,0.00,30.31,M,6.21,M,CLR,M,M,M,M,M,M,M,M,M,M,M,M,M,M,M,KQEN 200450Z AUTO 10005KT 9999 CLR 14/05 A3031 RMK A02 TSNO
QES,2020-10-20 04:50,126.4500,36.9667,66.20,53.60,63.82,M,M,0.00,M,M,2.98,M,CLR,M,M,M,M,M,M,M,M,M,M,M,M,M,M,M,KQES 200450Z AUTO 4800 CLR 19/12 / RMK A02 TSNO
QEJ,2020-10-20 04:50,127.9500,38.2000,69.80,35.60,28.39,120.00,1.00,0.00,30.25,M,6.21,M,CLR,M,M,M,M,M,M,M,M,M,M,M,M,M,M,M,KQEJ 200450Z AUTO 12001KT 9999 CLR 21/02 A3025 RMK A02 TSNO
QEI,2020-10-20 04:50,128.0667,37.9500,68.00,41.00,37.32,310.00,4.00,0.00,30.25,M,6.21,M,CLR,M,M,M,M,M,M,M,M,M,M,M,M,M,M,M,KQEI 200450Z AUTO 31004KT 9999 CLR 20/05 A3025 RMK A02 TSNO
QEQ,2020-10-20 04:50,127.5500,37.8500,68.00,37.40,32.43,310.00,1.00,0.00,30.32,M,6.21,M,CLR,M,M,M,M,M,M,M,M,M,M,M,M,M,M,M,KQEQ 200450Z AUTO 31001KT 9999 CLR 20/03 A3032 RMK A02 TSNO
QEW,2020-10-20 04:50,128.1500,36.4000,68.00,41.00,37.32,50.00,3.00,0.00,30.27,M,6.21,M,CLR,M,M,M,M,M,M,M,M,M,M,M,M,M,M,M,KQEW 200450Z AUTO 05003KT 9999 CLR 20/05 A3027 RMK A02 TSNO
QEP,2020-10-20 04:50,127.2667,37.4000,68.00,44.60,42.85,130.00,1.00,0.00,30.29,M,6.21,M,CLR,M,M,M,M,M,M,M,M,M,M,M,M,M,M,M,KQEP 200450Z AUTO 13001KT 9999 CLR 20/07 A3029 RMK A02 TSNO
QFT,2020-10-20 04:50,127.3500,37.6000,69.80,35.60,28.39,260.00,2.00,0.00,30.26,M,M,M,CLR,M,M,M,M,M,M,M,,M,M,M,M,M,M,M,KQFT 200450Z AUTO 26002KT / // CLR 21/02 A3026 RMK A02 TSNO
QFU,2020-10-20 04:50,126.9667,37.8000,68.00,37.40,32.43,330.00,3.00,0.00,30.32,M,6.21,M,CLR,M,M,M,M,M,M,M,M,M,M,M,M,M,M,M,KQFU 200450Z AUTO 33003KT 9999 CLR 20/03 A3032 RMK A02 TSNO
QEX,2020-10-20 04:50,128.3000,36.1000,69.80,42.80,37.61,60.00,1.00,0.00,30.20,M,6.21,M,CLR,M,M,M,M,M,M,M,M,M,M,M,M,M,M,M,KQEX 200450Z AUTO 06001KT 9999 CLR 21/06 A3020 RMK A02 TSNO
QFW,2020-10-20 04:50,127.8833,37.6667,68.00,41.00,37.32,310.00,2.00,0.00,30.27,M,6.21,M,CLR,M,M,M,M,M,M,M,M,M,M,M,M,M,M,M,KQFW 200450Z AUTO 31002KT 9999 CLR 20/05 A3027 RMK A02 TSNO
QFV,2020-10-20 04:50,127.5000,38.0500,66.20,39.20,37.03,110.00,6.00,0.00,30.30,M,6.21,M,CLR,M,M,M,M,M,M,M,M,M,M,M,M,M,M,M,KQFV 200450Z AUTO 11006KT 9999 CLR 19/04 A3030 RMK A02 TSNO
RKJK,2020-10-20 04:56,126.6220,35.8994,71.10,46.80,41.89,20.00,7.00,0.00,30.25,1024.80,9.00,M,CLR,M,M,M,M,M,M,M,M,M,M,M,M,M,M,M,RKJK 200456Z AUTO 02007KT 9SM CLR 22/08 A3025 RMK AO2 SLP248 T02170082 $
RKSG,2020-10-20 04:56,127.0311,36.9622,69.40,41.90,36.83,0.00,0.00,0.00,30.27,1025.30,4.00,M,CLR,M,M,M,M,M,M,M,HZ,M,M,M,M,M,M,M,RKSG 200456Z 00000KT 4SM HZ CLR 21/06 A3027 RMK AO2A SLP253 T02080055 $
RKSY,2020-10-20 04:58,126.9753,37.5241,69.30,42.40,37.67,230.00,5.00,0.00,30.26,1025.00,6.21,M,CLR,M,M,M,M,M,M,M,M,M,M,M,M,M,M,M,RKSY 200458Z AUTO 23005KT 9999 CLR 21/06 A3026 RMK AO2 SLP250 T02070058 $
RKSO,2020-10-20 04:58,127.0296,37.0906,70.50,41.20,34.52,M,4.00,0.00,30.26,1025.00,6.00,M,CLR,M,M,M,M,M,M,M,HZ,M,M,M,M,M,M,M,RKSO 200458Z VRB04KT 6SM HZ CLR 21/05 A3026 RMK AO2A SLP250 T02140051 $
QFB,2020-10-20 05:00,128.7167,35.6500,73.40,41.00,31.05,290.00,2.00,0.00,30.30,M,6.21,M,CLR,M,M,M,M,M,M,M,M,M,M,M,M,M,M,M,KQFB 200500Z AUTO 29002KT 9999 CLR 23/05 A3030 RMK A02 TSNO
QEN,2020-10-20 05:00,128.7500,37.6667,57.20,41.00,54.60,110.00,6.00,0.00,30.31,M,6.21,M,CLR,M,M,M,M,M,M,M,M,M,M,M,M,M,M,M,KQEN 200500Z AUTO 11006KT 9999 CLR 14/05 A3031 RMK A02 TSNO
QEI,2020-10-20 05:00,128.0667,37.9500,68.00,42.80,40.00,300.00,3.00,0.00,30.25,M,6.21,M,CLR,M,M,M,M,M,M,M,M,M,M,M,M,M,M,M,KQEI 200500Z AUTO 30003KT 9999 CLR 20/06 A3025 RMK A02 TSNO
QEW,2020-10-20 05:00,128.1500,36.4000,68.00,41.00,37.32,80.00,3.00,0.00,30.27,M,6.21,M,CLR,M,M,M,M,M,M,M,M,M,M,M,M,M,M,M,KQEW 200500Z AUTO 08003KT 9999 CLR 20/05 A3027 RMK A02 TSNO
QEX,2020-10-20 05:00,128.3000,36.1000,69.80,42.80,37.61,340.00,2.00,0.00,30.19,M,6.21,M,CLR,M,M,M,M,M,M,M,M,M,M,M,M,M,M,M,KQEX 200500Z AUTO 34002KT 9999 CLR 21/06 A3019 RMK A02 TSNO
QFV,2020-10-20 05:00,127.5000,38.0500,66.20,39.20,37.03,110.00,6.00,0.00,30.29,M,6.21,M,CLR,M,M,M,M,M,M,M,M,M,M,M,M,M,M,M,KQFV 200500Z AUTO 11006KT 9999 CLR 19/04 A3029 RMK A02 TSNO
RKJB,2020-10-20 05:00,126.3800,34.9800,69.80,44.60,40.29,320.00,5.00,0.00,30.24,M,6.21,M,M,M,M,M,M,M,M,M,M,M,M,M,M,M,M,M,RKJB 200500Z 32005KT 280V340 CAVOK 21/07 Q1024 NOSIG
RKPC,2020-10-20 05:00,126.4930,33.5113,69.80,59.00,68.55,60.00,18.00,0.00,30.21,M,6.21,M,FEW,M,M,M,3500.00,M,M,M,M,M,M,M,M,M,M,M,RKPC 200500Z 06018KT 9999 FEW035 21/15 Q1023 NOSIG
RKNY,2020-10-20 05:00,128.6692,38.0613,64.40,50.00,59.50,120.00,7.00,0.00,30.27,M,6.21,M,M,M,M,M,M,M,M,M,M,M,M,M,M,M,M,M,RKNY 200500Z 12007KT 080V140 CAVOK 18/10 Q1025 NOSIG
RKSS,2020-10-20 05:00,126.7906,37.5583,69.80,42.80,37.61,280.00,5.00,0.00,30.27,M,6.21,M,M,M,M,M,M,M,M,M,M,M,M,M,M,M,M,M,RKSS 200500Z 28005KT 210V330 CAVOK 21/06 Q1025 NOSIG
RKTN,2020-10-20 05:00,128.6589,35.8941,73.40,35.60,25.13,140.00,10.00,0.00,30.24,M,6.21,M,FEW,M,M,M,4000.00,M,M,M,M,M,M,M,M,M,M,M,RKTN 200500Z 14010KT 9999 FEW040 23/02 Q1024
RKTU,2020-10-20 05:00,127.4991,36.7166,69.80,46.40,43.13,320.00,4.00,0.00,30.27,M,6.21,M,M,M,M,M,M,M,M,M,M,M,M,M,M,M,M,M,RKTU 200500Z 32004KT CAVOK 21/08 Q1025
QES,2020-10-20 05:00,126.4500,36.9667,66.20,53.60,63.82,M,M,0.00,M,M,3.73,M,CLR,M,M,M,M,M,M,M,M,M,M,M,M,M,M,M,KQES 200500Z AUTO 6000 CLR 19/12 / RMK A02 TSNO
QEJ,2020-10-20 05:00,127.9500,38.2000,69.80,37.40,30.49,210.00,2.00,0.00,30.25,M,6.21,M,CLR,M,M,M,M,M,M,M,M,M,M,M,M,M,M,M,KQEJ 200500Z AUTO 21002KT 9999 CLR 21/03 A3025 RMK A02 TSNO
QEQ,2020-10-20 05:00,127.5500,37.8500,68.00,33.80,28.11,270.00,3.00,0.00,30.31,M,6.21,M,CLR,M,M,M,M,M,M,M,M,M,M,M,M,M,M,M,KQEQ 200500Z AUTO 27003KT 9999 CLR 20/01 A3031 RMK A02 TSNO
QEP,2020-10-20 05:00,127.2667,37.4000,68.00,44.60,42.85,30.00,1.00,0.00,30.29,M,6.21,M,CLR,M,M,M,M,M,M,M,M,M,M,M,M,M,M,M,KQEP 200500Z AUTO 03001KT 9999 CLR 20/07 A3029 RMK A02 TSNO
RKPK,2020-10-20 05:00,128.9382,35.1795,71.60,44.60,37.89,70.00,10.00,0.00,30.24,M,6.21,M,M,M,M,M,M,M,M,M,M,M,M,M,M,M,M,M,RKPK 200500Z 07010KT CAVOK 22/07 Q1024
QFT,2020-10-20 05:00,127.3500,37.6000,69.80,41.00,35.09,220.00,1.00,0.00,30.26,M,M,M,CLR,M,M,M,M,M,M,M,,M,M,M,M,M,M,M,KQFT 200500Z AUTO 22001KT / // CLR 21/05 A3026 RMK A02 TSNO
QFU,2020-10-20 05:00,126.9667,37.8000,69.80,35.60,28.39,320.00,1.00,0.00,30.32,M,6.21,M,CLR,M,M,M,M,M,M,M,M,M,M,M,M,M,M,M,KQFU 200500Z AUTO 32001KT 9999 CLR 21/02 A3032 RMK A02 TSNO
QFW,2020-10-20 05:00,127.8833,37.6667,69.80,41.00,35.09,340.00,3.00,0.00,30.26,M,6.21,M,CLR,M,M,M,M,M,M,M,M,M,M,M,M,M,M,M,KQFW 200500Z AUTO 34003KT 9999 CLR 21/05 A3026 RMK A02 TSNO
RKSI,2020-10-20 05:00,126.4500,37.4667,68.00,46.40,45.88,330.00,4.00,0.00,30.27,M,6.21,M,M,M,M,M,M,M,M,M,M,M,M,M,M,M,M,M,RKSI 200500Z 33004KT CAVOK 20/08 Q1025 NOSIG
RKSM,2020-10-20 05:00,127.1139,37.4458,71.60,39.20,30.77,350.00,5.00,0.00,30.29,M,5.59,M,CLR,M,M,M,M,M,M,M,HZ,M,M,M,M,M,M,M,RKSM 200500Z 35005KT 9000 HZ SKC 22/04 A3029
QFB,2020-10-20 05:10,128.7167,35.6500,71.60,41.00,33.00,300.00,3.00,0.00,30.31,M,6.21,M,CLR,M,M,M,M,M,M,M,M,M,M,M,M,M,M,M,KQFB 200510Z AUTO 30003KT 9999 CLR 22/05 A3031 RMK A02 TSNO
QEN,2020-10-20 05:10,128.7500,37.6667,57.20,39.20,50.91,100.00,5.00,0.00,30.31,M,6.21,M,CLR,M,M,M,M,M,M,M,M,M,M,M,M,M,M,M,KQEN 200510Z AUTO 10005KT 9999 CLR 14/04 A3031 RMK A02 TSNO
QES,2020-10-20 05:10,126.4500,36.9667,66.20,53.60,63.82,M,M,0.00,30.34,M,3.73,M,CLR,M,M,M,M,M,M,M,HZ,M,M,M,M,M,M,M,KQES 200510Z AUTO 6000 HZ CLR 19/12 A3034 RMK A02 TSNO
QEJ,2020-10-20 05:10,127.9500,38.2000,69.80,37.40,30.49,320.00,2.00,0.00,30.24,M,6.21,M,CLR,M,M,M,M,M,M,M,M,M,M,M,M,M,M,M,KQEJ 200510Z AUTO 32002KT 9999 CLR 21/03 A3024 RMK A02 TSNO
QEI,2020-10-20 05:10,128.0667,37.9500,68.00,42.80,40.00,310.00,5.00,0.00,30.24,M,6.21,M,CLR,M,M,M,M,M,M,M,M,M,M,M,M,M,M,M,KQEI 200510Z AUTO 31005KT 9999 CLR 20/06 A3024 RMK A02 TSNO
QEQ,2020-10-20 05:10,127.5500,37.8500,68.00,37.40,32.43,290.00,3.00,0.00,30.31,M,6.21,M,CLR,M,M,M,M,M,M,M,M,M,M,M,M,M,M,M,KQEQ 200510Z AUTO 29003KT 9999 CLR 20/03 A3031 RMK A02 TSNO
QEW,2020-10-20 05:10,128.1500,36.4000,68.00,39.20,34.80,340.00,1.00,0.00,30.26,M,6.21,M,CLR,M,M,M,M,M,M,M,M,M,M,M,M,M,M,M,KQEW 200510Z AUTO 34001KT 9999 CLR 20/04 A3026 RMK A02 TSNO
QEP,2020-10-20 05:10,127.2667,37.4000,69.80,42.80,37.61,200.00,2.00,0.00,30.29,M,6.21,M,CLR,M,M,M,M,M,M,M,M,M,M,M,M,M,M,M,KQEP 200510Z AUTO 20002KT 9999 CLR 21/06 A3029 RMK A02 TSNO
QFT,2020-10-20 05:10,127.3500,37.6000,71.60,42.80,35.37,240.00,2.00,0.00,30.26,M,M,M,CLR,M,M,M,M,M,M,M,,M,M,M,M,M,M,M,KQFT 200510Z AUTO 24002KT / // CLR 22/06 A3026 RMK A02 TSNO
QFU,2020-10-20 05:10,126.9667,37.8000,69.80,33.80,26.43,80.00,2.00,0.00,30.31,M,6.21,M,CLR,M,M,M,M,M,M,M,M,M,M,M,M,M,M,M,KQFU 200510Z AUTO 08002KT 9999 CLR 21/01 A3031 RMK A02 TSNO
QEX,2020-10-20 05:10,128.3000,36.1000,69.80,44.60,40.29,30.00,3.00,0.00,30.19,M,6.21,M,CLR,M,M,M,M,M,M,M,M,M,M,M,M,M,M,M,KQEX 200510Z AUTO 03003KT 9999 CLR 21/07 A3019 RMK A02 TSNO
QFW,2020-10-20 05:10,127.8833,37.6667,69.80,41.00,35.09,270.00,2.00,0.00,30.26,M,6.21,M,CLR,M,M,M,M,M,M,M,M,M,M,M,M,M,M,M,KQFW 200510Z AUTO 27002KT 9999 CLR 21/05 A3026 RMK A02 TSNO
QFV,2020-10-20 05:10,127.5000,38.0500,66.20,39.20,37.03,110.00,6.00,0.00,30.29,M,6.21,M,CLR,M,M,M,M,M,M,M,M,M,M,M,M,M,M,M,KQFV 200510Z AUTO 11006KT 9999 CLR 19/04 A3029 RMK A02 TSNO
QFB,2020-10-20 05:20,128.7167,35.6500,73.40,41.00,31.05,300.00,2.00,0.00,30.30,M,6.21,M,CLR,M,M,M,M,M,M,M,M,M,M,M,M,M,M,M,KQFB 200520Z AUTO 30002KT 9999 CLR 23/05 A3030 RMK A02 TSNO
QEN,2020-10-20 05:20,128.7500,37.6667,57.20,39.20,50.91,110.00,4.00,0.00,30.30,M,6.21,M,CLR,M,M,M,M,M,M,M,M,M,M,M,M,M,M,M,KQEN 200520Z AUTO 11004KT 9999 CLR 14/04 A3030 RMK A02 TSNO
QES,2020-10-20 05:20,126.4500,36.9667,66.20,50.00,55.88,M,M,0.00,30.33,M,3.73,M,CLR,M,M,M,M,M,M,M,HZ,M,M,M,M,M,M,M,KQES 200520Z AUTO 6000 HZ CLR 19/10 A3033 RMK A02 TSNO
QEJ,2020-10-20 05:20,127.9500,38.2000,69.80,33.80,26.43,350.00,2.00,0.00,30.24,M,6.21,M,CLR,M,M,M,M,M,M,M,M,M,M,M,M,M,M,M,KQEJ 200520Z AUTO 35002KT 9999 CLR 21/01 A3024 RMK A02 TSNO
QEI,2020-10-20 05:20,128.0667,37.9500,68.00,41.00,37.32,290.00,3.00,0.00,30.24,M,6.21,M,CLR,M,M,M,M,M,M,M,M,M,M,M,M,M,M,M,KQEI 200520Z AUTO 29003KT 9999 CLR 20/05 A3024 RMK A02 TSNO
QEQ,2020-10-20 05:20,127.5500,37.8500,69.80,37.40,30.49,210.00,3.00,0.00,30.31,M,6.21,M,CLR,M,M,M,M,M,M,M,M,M,M,M,M,M,M,M,KQEQ 200520Z AUTO 21003KT 9999 CLR 21/03 A3031 RMK A02 TSNO
QEW,2020-10-20 05:20,128.1500,36.4000,69.80,39.20,32.72,10.00,1.00,0.00,30.26,M,6.21,M,CLR,M,M,M,M,M,M,M,M,M,M,M,M,M,M,M,KQEW 200520Z AUTO 01001KT 9999 CLR 21/04 A3026 RMK A02 TSNO
QEP,2020-10-20 05:20,127.2667,37.4000,71.60,44.60,37.89,200.00,1.00,0.00,30.29,M,6.21,M,CLR,M,M,M,M,M,M,M,M,M,M,M,M,M,M,M,KQEP 200520Z AUTO 20001KT 9999 CLR 22/07 A3029 RMK A02 TSNO
QFT,2020-10-20 05:20,127.3500,37.6000,71.60,41.00,33.00,220.00,2.00,0.00,30.25,M,M,M,CLR,M,M,M,M,M,M,M,,M,M,M,M,M,M,M,KQFT 200520Z AUTO 22002KT / // CLR 22/05 A3025 RMK A02 TSNO
QFU,2020-10-20 05:20,126.9667,37.8000,71.60,35.60,26.71,170.00,1.00,0.00,30.31,M,6.21,M,CLR,M,M,M,M,M,M,M,M,M,M,M,M,M,M,M,KQFU 200520Z AUTO 17001KT 9999 CLR 22/02 A3031 RMK A02 TSNO
QEX,2020-10-20 05:20,128.3000,36.1000,71.60,42.80,35.37,290.00,1.00,0.00,30.19,M,6.21,M,CLR,M,M,M,M,M,M,M,M,M,M,M,M,M,M,M,KQEX 200520Z AUTO 29001KT 9999 CLR 22/06 A3019 RMK A02 TSNO
QFW,2020-10-20 05:20,127.8833,37.6667,69.80,41.00,35.09,200.00,3.00,0.00,30.26,M,6.21,M,CLR,M,M,M,M,M,M,M,M,M,M,M,M,M,M,M,KQFW 200520Z AUTO 20003KT 9999 CLR 21/05 A3026 RMK A02 TSNO
QFV,2020-10-20 05:20,127.5000,38.0500,66.20,37.40,34.51,110.00,4.00,0.00,30.28,M,6.21,M,CLR,M,M,M,M,M,M,M,M,M,M,M,M,M,M,M,KQFV 200520Z AUTO 11004KT 9999 CLR 19/03 A3028 RMK A02 TSNO
QFB,2020-10-20 05:30,128.7167,35.6500,71.60,41.00,33.00,280.00,3.00,0.00,30.30,M,6.21,M,CLR,M,M,M,M,M,M,M,M,M,M,M,M,M,M,M,KQFB 200530Z AUTO 28003KT 9999 CLR 22/05 A3030 RMK A02 TSNO
QEN,2020-10-20 05:30,128.7500,37.6667,57.20,39.20,50.91,100.00,5.00,0.00,30.30,M,6.21,M,CLR,M,M,M,M,M,M,M,M,M,M,M,M,M,M,M,KQEN 200530Z AUTO 10005KT 9999 CLR 14/04 A3030 RMK A02 TSNO
QES,2020-10-20 05:30,126.4500,36.9667,66.20,48.20,52.25,M,M,0.00,30.33,M,6.21,M,CLR,M,M,M,M,M,M,M,M,M,M,M,M,M,M,M,KQES 200530Z AUTO 9999 CLR 19/09 A3033 RMK A02 TSNO
QEJ,2020-10-20 05:30,127.9500,38.2000,69.80,33.80,26.43,40.00,2.00,0.00,30.24,M,6.21,M,CLR,M,M,M,M,M,M,M,M,M,M,M,M,M,M,M,KQEJ 200530Z AUTO 04002KT 9999 CLR 21/01 A3024 RMK A02 TSNO
QEI,2020-10-20 05:30,128.0667,37.9500,68.00,41.00,37.32,320.00,3.00,0.00,30.24,M,6.21,M,CLR,M,M,M,M,M,M,M,M,M,M,M,M,M,M,M,KQEI 200530Z AUTO 32003KT 9999 CLR 20/05 A3024 RMK A02 TSNO
QEW,2020-10-20 05:30,128.1500,36.4000,69.80,39.20,32.72,310.00,1.00,0.00,30.26,M,6.21,M,CLR,M,M,M,M,M,M,M,M,M,M,M,M,M,M,M,KQEW 200530Z AUTO 31001KT 9999 CLR 21/04 A3026 RMK A02 TSNO
QEP,2020-10-20 05:30,127.2667,37.4000,69.80,41.00,35.09,130.00,3.00,0.00,30.29,M,6.21,M,CLR,M,M,M,M,M,M,M,M,M,M,M,M,M,M,M,KQEP 200530Z AUTO 13003KT 9999 CLR 21/05 A3029 RMK A02 TSNO
QFT,2020-10-20 05:30,127.3500,37.6000,69.80,37.40,30.49,180.00,4.00,0.00,30.25,M,M,M,CLR,M,M,M,M,M,M,M,,M,M,M,M,M,M,M,KQFT 200530Z AUTO 18004KT / // CLR 21/03 A3025 RMK A02 TSNO
QFU,2020-10-20 05:30,126.9667,37.8000,69.80,35.60,28.39,40.00,1.00,0.00,30.31,M,6.21,M,CLR,M,M,M,M,M,M,M,M,M,M,M,M,M,M,M,KQFU 200530Z AUTO 04001KT 9999 CLR 21/02 A3031 RMK A02 TSNO
QEX,2020-10-20 05:30,128.3000,36.1000,73.40,41.00,31.05,190.00,2.00,0.00,30.19,M,6.21,M,CLR,M,M,M,M,M,M,M,M,M,M,M,M,M,M,M,KQEX 200530Z AUTO 19002KT 9999 CLR 23/05 A3019 RMK A02 TSNO
QFW,2020-10-20 05:30,127.8833,37.6667,69.80,41.00,35.09,280.00,1.00,0.00,30.26,M,6.21,M,CLR,M,M,M,M,M,M,M,M,M,M,M,M,M,M,M,KQFW 200530Z AUTO 28001KT 9999 CLR 21/05 A3026 RMK A02 TSNO
QFV,2020-10-20 05:30,127.5000,38.0500,66.20,37.40,34.51,110.00,6.00,0.00,30.28,M,6.21,M,CLR,M,M,M,M,M,M,M,M,M,M,M,M,M,M,M,KQFV 200530Z AUTO 11006KT 9999 CLR 19/03 A3028 RMK A02 TSNO
QEQ,2020-10-20 05:30,127.5500,37.8500,69.80,39.20,32.72,260.00,1.00,0.00,30.31,M,6.21,M,CLR,M,M,M,M,M,M,M,M,M,M,M,M,M,M,M,KQEQ 200530Z AUTO 26001KT 9999 CLR 21/04 A3031 RMK A02 TSNO
RKSI,2020-10-20 05:30,126.4500,37.4667,68.00,48.20,49.10,290.00,6.00,0.00,30.27,M,5.59,M,NSC,M,M,M,M,M,M,M,M,M,M,M,M,M,M,M,RKSI 200530Z 29006KT 250V320 9000 NSC 20/09 Q1025 NOSIG
QFB,2020-10-20 05:40,128.7167,35.6500,73.40,41.00,31.05,280.00,2.00,0.00,30.30,M,6.21,M,CLR,M,M,M,M,M,M,M,M,M,M,M,M,M,M,M,KQFB 200540Z AUTO 28002KT 9999 CLR 23/05 A3030 RMK A02 TSNO
QEP,2020-10-20 05:40,127.2667,37.4000,69.80,41.00,35.09,120.00,1.00,0.00,30.29,M,6.21,M,CLR,M,M,M,M,M,M,M,M,M,M,M,M,M,M,M,KQEP 200540Z AUTO 12001KT 9999 CLR 21/05 A3029 RMK A02 TSNO
QEN,2020-10-20 05:40,128.7500,37.6667,57.20,41.00,54.60,100.00,4.00,0.00,30.30,M,6.21,M,CLR,M,M,M,M,M,M,M,M,M,M,M,M,M,M,M,KQEN 200540Z AUTO 10004KT 9999 CLR 14/05 A3030 RMK A02 TSNO
QES,2020-10-20 05:40,126.4500,36.9667,66.20,48.20,52.25,M,M,0.00,30.32,M,6.21,M,CLR,M,M,M,M,M,M,M,M,M,M,M,M,M,M,M,KQES 200540Z AUTO 9999 CLR 19/09 A3032 RMK A02 TSNO
QEJ,2020-10-20 05:40,127.9500,38.2000,69.80,35.60,28.39,290.00,2.00,0.00,30.23,M,6.21,M,CLR,M,M,M,M,M,M,M,M,M,M,M,M,M,M,M,KQEJ 200540Z AUTO 29002KT 9999 CLR 21/02 A3023 RMK A02 TSNO
QEI,2020-10-20 05:40,128.0667,37.9500,69.80,41.00,35.09,230.00,3.00,0.00,30.24,M,6.21,M,CLR,M,M,M,M,M,M,M,M,M,M,M,M,M,M,M,KQEI 200540Z AUTO 23003KT 9999 CLR 21/05 A3024 RMK A02 TSNO
QEQ,2020-10-20 05:40,127.5500,37.8500,69.80,41.00,35.09,230.00,5.00,0.00,30.31,M,6.21,M,CLR,M,M,M,M,M,M,M,M,M,M,M,M,M,M,M,KQEQ 200540Z AUTO 23005KT 9999 CLR 21/05 A3031 RMK A02 TSNO
QEW,2020-10-20 05:40,128.1500,36.4000,68.00,37.40,32.43,350.00,2.00,0.00,30.26,M,6.21,M,CLR,M,M,M,M,M,M,M,M,M,M,M,M,M,M,M,KQEW 200540Z AUTO 35002KT 9999 CLR 20/03 A3026 RMK A02 TSNO
QFT,2020-10-20 05:40,127.3500,37.6000,71.60,42.80,35.37,190.00,4.00,0.00,30.25,M,M,M,CLR,M,M,M,M,M,M,M,,M,M,M,M,M,M,M,KQFT 200540Z AUTO 19004KT / // CLR 22/06 A3025 RMK A02 TSNO
QFU,2020-10-20 05:40,126.9667,37.8000,69.80,35.60,28.39,200.00,2.00,0.00,30.31,M,6.21,M,CLR,M,M,M,M,M,M,M,M,M,M,M,M,M,M,M,KQFU 200540Z AUTO 20002KT 9999 CLR 21/02 A3031 RMK A02 TSNO
QEX,2020-10-20 05:40,128.3000,36.1000,73.40,37.40,26.98,280.00,1.00,0.00,30.18,M,6.21,M,CLR,M,M,M,M,M,M,M,M,M,M,M,M,M,M,M,KQEX 200540Z AUTO 28001KT 9999 CLR 23/03 A3018 RMK A02 TSNO
QFW,2020-10-20 05:40,127.8833,37.6667,69.80,41.00,35.09,250.00,3.00,0.00,30.26,M,6.21,M,CLR,M,M,M,M,M,M,M,M,M,M,M,M,M,M,M,KQFW 200540Z AUTO 25003KT 9999 CLR 21/05 A3026 RMK A02 TSNO
QFV,2020-10-20 05:40,127.5000,38.0500,66.20,37.40,34.51,100.00,6.00,0.00,30.28,M,6.21,M,CLR,M,M,M,M,M,M,M,M,M,M,M,M,M,M,M,KQFV 200540Z AUTO 10006KT 9999 CLR 19/03 A3028 RMK A02 TSNO
QFB,2020-10-20 05:50,128.7167,35.6500,73.40,41.00,31.05,270.00,2.00,0.00,30.30,M,6.21,M,CLR,M,M,M,M,M,M,M,M,M,M,M,M,M,M,M,KQFB 200550Z AUTO 27002KT 9999 CLR 23/05 A3030 RMK A02 TSNO
QEN,2020-10-20 05:50,128.7500,37.6667,57.20,41.00,54.60,110.00,4.00,0.00,30.30,M,6.21,M,CLR,M,M,M,M,M,M,M,M,M,M,M,M,M,M,M,KQEN 200550Z AUTO 11004KT 9999 CLR 14/05 A3030 RMK A02 TSNO
QES,2020-10-20 05:50,126.4500,36.9667,66.20,48.20,52.25,M,M,0.00,30.32,M,6.21,M,CLR,M,M,M,M,M,M,M,M,M,M,M,M,M,M,M,KQES 200550Z AUTO 9999 CLR 19/09 A3032 RMK A02 TSNO
QEJ,2020-10-20 05:50,127.9500,38.2000,71.60,35.60,26.71,200.00,3.00,0.00,30.23,M,6.21,M,CLR,M,M,M,M,M,M,M,M,M,M,M,M,M,M,M,KQEJ 200550Z AUTO 20003KT 9999 CLR 22/02 A3023 RMK A02 TSNO
QEI,2020-10-20 05:50,128.0667,37.9500,69.80,41.00,35.09,260.00,2.00,0.00,30.24,M,6.21,M,CLR,M,M,M,M,M,M,M,M,M,M,M,M,M,M,M,KQEI 200550Z AUTO 26002KT 9999 CLR 21/05 A3024 RMK A02 TSNO
QEQ,2020-10-20 05:50,127.5500,37.8500,69.80,39.20,32.72,230.00,5.00,0.00,30.32,M,6.21,M,CLR,M,M,M,M,M,M,M,M,M,M,M,M,M,M,M,KQEQ 200550Z AUTO 23005KT 9999 CLR 21/04 A3032 RMK A02 TSNO
QEW,2020-10-20 05:50,128.1500,36.4000,69.80,35.60,28.39,140.00,1.00,0.00,30.26,M,6.21,M,CLR,M,M,M,M,M,M,M,M,M,M,M,M,M,M,M,KQEW 200550Z AUTO 14001KT 9999 CLR 21/02 A3026 RMK A02 TSNO
QEP,2020-10-20 05:50,127.2667,37.4000,69.80,39.20,32.72,300.00,2.00,0.00,30.29,M,6.21,M,CLR,M,M,M,M,M,M,M,M,M,M,M,M,M,M,M,KQEP 200550Z AUTO 30002KT 9999 CLR 21/04 A3029 RMK A02 TSNO
QFT,2020-10-20 05:50,127.3500,37.6000,69.80,41.00,35.09,190.00,5.00,0.00,30.26,M,M,M,CLR,M,M,M,M,M,M,M,,M,M,M,M,M,M,M,KQFT 200550Z AUTO 19005KT / // CLR 21/05 A3026 RMK A02 TSNO
QFU,2020-10-20 05:50,126.9667,37.8000,71.60,37.40,28.68,240.00,2.00,0.00,30.31,M,6.21,M,CLR,M,M,M,M,M,M,M,M,M,M,M,M,M,M,M,KQFU 200550Z AUTO 24002KT 9999 CLR 22/03 A3031 RMK A02 TSNO
QEX,2020-10-20 05:50,128.3000,36.1000,73.40,33.80,23.39,190.00,2.00,0.00,30.18,M,6.21,M,CLR,M,M,M,M,M,M,M,M,M,M,M,M,M,M,M,KQEX 200550Z AUTO 19002KT 9999 CLR 23/01 A3018 RMK A02 TSNO
QFW,2020-10-20 05:50,127.8833,37.6667,69.80,41.00,35.09,290.00,2.00,0.00,30.26,M,6.21,M,CLR,M,M,M,M,M,M,M,M,M,M,M,M,M,M,M,KQFW 200550Z AUTO 29002KT 9999 CLR 21/05 A3026 RMK A02 TSNO
QFV,2020-10-20 05:50,127.5000,38.0500,68.00,37.40,32.43,100.00,6.00,0.00,30.28,M,6.21,M,CLR,M,M,M,M,M,M,M,M,M,M,M,M,M,M,M,KQFV 200550Z AUTO 10006KT 9999 CLR 20/03 A3028 RMK A02 TSNO
RKJK,2020-10-20 05:56,126.6220,35.8994,70.00,47.70,44.99,340.00,8.00,0.00,30.23,1024.10,9.00,M,CLR,M,M,M,M,M,M,M,M,M,M,M,M,M,M,M,RKJK 200556Z AUTO 34008KT 9SM CLR 21/09 A3023 RMK AO2 SLP241 T02110087 10221 20118 57024 $
RKSG,2020-10-20 05:56,127.0311,36.9622,70.20,39.60,32.78,0.00,0.00,0.00,30.26,1025.00,4.00,M,CLR,M,M,M,M,M,M,M,HZ,M,M,M,M,M,M,M,RKSG 200556Z 00000KT 4SM HZ CLR 21/04 A3026 RMK AO2A SLP250 T02120042 10212 20096 57023 $
RKSY,2020-10-20 05:58,126.9753,37.5241,69.80,43.90,39.23,210.00,3.00,0.00,30.26,1025.00,6.21,M,CLR,M,M,M,M,M,M,M,M,M,M,M,M,M,M,M,RKSY 200558Z AUTO 21003KT 9999 CLR 21/07 A3026 RMK AO2 SLP250 T02100066 10212 20136 56023 $
RKSO,2020-10-20 05:58,127.0296,37.0906,70.90,38.70,30.90,310.00,5.00,0.00,30.25,1024.70,6.00,M,CLR,M,M,M,M,M,M,M,HZ,M,M,M,M,M,M,M,RKSO 200558Z 31005KT 6SM HZ CLR 22/04 A3025 RMK AO2A SLP247 T02160037 10219 20100 56024 $
QFB,2020-10-20 06:00,128.7167,35.6500,75.20,41.00,29.23,240.00,2.00,0.00,30.30,M,6.21,M,CLR,M,M,M,M,M,M,M,M,M,M,M,M,M,M,M,KQFB 200600Z AUTO 24002KT 9999 CLR 24/05 A3030 RMK A02 TSNO
QEN,2020-10-20 06:00,128.7500,37.6667,55.40,42.80,62.46,110.00,4.00,0.00,30.29,M,6.21,M,CLR,M,M,M,M,M,M,M,M,M,M,M,M,M,M,M,KQEN 200600Z AUTO 11004KT 9999 CLR 13/06 A3029 RMK A02 TSNO
QES,2020-10-20 06:00,126.4500,36.9667,66.20,48.20,52.25,M,M,0.00,30.32,M,6.21,M,CLR,M,M,M,M,M,M,M,M,M,M,M,M,M,M,M,KQES 200600Z AUTO 9999 CLR 19/09 A3032 RMK A02 TSNO
QEJ,2020-10-20 06:00,127.9500,38.2000,71.60,35.60,26.71,250.00,2.00,0.00,30.23,M,6.21,M,CLR,M,M,M,M,M,M,M,M,M,M,M,M,M,M,M,KQEJ 200600Z AUTO 25002KT 9999 CLR 22/02 A3023 RMK A02 TSNO
QEI,2020-10-20 06:00,128.0667,37.9500,69.80,41.00,35.09,230.00,3.00,0.00,30.24,M,6.21,M,CLR,M,M,M,M,M,M,M,M,M,M,M,M,M,M,M,KQEI 200600Z AUTO 23003KT 9999 CLR 21/05 A3024 RMK A02 TSNO
QEQ,2020-10-20 06:00,127.5500,37.8500,69.80,37.40,30.49,230.00,4.00,0.00,30.31,M,6.21,M,CLR,M,M,M,M,M,M,M,M,M,M,M,M,M,M,M,KQEQ 200600Z AUTO 23004KT 9999 CLR 21/03 A3031 RMK A02 TSNO
QEW,2020-10-20 06:00,128.1500,36.4000,69.80,39.20,32.72,250.00,1.00,0.00,30.26,M,6.21,M,CLR,M,M,M,M,M,M,M,M,M,M,M,M,M,M,M,KQEW 200600Z AUTO 25001KT 9999 CLR 21/04 A3026 RMK A02 TSNO
QEP,2020-10-20 06:00,127.2667,37.4000,69.80,41.00,35.09,290.00,4.00,0.00,30.29,M,6.21,M,CLR,M,M,M,M,M,M,M,M,M,M,M,M,M,M,M,KQEP 200600Z AUTO 29004KT 9999 CLR 21/05 A3029 RMK A02 TSNO
QFU,2020-10-20 06:00,126.9667,37.8000,69.80,39.20,32.72,190.00,4.00,0.00,30.32,M,6.21,M,CLR,M,M,M,M,M,M,M,M,M,M,M,M,M,M,M,KQFU 200600Z AUTO 19004KT 9999 CLR 21/04 A3032 RMK A02 TSNO
QEX,2020-10-20 06:00,128.3000,36.1000,71.60,35.60,26.71,180.00,1.00,0.00,30.19,M,6.21,M,CLR,M,M,M,M,M,M,M,M,M,M,M,M,M,M,M,KQEX 200600Z AUTO 18001KT 9999 CLR 22/02 A3019 RMK A02 TSNO
QFV,2020-10-20 06:00,127.5000,38.0500,68.00,37.40,32.43,110.00,5.00,0.00,30.29,M,6.21,M,CLR,M,M,M,M,M,M,M,M,M,M,M,M,M,M,M,KQFV 200600Z AUTO 11005KT 9999 CLR 20/03 A3029 RMK A02 TSNO
RKJB,2020-10-20 06:00,126.3800,34.9800,69.80,51.80,52.77,290.00,7.00,0.00,30.24,M,6.21,M,M,M,M,M,M,M,M,M,M,M,M,M,M,M,M,M,RKJB 200600Z 29007KT 270V330 CAVOK 21/11 Q1024 NOSIG
RKPC,2020-10-20 06:00,126.4930,33.5113,69.80,60.80,73.09,70.00,17.00,0.00,30.21,M,6.21,M,FEW,M,M,M,3500.00,M,M,M,M,M,M,M,M,M,M,M,RKPC 200600Z 07017KT 9999 FEW035 21/16 Q1023 NOSIG
RKNY,2020-10-20 06:00,128.6692,38.0613,62.60,51.80,67.75,120.00,8.00,0.00,30.24,M,6.21,M,M,M,M,M,M,M,M,M,M,M,M,M,M,M,M,M,RKNY 200600Z 12008KT CAVOK 17/11 Q1024 NOSIG
RKSS,2020-10-20 06:00,126.7906,37.5583,71.60,39.20,30.77,280.00,4.00,0.00,30.27,M,6.21,M,M,M,M,M,M,M,M,M,M,M,M,M,M,M,M,M,RKSS 200600Z 28004KT 220V350 CAVOK 22/04 Q1025 NOSIG
RKTN,2020-10-20 06:00,128.6589,35.8941,73.40,37.40,26.98,150.00,6.00,0.00,30.24,M,6.21,M,M,M,M,M,M,M,M,M,M,M,M,M,M,M,M,M,RKTN 200600Z 15006KT CAVOK 23/03 Q1024
RKTU,2020-10-20 06:00,127.4991,36.7166,69.80,46.40,43.13,280.00,3.00,0.00,30.27,M,6.21,M,M,M,M,M,M,M,M,M,M,M,M,M,M,M,M,M,RKTU 200600Z 28003KT CAVOK 21/08 Q1025
RKPK,2020-10-20 06:00,128.9382,35.1795,71.60,46.40,40.57,80.00,9.00,0.00,30.24,M,6.21,M,SCT,M,M,M,5000.00,M,M,M,M,M,M,M,M,M,M,M,RKPK 200600Z 08009KT 9999 SCT050 22/08 Q1024
QFT,2020-10-20 06:00,127.3500,37.6000,69.80,37.40,30.49,200.00,4.00,0.00,30.26,M,M,M,CLR,M,M,M,M,M,M,M,,M,M,M,M,M,M,M,KQFT 200600Z AUTO 20004KT / // CLR 21/03 A3026 RMK A02 TSNO
QFW,2020-10-20 06:00,127.8833,37.6667,69.80,41.00,35.09,240.00,3.00,0.00,30.26,M,6.21,M,CLR,M,M,M,M,M,M,M,M,M,M,M,M,M,M,M,KQFW 200600Z AUTO 24003KT 9999 CLR 21/05 A3026 RMK A02 TSNO
RKSI,2020-10-20 06:00,126.4500,37.4667,68.00,48.20,49.10,290.00,6.00,0.00,30.27,M,5.59,M,NSC,M,M,M,M,M,M,M,M,M,M,M,M,M,M,M,RKSI 200600Z 29006KT 260V320 9000 NSC 20/09 Q1025 NOSIG
RKSM,2020-10-20 06:00,127.1139,37.4458,71.60,42.80,35.37,10.00,2.00,0.00,30.28,M,5.59,M,FEW,M,M,M,20000.00,M,M,M,HZ,M,M,M,M,M,M,M,RKSM 200600Z 01002KT 9000 HZ FEW200 22/06 A3028
QFB,2020-10-20 06:10,128.7167,35.6500,73.40,41.00,31.05,290.00,2.00,0.00,30.30,M,6.21,M,CLR,M,M,M,M,M,M,M,M,M,M,M,M,M,M,M,KQFB 200610Z AUTO 29002KT 9999 CLR 23/05 A3030 RMK A02 TSNO
QEN,2020-10-20 06:10,128.7500,37.6667,55.40,42.80,62.46,100.00,4.00,0.00,30.29,M,6.21,M,CLR,M,M,M,M,M,M,M,M,M,M,M,M,M,M,M,KQEN 200610Z AUTO 10004KT 9999 CLR 13/06 A3029 RMK A02 TSNO
QES,2020-10-20 06:10,126.4500,36.9667,66.20,46.40,48.83,M,M,0.00,30.32,M,6.21,M,CLR,M,M,M,M,M,M,M,M,M,M,M,M,M,M,M,KQES 200610Z AUTO 9999 CLR 19/08 A3032 RMK A02 TSNO
QEJ,2020-10-20 06:10,127.9500,38.2000,69.80,33.80,26.43,310.00,1.00,0.00,30.23,M,6.21,M,CLR,M,M,M,M,M,M,M,M,M,M,M,M,M,M,M,KQEJ 200610Z AUTO 31001KT 9999 CLR 21/01 A3023 RMK A02 TSNO
QEI,2020-10-20 06:10,128.0667,37.9500,69.80,41.00,35.09,260.00,3.00,0.00,30.24,M,6.21,M,CLR,M,M,M,M,M,M,M,M,M,M,M,M,M,M,M,KQEI 200610Z AUTO 26003KT 9999 CLR 21/05 A3024 RMK A02 TSNO
QEQ,2020-10-20 06:10,127.5500,37.8500,69.80,41.00,35.09,220.00,4.00,0.00,30.31,M,6.21,M,CLR,M,M,M,M,M,M,M,M,M,M,M,M,M,M,M,KQEQ 200610Z AUTO 22004KT 9999 CLR 21/05 A3031 RMK A02 TSNO
QEW,2020-10-20 06:10,128.1500,36.4000,69.80,37.40,30.49,180.00,4.00,0.00,30.26,M,6.21,M,CLR,M,M,M,M,M,M,M,M,M,M,M,M,M,M,M,KQEW 200610Z AUTO 18004KT 9999 CLR 21/03 A3026 RMK A02 TSNO
QFT,2020-10-20 06:10,127.3500,37.6000,69.80,39.20,32.72,200.00,4.00,0.00,30.26,M,M,M,CLR,M,M,M,M,M,M,M,,M,M,M,M,M,M,M,KQFT 200610Z AUTO 20004KT / // CLR 21/04 A3026 RMK A02 TSNO
QFU,2020-10-20 06:10,126.9667,37.8000,69.80,41.00,35.09,190.00,2.00,0.00,30.32,M,6.21,M,CLR,M,M,M,M,M,M,M,M,M,M,M,M,M,M,M,KQFU 200610Z AUTO 19002KT 9999 CLR 21/05 A3032 RMK A02 TSNO
QEX,2020-10-20 06:10,128.3000,36.1000,71.60,37.40,28.68,190.00,2.00,0.00,30.18,M,6.21,M,CLR,M,M,M,M,M,M,M,M,M,M,M,M,M,M,M,KQEX 200610Z AUTO 19002KT 9999 CLR 22/03 A3018 RMK A02 TSNO
QFV,2020-10-20 06:10,127.5000,38.0500,68.00,37.40,32.43,90.00,4.00,0.00,30.29,M,6.21,M,CLR,M,M,M,M,M,M,M,M,M,M,M,M,M,M,M,KQFV 200610Z AUTO 09004KT 9999 CLR 20/03 A3029 RMK A02 TSNO
QEP,2020-10-20 06:10,127.2667,37.4000,69.80,41.00,35.09,250.00,3.00,0.00,30.29,M,6.21,M,CLR,M,M,M,M,M,M,M,M,M,M,M,M,M,M,M,KQEP 200610Z AUTO 25003KT 9999 CLR 21/05 A3029 RMK A02 TSNO
QFW,2020-10-20 06:10,127.8833,37.6667,69.80,39.20,32.72,280.00,3.00,0.00,30.27,M,6.21,M,CLR,M,M,M,M,M,M,M,M,M,M,M,M,M,M,M,KQFW 200610Z AUTO 28003KT 9999 CLR 21/04 A3027 RMK A02 TSNO
QFB,2020-10-20 06:20,128.7167,35.6500,73.40,41.00,31.05,280.00,1.00,0.00,30.30,M,6.21,M,CLR,M,M,M,M,M,M,M,M,M,M,M,M,M,M,M,KQFB 200620Z AUTO 28001KT 9999 CLR 23/05 A3030 RMK A02 TSNO
QEN,2020-10-20 06:20,128.7500,37.6667,57.20,42.80,58.52,110.00,3.00,0.00,30.30,M,6.21,M,CLR,M,M,M,M,M,M,M,M,M,M,M,M,M,M,M,KQEN 200620Z AUTO 11003KT 9999 CLR 14/06 A3030 RMK A02 TSNO
QES,2020-10-20 06:20,126.4500,36.9667,66.20,50.00,55.88,M,M,0.00,30.32,M,6.21,M,CLR,M,M,M,M,M,M,M,M,M,M,M,M,M,M,M,KQES 200620Z AUTO 9999 CLR 19/10 A3032 RMK A02 TSNO
QEJ,2020-10-20 06:20,127.9500,38.2000,71.60,35.60,26.71,210.00,3.00,0.00,30.24,M,6.21,M,CLR,M,M,M,M,M,M,M,M,M,M,M,M,M,M,M,KQEJ 200620Z AUTO 21003KT 9999 CLR 22/02 A3024 RMK A02 TSNO
QEI,2020-10-20 06:20,128.0667,37.9500,69.80,41.00,35.09,280.00,4.00,0.00,30.25,M,6.21,M,CLR,M,M,M,M,M,M,M,M,M,M,M,M,M,M,M,KQEI 200620Z AUTO 28004KT 9999 CLR 21/05 A3025 RMK A02 TSNO
QEQ,2020-10-20 06:20,127.5500,37.8500,69.80,42.80,37.61,240.00,3.00,0.00,30.31,M,6.21,M,CLR,M,M,M,M,M,M,M,M,M,M,M,M,M,M,M,KQEQ 200620Z AUTO 24003KT 9999 CLR 21/06 A3031 RMK A02 TSNO
QEW,2020-10-20 06:20,128.1500,36.4000,69.80,39.20,32.72,200.00,2.00,0.00,30.26,M,6.21,M,CLR,M,M,M,M,M,M,M,M,M,M,M,M,M,M,M,KQEW 200620Z AUTO 20002KT 9999 CLR 21/04 A3026 RMK A02 TSNO
QEP,2020-10-20 06:20,127.2667,37.4000,69.80,41.00,35.09,310.00,2.00,0.00,30.29,M,6.21,M,CLR,M,M,M,M,M,M,M,M,M,M,M,M,M,M,M,KQEP 200620Z AUTO 31002KT 9999 CLR 21/05 A3029 RMK A02 TSNO
QFT,2020-10-20 06:20,127.3500,37.6000,71.60,39.20,30.77,220.00,3.00,0.00,30.26,M,M,M,CLR,M,M,M,M,M,M,M,,M,M,M,M,M,M,M,KQFT 200620Z AUTO 22003KT / // CLR 22/04 A3026 RMK A02 TSNO
QFU,2020-10-20 06:20,126.9667,37.8000,69.80,39.20,32.72,210.00,3.00,0.00,30.31,M,6.21,M,CLR,M,M,M,M,M,M,M,M,M,M,M,M,M,M,M,KQFU 200620Z AUTO 21003KT 9999 CLR 21/04 A3031 RMK A02 TSNO
QEX,2020-10-20 06:20,128.3000,36.1000,73.40,37.40,26.98,270.00,1.00,0.00,30.18,M,6.21,M,CLR,M,M,M,M,M,M,M,M,M,M,M,M,M,M,M,KQEX 200620Z AUTO 27001KT 9999 CLR 23/03 A3018 RMK A02 TSNO
QFW,2020-10-20 06:20,127.8833,37.6667,69.80,39.20,32.72,260.00,4.00,0.00,30.27,M,6.21,M,CLR,M,M,M,M,M,M,M,M,M,M,M,M,M,M,M,KQFW 200620Z AUTO 26004KT 9999 CLR 21/04 A3027 RMK A02 TSNO
QFV,2020-10-20 06:20,127.5000,38.0500,68.00,37.40,32.43,120.00,3.00,0.00,30.30,M,6.21,M,CLR,M,M,M,M,M,M,M,M,M,M,M,M,M,M,M,KQFV 200620Z AUTO 12003KT 9999 CLR 20/03 A3030 RMK A02 TSNO
QFB,2020-10-20 06:30,128.7167,35.6500,75.20,41.00,29.23,280.00,1.00,0.00,30.29,M,6.21,M,CLR,M,M,M,M,M,M,M,M,M,M,M,M,M,M,M,KQFB 200630Z AUTO 28001KT 9999 CLR 24/05 A3029 RMK A02 TSNO
QEN,2020-10-20 06:30,128.7500,37.6667,57.20,42.80,58.52,90.00,3.00,0.00,30.30,M,6.21,M,CLR,M,M,M,M,M,M,M,M,M,M,M,M,M,M,M,KQEN 200630Z AUTO 09003KT 9999 CLR 14/06 A3030 RMK A02 TSNO
QES,2020-10-20 06:30,126.4500,36.9667,66.20,46.40,48.83,M,M,0.00,30.31,M,6.21,M,CLR,M,M,M,M,M,M,M,M,M,M,M,M,M,M,M,KQES 200630Z AUTO 9999 CLR 19/08 A3031 RMK A02 TSNO
QEJ,2020-10-20 06:30,127.9500,38.2000,71.60,35.60,26.71,260.00,3.00,0.00,30.25,M,6.21,M,CLR,M,M,M,M,M,M,M,M,M,M,M,M,M,M,M,KQEJ 200630Z AUTO 26003KT 9999 CLR 22/02 A3025 RMK A02 TSNO
QEI,2020-10-20 06:30,128.0667,37.9500,69.80,41.00,35.09,300.00,4.00,0.00,30.26,M,6.21,M,CLR,M,M,M,M,M,M,M,M,M,M,M,M,M,M,M,KQEI 200630Z AUTO 30004KT 9999 CLR 21/05 A3026 RMK A02 TSNO
QEQ,2020-10-20 06:30,127.5500,37.8500,69.80,42.80,37.61,240.00,4.00,0.00,30.31,M,6.21,M,CLR,M,M,M,M,M,M,M,M,M,M,M,M,M,M,M,KQEQ 200630Z AUTO 24004KT 9999 CLR 21/06 A3031 RMK A02 TSNO
QEW,2020-10-20 06:30,128.1500,36.4000,69.80,37.40,30.49,190.00,1.00,0.00,30.26,M,6.21,M,CLR,M,M,M,M,M,M,M,M,M,M,M,M,M,M,M,KQEW 200630Z AUTO 19001KT 9999 CLR 21/03 A3026 RMK A02 TSNO
QEP,2020-10-20 06:30,127.2667,37.4000,71.60,39.20,30.77,110.00,1.00,0.00,30.28,M,6.21,M,CLR,M,M,M,M,M,M,M,M,M,M,M,M,M,M,M,KQEP 200630Z AUTO 11001KT 9999 CLR 22/04 A3028 RMK A02 TSNO
QFT,2020-10-20 06:30,127.3500,37.6000,71.60,37.40,28.68,170.00,3.00,0.00,30.26,M,M,M,CLR,M,M,M,M,M,M,M,,M,M,M,M,M,M,M,KQFT 200630Z AUTO 17003KT / // CLR 22/03 A3026 RMK A02 TSNO
QFU,2020-10-20 06:30,126.9667,37.8000,69.80,39.20,32.72,200.00,3.00,0.00,30.31,M,6.21,M,CLR,M,M,M,M,M,M,M,M,M,M,M,M,M,M,M,KQFU 200630Z AUTO 20003KT 9999 CLR 21/04 A3031 RMK A02 TSNO
QEX,2020-10-20 06:30,128.3000,36.1000,73.40,37.40,26.98,270.00,1.00,0.00,30.18,M,6.21,M,CLR,M,M,M,M,M,M,M,M,M,M,M,M,M,M,M,KQEX 200630Z AUTO 27001KT 9999 CLR 23/03 A3018 RMK A02 TSNO
QFW,2020-10-20 06:30,127.8833,37.6667,69.80,39.20,32.72,250.00,4.00,0.00,30.28,M,6.21,M,CLR,M,M,M,M,M,M,M,M,M,M,M,M,M,M,M,KQFW 200630Z AUTO 25004KT 9999 CLR 21/04 A3028 RMK A02 TSNO
QFV,2020-10-20 06:30,127.5000,38.0500,69.80,35.60,28.39,160.00,1.00,0.00,30.30,M,6.21,M,CLR,M,M,M,M,M,M,M,M,M,M,M,M,M,M,M,KQFV 200630Z AUTO 16001KT 9999 CLR 21/02 A3030 RMK A02 TSNO
RKSI,2020-10-20 06:30,126.4500,37.4667,66.20,46.40,48.83,310.00,6.00,0.00,30.27,M,5.59,M,NSC,M,M,M,M,M,M,M,M,M,M,M,M,M,M,M,RKSI 200630Z 31006KT 9000 NSC 19/08 Q1025 NOSIG
QFU,2020-10-20 06:40,126.9667,37.8000,69.80,39.20,32.72,230.00,4.00,0.00,30.32,M,6.21,M,CLR,M,M,M,M,M,M,M,M,M,M,M,M,M,M,M,KQFU 200640Z AUTO 23004KT 9999 CLR 21/04 A3032 RMK A02 TSNO
QFW,2020-10-20 06:40,127.8833,37.6667,69.80,39.20,32.72,270.00,4.00,0.00,30.27,M,6.21,M,CLR,M,M,M,M,M,M,M,M,M,M,M,M,M,M,M,KQFW 200640Z AUTO 27004KT 9999 CLR 21/04 A3027 RMK A02 TSNO
QFB,2020-10-20 06:40,128.7167,35.6500,73.40,41.00,31.05,120.00,2.00,0.00,30.30,M,6.21,M,CLR,M,M,M,M,M,M,M,M,M,M,M,M,M,M,M,KQFB 200640Z AUTO 12002KT 9999 CLR 23/05 A3030 RMK A02 TSNO
QEN,2020-10-20 06:40,128.7500,37.6667,55.40,42.80,62.46,80.00,3.00,0.00,30.31,M,6.21,M,CLR,M,M,M,M,M,M,M,M,M,M,M,M,M,M,M,KQEN 200640Z AUTO 08003KT 9999 CLR 13/06 A3031 RMK A02 TSNO
QES,2020-10-20 06:40,126.4500,36.9667,66.20,46.40,48.83,M,M,0.00,30.32,M,6.21,M,CLR,M,M,M,M,M,M,M,M,M,M,M,M,M,M,M,KQES 200640Z AUTO 9999 CLR 19/08 A3032 RMK A02 TSNO
QEJ,2020-10-20 06:40,127.9500,38.2000,69.80,35.60,28.39,330.00,3.00,0.00,30.25,M,6.21,M,CLR,M,M,M,M,M,M,M,M,M,M,M,M,M,M,M,KQEJ 200640Z AUTO 33003KT 9999 CLR 21/02 A3025 RMK A02 TSNO
QEI,2020-10-20 06:40,128.0667,37.9500,69.80,39.20,32.72,250.00,2.00,0.00,30.26,M,6.21,M,CLR,M,M,M,M,M,M,M,M,M,M,M,M,M,M,M,KQEI 200640Z AUTO 25002KT 9999 CLR 21/04 A3026 RMK A02 TSNO
QEQ,2020-10-20 06:40,127.5500,37.8500,69.80,41.00,35.09,240.00,5.00,0.00,30.31,M,6.21,M,CLR,M,M,M,M,M,M,M,M,M,M,M,M,M,M,M,KQEQ 200640Z AUTO 24005KT 9999 CLR 21/05 A3031 RMK A02 TSNO
QEW,2020-10-20 06:40,128.1500,36.4000,69.80,41.00,35.09,250.00,2.00,0.00,30.26,M,6.21,M,CLR,M,M,M,M,M,M,M,M,M,M,M,M,M,M,M,KQEW 200640Z AUTO 25002KT 9999 CLR 21/05 A3026 RMK A02 TSNO
QEP,2020-10-20 06:40,127.2667,37.4000,71.60,39.20,30.77,310.00,1.00,0.00,30.29,M,6.21,M,CLR,M,M,M,M,M,M,M,M,M,M,M,M,M,M,M,KQEP 200640Z AUTO 31001KT 9999 CLR 22/04 A3029 RMK A02 TSNO
QFT,2020-10-20 06:40,127.3500,37.6000,71.60,35.60,26.71,180.00,4.00,0.00,30.25,M,M,M,CLR,M,M,M,M,M,M,M,,M,M,M,M,M,M,M,KQFT 200640Z AUTO 18004KT / // CLR 22/02 A3025 RMK A02 TSNO
QEX,2020-10-20 06:40,128.3000,36.1000,73.40,35.60,25.13,180.00,2.00,0.00,30.18,M,6.21,M,CLR,M,M,M,M,M,M,M,M,M,M,M,M,M,M,M,KQEX 200640Z AUTO 18002KT 9999 CLR 23/02 A3018 RMK A02 TSNO
QFV,2020-10-20 06:40,127.5000,38.0500,69.80,37.40,30.49,90.00,3.00,0.00,30.30,M,6.21,M,CLR,M,M,M,M,M,M,M,M,M,M,M,M,M,M,M,KQFV 200640Z AUTO 09003KT 9999 CLR 21/03 A3030 RMK A02 TSNO
RKSO,2020-10-20 06:47,127.0296,37.0906,69.80,39.20,32.72,0.00,0.00,0.00,30.25,1024.70,6.00,M,CLR,M,M,M,M,M,M,M,HZ,M,M,M,M,M,M,M,RKSO 200647Z 00000KT 6SM HZ CLR 21/04 A3025 RMK AO2A VIS W 4 SLP247
QEX,2020-10-20 06:50,128.3000,36.1000,73.40,37.40,26.98,270.00,2.00,0.00,30.18,M,6.21,M,CLR,M,M,M,M,M,M,M,M,M,M,M,M,M,M,M,KQEX 200650Z AUTO 27002KT 9999 CLR 23/03 A3018 RMK A02 TSNO
QFV,2020-10-20 06:50,127.5000,38.0500,69.80,39.20,32.72,210.00,1.00,0.00,30.30,M,6.21,M,CLR,M,M,M,M,M,M,M,M,M,M,M,M,M,M,M,KQFV 200650Z AUTO 21001KT 9999 CLR 21/04 A3030 RMK A02 TSNO
QEP,2020-10-20 06:50,127.2667,37.4000,69.80,39.20,32.72,260.00,3.00,0.00,30.29,M,6.21,M,CLR,M,M,M,M,M,M,M,M,M,M,M,M,M,M,M,KQEP 200650Z AUTO 26003KT 9999 CLR 21/04 A3029 RMK A02 TSNO
QFT,2020-10-20 06:50,127.3500,37.6000,69.80,42.80,37.61,260.00,2.00,0.00,30.26,M,M,M,CLR,M,M,M,M,M,M,M,,M,M,M,M,M,M,M,KQFT 200650Z AUTO 26002KT / // CLR 21/06 A3026 RMK A02 TSNO
QFU,2020-10-20 06:50,126.9667,37.8000,69.80,35.60,28.39,270.00,2.00,0.00,30.32,M,6.21,M,CLR,M,M,M,M,M,M,M,M,M,M,M,M,M,M,M,KQFU 200650Z AUTO 27002KT 9999 CLR 21/02 A3032 RMK A02 TSNO
QFW,2020-10-20 06:50,127.8833,37.6667,69.80,39.20,32.72,270.00,3.00,0.00,30.27,M,6.21,M,CLR,M,M,M,M,M,M,M,M,M,M,M,M,M,M,M,KQFW 200650Z AUTO 27003KT 9999 CLR 21/04 A3027 RMK A02 TSNO
QFB,2020-10-20 06:50,128.7167,35.6500,75.20,41.00,29.23,110.00,2.00,0.00,30.30,M,6.21,M,CLR,M,M,M,M,M,M,M,M,M,M,M,M,M,M,M,KQFB 200650Z AUTO 11002KT 9999 CLR 24/05 A3030 RMK A02 TSNO
QEN,2020-10-20 06:50,128.7500,37.6667,55.40,42.80,62.46,90.00,2.00,0.00,30.31,M,6.21,M,CLR,M,M,M,M,M,M,M,M,M,M,M,M,M,M,M,KQEN 200650Z AUTO 09002KT 9999 CLR 13/06 A3031 RMK A02 TSNO
QES,2020-10-20 06:50,126.4500,36.9667,66.20,46.40,48.83,M,M,0.00,30.32,M,6.21,M,CLR,M,M,M,M,M,M,M,M,M,M,M,M,M,M,M,KQES 200650Z AUTO 9999 CLR 19/08 A3032 RMK A02 TSNO
QEJ,2020-10-20 06:50,127.9500,38.2000,69.80,37.40,30.49,360.00,4.00,0.00,30.26,M,6.21,M,CLR,M,M,M,M,M,M,M,M,M,M,M,M,M,M,M,KQEJ 200650Z AUTO 36004KT 9999 CLR 21/03 A3026 RMK A02 TSNO
QEI,2020-10-20 06:50,128.0667,37.9500,69.80,37.40,30.49,360.00,2.00,0.00,30.26,M,6.21,M,CLR,M,M,M,M,M,M,M,M,M,M,M,M,M,M,M,KQEI 200650Z AUTO 36002KT 9999 CLR 21/03 A3026 RMK A02 TSNO
QEQ,2020-10-20 06:50,127.5500,37.8500,69.80,42.80,37.61,200.00,2.00,0.00,30.32,M,6.21,M,CLR,M,M,M,M,M,M,M,M,M,M,M,M,M,M,M,KQEQ 200650Z AUTO 20002KT 9999 CLR 21/06 A3032 RMK A02 TSNO
QEW,2020-10-20 06:50,128.1500,36.4000,69.80,39.20,32.72,260.00,1.00,0.00,30.25,M,6.21,M,CLR,M,M,M,M,M,M,M,M,M,M,M,M,M,M,M,KQEW 200650Z AUTO 26001KT 9999 CLR 21/04 A3025 RMK A02 TSNO
RKJK,2020-10-20 06:56,126.6220,35.8994,69.60,46.00,42.78,340.00,10.00,0.00,30.23,1024.10,10.00,M,CLR,M,M,M,M,M,M,M,M,M,M,M,M,M,M,M,RKJK 200656Z AUTO 34010KT 10SM CLR 21/08 A3023 RMK AO2 SLP241 T02090078 $
RKSG,2020-10-20 06:56,127.0311,36.9622,69.30,47.10,45.05,290.00,4.00,0.00,30.26,1025.00,4.00,M,CLR,M,M,M,M,M,M,M,HZ,M,M,M,M,M,M,M,RKSG 200656Z 29004KT 4SM HZ CLR 21/08 A3026 RMK AO2A SLP250 T02070084 $
RKSO,2020-10-20 06:58,127.0296,37.0906,70.50,39.40,32.19,300.00,5.00,0.00,30.25,1024.70,6.00,M,CLR,M,M,M,M,M,M,M,HZ,M,M,M,M,M,M,M,RKSO 200658Z 30005KT 6SM HZ CLR 21/04 A3025 RMK AO2A VIS W 4 SLP247 T02140041 $
RKSY,2020-10-20 06:58,126.9753,37.5241,69.60,43.90,39.49,0.00,0.00,0.00,30.25,1024.70,6.21,M,CLR,M,M,M,M,M,M,M,M,M,M,M,M,M,M,M,RKSY 200658Z AUTO 00000KT 9999 CLR 21/07 A3025 RMK AO2 SLP247 T02090066 $
QFB,2020-10-20 07:00,128.7167,35.6500,73.40,41.00,31.05,320.00,1.00,0.00,30.30,M,6.21,M,CLR,M,M,M,M,M,M,M,M,M,M,M,M,M,M,M,KQFB 200700Z AUTO 32001KT 9999 CLR 23/05 A3030 RMK A02 TSNO
QEN,2020-10-20 07:00,128.7500,37.6667,55.40,44.60,66.91,90.00,2.00,0.00,30.31,M,6.21,M,CLR,M,M,M,M,M,M,M,M,M,M,M,M,M,M,M,KQEN 200700Z AUTO 09002KT 9999 CLR 13/07 A3031 RMK A02 TSNO
QES,2020-10-20 07:00,126.4500,36.9667,66.20,48.20,52.25,M,M,0.00,30.32,M,6.21,M,CLR,M,M,M,M,M,M,M,M,M,M,M,M,M,M,M,KQES 200700Z AUTO 9999 CLR 19/09 A3032 RMK A02 TSNO
QEJ,2020-10-20 07:00,127.9500,38.2000,69.80,39.20,32.72,350.00,2.00,0.00,30.26,M,6.21,M,CLR,M,M,M,M,M,M,M,M,M,M,M,M,M,M,M,KQEJ 200700Z AUTO 35002KT 9999 CLR 21/04 A3026 RMK A02 TSNO
QEI,2020-10-20 07:00,128.0667,37.9500,68.00,37.40,32.43,290.00,6.00,0.00,30.26,M,6.21,11.00,CLR,M,M,M,M,M,M,M,M,M,M,M,M,M,M,M,KQEI 200700Z AUTO 29006G11KT 9999 CLR 20/03 A3026 RMK A02 TSNO
QEW,2020-10-20 07:00,128.1500,36.4000,69.80,39.20,32.72,40.00,1.00,0.00,30.25,M,6.21,M,CLR,M,M,M,M,M,M,M,M,M,M,M,M,M,M,M,KQEW 200700Z AUTO 04001KT 9999 CLR 21/04 A3025 RMK A02 TSNO
QEP,2020-10-20 07:00,127.2667,37.4000,69.80,37.40,30.49,290.00,2.00,0.00,30.29,M,6.21,M,CLR,M,M,M,M,M,M,M,M,M,M,M,M,M,M,M,KQEP 200700Z AUTO 29002KT 9999 CLR 21/03 A3029 RMK A02 TSNO
QFT,2020-10-20 07:00,127.3500,37.6000,69.80,42.80,37.61,280.00,2.00,0.00,30.26,M,M,M,CLR,M,M,M,M,M,M,M,,M,M,M,M,M,M,M,KQFT 200700Z AUTO 28002KT / // CLR 21/06 A3026 RMK A02 TSNO
QFU,2020-10-20 07:00,126.9667,37.8000,69.80,35.60,28.39,330.00,3.00,0.00,30.32,M,6.21,M,CLR,M,M,M,M,M,M,M,M,M,M,M,M,M,M,M,KQFU 200700Z AUTO 33003KT 9999 CLR 21/02 A3032 RMK A02 TSNO
QEX,2020-10-20 07:00,128.3000,36.1000,71.60,39.20,30.77,40.00,2.00,0.00,30.18,M,6.21,M,CLR,M,M,M,M,M,M,M,M,M,M,M,M,M,M,M,KQEX 200700Z AUTO 04002KT 9999 CLR 22/04 A3018 RMK A02 TSNO
QFW,2020-10-20 07:00,127.8833,37.6667,69.80,39.20,32.72,280.00,4.00,0.00,30.27,M,6.21,M,CLR,M,M,M,M,M,M,M,M,M,M,M,M,M,M,M,KQFW 200700Z AUTO 28004KT 9999 CLR 21/04 A3027 RMK A02 TSNO
QFV,2020-10-20 07:00,127.5000,38.0500,69.80,39.20,32.72,240.00,4.00,0.00,30.30,M,6.21,M,CLR,M,M,M,M,M,M,M,M,M,M,M,M,M,M,M,KQFV 200700Z AUTO 24004KT 9999 CLR 21/04 A3030 RMK A02 TSNO
RKJB,2020-10-20 07:00,126.3800,34.9800,68.00,50.00,52.51,340.00,6.00,0.00,30.24,M,6.21,M,M,M,M,M,M,M,M,M,M,M,M,M,M,M,M,M,RKJB 200700Z 34006KT CAVOK 20/10 Q1024 NOSIG
RKPC,2020-10-20 07:00,126.4930,33.5113,68.00,59.00,72.92,70.00,17.00,0.00,30.21,M,6.21,M,FEW,M,M,M,3500.00,M,M,M,M,M,M,M,M,M,M,M,RKPC 200700Z 07017KT 9999 FEW035 20/15 Q1023 NOSIG
RKNY,2020-10-20 07:00,128.6692,38.0613,62.60,51.80,67.75,120.00,6.00,0.00,30.27,M,6.21,M,M,M,M,M,M,M,M,M,M,M,M,M,M,M,M,M,RKNY 200700Z 12006KT CAVOK 17/11 Q1025 NOSIG
RKSS,2020-10-20 07:00,126.7906,37.5583,69.80,39.20,32.72,360.00,6.00,0.00,30.27,M,6.21,M,M,M,M,M,M,M,M,M,M,M,M,M,M,M,M,M,RKSS 200700Z 36006KT 330V030 CAVOK 21/04 Q1025 NOSIG
RKTN,2020-10-20 07:00,128.6589,35.8941,73.40,33.80,23.39,120.00,6.00,0.00,30.24,M,6.21,M,M,M,M,M,M,M,M,M,M,M,M,M,M,M,M,M,RKTN 200700Z 12006KT CAVOK 23/01 Q1024
RKTU,2020-10-20 07:00,127.4991,36.7166,69.80,44.60,40.29,340.00,2.00,0.00,30.24,M,6.21,M,M,M,M,M,M,M,M,M,M,M,M,M,M,M,M,M,RKTU 200700Z 34002KT CAVOK 21/07 Q1024
QEQ,2020-10-20 07:00,127.5500,37.8500,69.80,41.00,35.09,240.00,4.00,0.00,30.32,M,6.21,M,CLR,M,M,M,M,M,M,M,M,M,M,M,M,M,M,M,KQEQ 200700Z AUTO 24004KT 9999 CLR 21/05 A3032 RMK A02 TSNO
RKPK,2020-10-20 07:00,128.9382,35.1795,69.80,46.40,43.13,70.00,10.00,0.00,30.24,M,6.21,M,FEW,M,M,M,5000.00,M,M,M,M,M,M,M,M,M,M,M,RKPK 200700Z 07010KT 9999 FEW050 21/08 Q1024
RKSI,2020-10-20 07:00,126.4500,37.4667,66.20,50.00,55.88,290.00,8.00,0.00,30.27,M,5.59,M,NSC,M,M,M,M,M,M,M,M,M,M,M,M,M,M,M,RKSI 200700Z 29008KT 9000 NSC 19/10 Q1025 NOSIG
RKSM,2020-10-20 07:00,127.1139,37.4458,71.60,37.40,28.68,210.00,1.00,0.00,30.27,M,5.59,M,FEW,M,M,M,20000.00,M,M,M,HZ,M,M,M,M,M,M,M,RKSM 200700Z 21001KT 9000 HZ FEW200 22/03 A3027
QFB,2020-10-20 07:10,128.7167,35.6500,73.40,41.00,31.05,350.00,2.00,0.00,30.30,M,6.21,M,CLR,M,M,M,M,M,M,M,M,M,M,M,M,M,M,M,KQFB 200710Z AUTO 35002KT 9999 CLR 23/05 A3030 RMK A02 TSNO
QEN,2020-10-20 07:10,128.7500,37.6667,55.40,44.60,66.91,70.00,3.00,0.00,30.32,M,6.21,M,CLR,M,M,M,M,M,M,M,M,M,M,M,M,M,M,M,KQEN 200710Z AUTO 07003KT 9999 CLR 13/07 A3032 RMK A02 TSNO
QES,2020-10-20 07:10,126.4500,36.9667,66.20,46.40,48.83,M,M,0.00,30.32,M,6.21,M,CLR,M,M,M,M,M,M,M,M,M,M,M,M,M,M,M,KQES 200710Z AUTO 9999 CLR 19/08 A3032 RMK A02 TSNO
QEJ,2020-10-20 07:10,127.9500,38.2000,69.80,41.00,35.09,330.00,3.00,0.00,30.26,M,6.21,M,CLR,M,M,M,M,M,M,M,M,M,M,M,M,M,M,M,KQEJ 200710Z AUTO 33003KT 9999 CLR 21/05 A3026 RMK A02 TSNO
QEI,2020-10-20 07:10,128.0667,37.9500,68.00,39.20,34.80,320.00,3.00,0.00,30.26,M,6.21,M,CLR,M,M,M,M,M,M,M,M,M,M,M,M,M,M,M,KQEI 200710Z AUTO 32003KT 9999 CLR 20/04 A3026 RMK A02 TSNO
QEQ,2020-10-20 07:10,127.5500,37.8500,69.80,42.80,37.61,230.00,5.00,0.00,30.31,M,6.21,M,CLR,M,M,M,M,M,M,M,M,M,M,M,M,M,M,M,KQEQ 200710Z AUTO 23005KT 9999 CLR 21/06 A3031 RMK A02 TSNO
QEW,2020-10-20 07:10,128.1500,36.4000,69.80,37.40,30.49,360.00,2.00,0.00,30.25,M,6.21,M,CLR,M,M,M,M,M,M,M,M,M,M,M,M,M,M,M,KQEW 200710Z AUTO 36002KT 9999 CLR 21/03 A3025 RMK A02 TSNO
QEP,2020-10-20 07:10,127.2667,37.4000,69.80,37.40,30.49,240.00,2.00,0.00,30.29,M,6.21,M,CLR,M,M,M,M,M,M,M,M,M,M,M,M,M,M,M,KQEP 200710Z AUTO 24002KT 9999 CLR 21/03 A3029 RMK A02 TSNO
QEX,2020-10-20 07:10,128.3000,36.1000,71.60,37.40,28.68,40.00,3.00,0.00,30.18,M,6.21,M,CLR,M,M,M,M,M,M,M,M,M,M,M,M,M,M,M,KQEX 200710Z AUTO 04003KT 9999 CLR 22/03 A3018 RMK A02 TSNO
QFT,2020-10-20 07:10,127.3500,37.6000,71.60,42.80,35.37,250.00,1.00,0.00,30.26,M,M,M,CLR,M,M,M,M,M,M,M,,M,M,M,M,M,M,M,KQFT 200710Z AUTO 25001KT / // CLR 22/06 A3026 RMK A02 TSNO
QFU,2020-10-20 07:10,126.9667,37.8000,69.80,33.80,26.43,320.00,2.00,0.00,30.32,M,6.21,M,CLR,M,M,M,M,M,M,M,M,M,M,M,M,M,M,M,KQFU 200710Z AUTO 32002KT 9999 CLR 21/01 A3032 RMK A02 TSNO
QFW,2020-10-20 07:10,127.8833,37.6667,69.80,39.20,32.72,280.00,4.00,0.00,30.28,M,6.21,M,CLR,M,M,M,M,M,M,M,M,M,M,M,M,M,M,M,KQFW 200710Z AUTO 28004KT 9999 CLR 21/04 A3028 RMK A02 TSNO
QFV,2020-10-20 07:10,127.5000,38.0500,68.00,41.00,37.32,240.00,3.00,0.00,30.31,M,6.21,M,CLR,M,M,M,M,M,M,M,M,M,M,M,M,M,M,M,KQFV 200710Z AUTO 24003KT 9999 CLR 20/05 A3031 RMK A02 TSNO
QFB,2020-10-20 07:20,128.7167,35.6500,73.40,41.00,31.05,60.00,4.00,0.00,30.29,M,6.21,M,CLR,M,M,M,M,M,M,M,M,M,M,M,M,M,M,M,KQFB 200720Z AUTO 06004KT 9999 CLR 23/05 A3029 RMK A02 TSNO
QEN,2020-10-20 07:20,128.7500,37.6667,55.40,44.60,66.91,50.00,3.00,0.00,30.32,M,6.21,M,CLR,M,M,M,M,M,M,M,M,M,M,M,M,M,M,M,KQEN 200720Z AUTO 05003KT 9999 CLR 13/07 A3032 RMK A02 TSNO
QES,2020-10-20 07:20,126.4500,36.9667,66.20,48.20,52.25,M,M,0.00,30.31,M,6.21,M,CLR,M,M,M,M,M,M,M,M,M,M,M,M,M,M,M,KQES 200720Z AUTO 9999 CLR 19/09 A3031 RMK A02 TSNO
QEJ,2020-10-20 07:20,127.9500,38.2000,69.80,41.00,35.09,350.00,2.00,0.00,30.26,M,6.21,M,CLR,M,M,M,M,M,M,M,M,M,M,M,M,M,M,M,KQEJ 200720Z AUTO 35002KT 9999 CLR 21/05 A3026 RMK A02 TSNO
QEI,2020-10-20 07:20,128.0667,37.9500,68.00,39.20,34.80,230.00,3.00,0.00,30.27,M,6.21,M,CLR,M,M,M,M,M,M,M,M,M,M,M,M,M,M,M,KQEI 200720Z AUTO 23003KT 9999 CLR 20/04 A3027 RMK A02 TSNO
QEQ,2020-10-20 07:20,127.5500,37.8500,69.80,42.80,37.61,230.00,2.00,0.00,30.31,M,6.21,M,CLR,M,M,M,M,M,M,M,M,M,M,M,M,M,M,M,KQEQ 200720Z AUTO 23002KT 9999 CLR 21/06 A3031 RMK A02 TSNO
QEW,2020-10-20 07:20,128.1500,36.4000,68.00,37.40,32.43,350.00,2.00,0.00,30.26,M,6.21,M,CLR,M,M,M,M,M,M,M,M,M,M,M,M,M,M,M,KQEW 200720Z AUTO 35002KT 9999 CLR 20/03 A3026 RMK A02 TSNO
QEP,2020-10-20 07:20,127.2667,37.4000,71.60,37.40,28.68,260.00,2.00,0.00,30.29,M,6.21,M,CLR,M,M,M,M,M,M,M,M,M,M,M,M,M,M,M,KQEP 200720Z AUTO 26002KT 9999 CLR 22/03 A3029 RMK A02 TSNO
QFT,2020-10-20 07:20,127.3500,37.6000,69.80,42.80,37.61,260.00,1.00,0.00,30.27,M,M,M,CLR,M,M,M,M,M,M,M,,M,M,M,M,M,M,M,KQFT 200720Z AUTO 26001KT / // CLR 21/06 A3027 RMK A02 TSNO
QFU,2020-10-20 07:20,126.9667,37.8000,69.80,33.80,26.43,240.00,3.00,0.00,30.32,M,6.21,M,CLR,M,M,M,M,M,M,M,M,M,M,M,M,M,M,M,KQFU 200720Z AUTO 24003KT 9999 CLR 21/01 A3032 RMK A02 TSNO
QEX,2020-10-20 07:20,128.3000,36.1000,69.80,37.40,30.49,30.00,3.00,0.00,30.18,M,6.21,M,CLR,M,M,M,M,M,M,M,M,M,M,M,M,M,M,M,KQEX 200720Z AUTO 03003KT 9999 CLR 21/03 A3018 RMK A02 TSNO
QFW,2020-10-20 07:20,127.8833,37.6667,69.80,37.40,30.49,270.00,5.00,0.00,30.28,M,6.21,M,CLR,M,M,M,M,M,M,M,M,M,M,M,M,M,M,M,KQFW 200720Z AUTO 27005KT 9999 CLR 21/03 A3028 RMK A02 TSNO
QFV,2020-10-20 07:20,127.5000,38.0500,68.00,39.20,34.80,260.00,5.00,0.00,30.31,M,6.21,M,CLR,M,M,M,M,M,M,M,M,M,M,M,M,M,M,M,KQFV 200720Z AUTO 26005KT 9999 CLR 20/04 A3031 RMK A02 TSNO
QFB,2020-10-20 07:30,128.7167,35.6500,71.60,39.20,30.77,20.00,4.00,0.00,30.30,M,6.21,M,CLR,M,M,M,M,M,M,M,M,M,M,M,M,M,M,M,KQFB 200730Z AUTO 02004KT 9999 CLR 22/04 A3030 RMK A02 TSNO
QEN,2020-10-20 07:30,128.7500,37.6667,53.60,44.60,71.45,60.00,3.00,0.00,30.32,M,6.21,M,CLR,M,M,M,M,M,M,M,M,M,M,M,M,M,M,M,KQEN 200730Z AUTO 06003KT 9999 CLR 12/07 A3032 RMK A02 TSNO
QEI,2020-10-20 07:30,128.0667,37.9500,69.80,39.20,32.72,280.00,1.00,0.00,30.27,M,6.21,M,CLR,M,M,M,M,M,M,M,M,M,M,M,M,M,M,M,KQEI 200730Z AUTO 28001KT 9999 CLR 21/04 A3027 RMK A02 TSNO
QEW,2020-10-20 07:30,128.1500,36.4000,68.00,39.20,34.80,320.00,2.00,0.00,30.26,M,6.21,M,CLR,M,M,M,M,M,M,M,M,M,M,M,M,M,M,M,KQEW 200730Z AUTO 32002KT 9999 CLR 20/04 A3026 RMK A02 TSNO
QES,2020-10-20 07:30,126.4500,36.9667,66.20,50.00,55.88,M,M,0.00,30.30,M,6.21,M,CLR,M,M,M,M,M,M,M,M,M,M,M,M,M,M,M,KQES 200730Z AUTO 9999 CLR 19/10 A3030 RMK A02 TSNO
QEJ,2020-10-20 07:30,127.9500,38.2000,68.00,42.80,40.00,360.00,2.00,0.00,30.26,M,6.21,M,CLR,M,M,M,M,M,M,M,M,M,M,M,M,M,M,M,KQEJ 200730Z AUTO 36002KT 9999 CLR 20/06 A3026 RMK A02 TSNO
QEQ,2020-10-20 07:30,127.5500,37.8500,68.00,39.20,34.80,240.00,4.00,0.00,30.31,M,6.21,M,CLR,M,M,M,M,M,M,M,M,M,M,M,M,M,M,M,KQEQ 200730Z AUTO 24004KT 9999 CLR 20/04 A3031 RMK A02 TSNO
QEP,2020-10-20 07:30,127.2667,37.4000,69.80,39.20,32.72,230.00,2.00,0.00,30.29,M,6.21,M,CLR,M,M,M,M,M,M,M,M,M,M,M,M,M,M,M,KQEP 200730Z AUTO 23002KT 9999 CLR 21/04 A3029 RMK A02 TSNO
QFT,2020-10-20 07:30,127.3500,37.6000,69.80,42.80,37.61,10.00,1.00,0.00,30.27,M,M,M,CLR,M,M,M,M,M,M,M,,M,M,M,M,M,M,M,KQFT 200730Z AUTO 01001KT / // CLR 21/06 A3027 RMK A02 TSNO
QFU,2020-10-20 07:30,126.9667,37.8000,69.80,32.00,24.59,310.00,2.00,0.00,30.32,M,6.21,M,CLR,M,M,M,M,M,M,M,M,M,M,M,M,M,M,M,KQFU 200730Z AUTO 31002KT 9999 CLR 21/M00 A3032 RMK A02 TSNO
QEX,2020-10-20 07:30,128.3000,36.1000,71.60,37.40,28.68,360.00,2.00,0.00,30.18,M,6.21,M,CLR,M,M,M,M,M,M,M,M,M,M,M,M,M,M,M,KQEX 200730Z AUTO 36002KT 9999 CLR 22/03 A3018 RMK A02 TSNO
QFW,2020-10-20 07:30,127.8833,37.6667,69.80,39.20,32.72,260.00,3.00,0.00,30.28,M,6.21,M,CLR,M,M,M,M,M,M,M,M,M,M,M,M,M,M,M,KQFW 200730Z AUTO 26003KT 9999 CLR 21/04 A3028 RMK A02 TSNO
RKSI,2020-10-20 07:30,126.4500,37.4667,66.20,46.40,48.83,320.00,6.00,0.00,30.24,M,5.59,M,NSC,M,M,M,M,M,M,M,M,M,M,M,M,M,M,M,RKSI 200730Z 32006KT 9000 NSC 19/08 Q1024 NOSIG
QFV,2020-10-20 07:30,127.5000,38.0500,68.00,39.20,34.80,270.00,1.00,0.00,30.31,M,6.21,M,CLR,M,M,M,M,M,M,M,M,M,M,M,M,M,M,M,KQFV 200730Z AUTO 27001KT 9999 CLR 20/04 A3031 RMK A02 TSNO
QFB,2020-10-20 07:40,128.7167,35.6500,71.60,41.00,33.00,40.00,3.00,0.00,30.30,M,6.21,M,CLR,M,M,M,M,M,M,M,M,M,M,M,M,M,M,M,KQFB 200740Z AUTO 04003KT 9999 CLR 22/05 A3030 RMK A02 TSNO
QEN,2020-10-20 07:40,128.7500,37.6667,53.60,44.60,71.45,90.00,2.00,0.00,30.32,M,6.21,M,CLR,M,M,M,M,M,M,M,M,M,M,M,M,M,M,M,KQEN 200740Z AUTO 09002KT 9999 CLR 12/07 A3032 RMK A02 TSNO
QEW,2020-10-20 07:40,128.1500,36.4000,68.00,37.40,32.43,330.00,1.00,0.00,30.26,M,6.21,M,CLR,M,M,M,M,M,M,M,M,M,M,M,M,M,M,M,KQEW 200740Z AUTO 33001KT 9999 CLR 20/03 A3026 RMK A02 TSNO
QES,2020-10-20 07:40,126.4500,36.9667,66.20,48.20,52.25,M,M,0.00,30.29,M,6.21,M,CLR,M,M,M,M,M,M,M,M,M,M,M,M,M,M,M,KQES 200740Z AUTO 9999 CLR 19/09 A3029 RMK A02 TSNO
QEJ,2020-10-20 07:40,127.9500,38.2000,68.00,41.00,37.32,340.00,4.00,0.00,30.26,M,6.21,M,CLR,M,M,M,M,M,M,M,M,M,M,M,M,M,M,M,KQEJ 200740Z AUTO 34004KT 9999 CLR 20/05 A3026 RMK A02 TSNO
QEI,2020-10-20 07:40,128.0667,37.9500,68.00,39.20,34.80,230.00,2.00,0.00,30.27,M,6.21,M,CLR,M,M,M,M,M,M,M,M,M,M,M,M,M,M,M,KQEI 200740Z AUTO 23002KT 9999 CLR 20/04 A3027 RMK A02 TSNO
QEQ,2020-10-20 07:40,127.5500,37.8500,69.80,39.20,32.72,220.00,2.00,0.00,30.29,M,6.21,M,CLR,M,M,M,M,M,M,M,M,M,M,M,M,M,M,M,KQEQ 200740Z AUTO 22002KT 9999 CLR 21/04 A3029 RMK A02 TSNO
QEP,2020-10-20 07:40,127.2667,37.4000,69.80,42.80,37.61,250.00,1.00,0.00,30.29,M,6.21,M,CLR,M,M,M,M,M,M,M,M,M,M,M,M,M,M,M,KQEP 200740Z AUTO 25001KT 9999 CLR 21/06 A3029 RMK A02 TSNO
QFT,2020-10-20 07:40,127.3500,37.6000,68.00,42.80,40.00,20.00,1.00,0.00,30.26,M,M,M,CLR,M,M,M,M,M,M,M,,M,M,M,M,M,M,M,KQFT 200740Z AUTO 02001KT / // CLR 20/06 A3026 RMK A02 TSNO
QFU,2020-10-20 07:40,126.9667,37.8000,69.80,32.00,24.59,320.00,2.00,0.00,30.31,M,6.21,M,CLR,M,M,M,M,M,M,M,M,M,M,M,M,M,M,M,KQFU 200740Z AUTO 32002KT 9999 CLR 21/00 A3031 RMK A02 TSNO
QEX,2020-10-20 07:40,128.3000,36.1000,71.60,37.40,28.68,30.00,2.00,0.00,30.18,M,6.21,M,CLR,M,M,M,M,M,M,M,M,M,M,M,M,M,M,M,KQEX 200740Z AUTO 03002KT 9999 CLR 22/03 A3018 RMK A02 TSNO
QFW,2020-10-20 07:40,127.8833,37.6667,69.80,39.20,32.72,300.00,4.00,0.00,30.28,M,6.21,M,CLR,M,M,M,M,M,M,M,M,M,M,M,M,M,M,M,KQFW 200740Z AUTO 30004KT 9999 CLR 21/04 A3028 RMK A02 TSNO
QFV,2020-10-20 07:40,127.5000,38.0500,68.00,39.20,34.80,280.00,2.00,0.00,30.31,M,6.21,M,CLR,M,M,M,M,M,M,M,M,M,M,M,M,M,M,M,KQFV 200740Z AUTO 28002KT 9999 CLR 20/04 A3031 RMK A02 TSNO
QES,2020-10-20 07:50,126.4500,36.9667,66.20,48.20,52.25,M,M,0.00,30.29,M,6.21,M,CLR,M,M,M,M,M,M,M,M,M,M,M,M,M,M,M,KQES 200750Z AUTO 9999 CLR 19/09 A3029 RMK A02 TSNO
QEJ,2020-10-20 07:50,127.9500,38.2000,68.00,41.00,37.32,310.00,1.00,0.00,30.26,M,6.21,M,CLR,M,M,M,M,M,M,M,M,M,M,M,M,M,M,M,KQEJ 200750Z AUTO 31001KT 9999 CLR 20/05 A3026 RMK A02 TSNO
QEQ,2020-10-20 07:50,127.5500,37.8500,68.00,37.40,32.43,180.00,2.00,0.00,30.28,M,6.21,M,CLR,M,M,M,M,M,M,M,M,M,M,M,M,M,M,M,KQEQ 200750Z AUTO 18002KT 9999 CLR 20/03 A3028 RMK A02 TSNO
QEP,2020-10-20 07:50,127.2667,37.4000,68.00,44.60,42.85,250.00,2.00,0.00,30.28,M,6.21,M,CLR,M,M,M,M,M,M,M,M,M,M,M,M,M,M,M,KQEP 200750Z AUTO 25002KT 9999 CLR 20/07 A3028 RMK A02 TSNO
QFB,2020-10-20 07:50,128.7167,35.6500,71.60,41.00,33.00,20.00,2.00,0.00,30.30,M,6.21,M,CLR,M,M,M,M,M,M,M,M,M,M,M,M,M,M,M,KQFB 200750Z AUTO 02002KT 9999 CLR 22/05 A3030 RMK A02 TSNO
QEN,2020-10-20 07:50,128.7500,37.6667,53.60,44.60,71.45,70.00,2.00,0.00,30.32,M,6.21,M,CLR,M,M,M,M,M,M,M,M,M,M,M,M,M,M,M,KQEN 200750Z AUTO 07002KT 9999 CLR 12/07 A3032 RMK A02 TSNO
QEI,2020-10-20 07:50,128.0667,37.9500,66.20,44.60,45.60,140.00,2.00,0.00,30.27,M,6.21,M,CLR,M,M,M,M,M,M,M,M,M,M,M,M,M,M,M,KQEI 200750Z AUTO 14002KT 9999 CLR 19/07 A3027 RMK A02 TSNO
QEW,2020-10-20 07:50,128.1500,36.4000,68.00,41.00,37.32,290.00,1.00,0.00,30.26,M,6.21,M,CLR,M,M,M,M,M,M,M,M,M,M,M,M,M,M,M,KQEW 200750Z AUTO 29001KT 9999 CLR 20/05 A3026 RMK A02 TSNO
QEX,2020-10-20 07:50,128.3000,36.1000,71.60,37.40,28.68,10.00,2.00,0.00,30.18,M,6.21,M,CLR,M,M,M,M,M,M,M,M,M,M,M,M,M,M,M,KQEX 200750Z AUTO 01002KT 9999 CLR 22/03 A3018 RMK A02 TSNO
QFT,2020-10-20 07:50,127.3500,37.6000,68.00,44.60,42.85,20.00,1.00,0.00,30.26,M,M,M,CLR,M,M,M,M,M,M,M,,M,M,M,M,M,M,M,KQFT 200750Z AUTO 02001KT / // CLR 20/07 A3026 RMK A02 TSNO
QFU,2020-10-20 07:50,126.9667,37.8000,68.00,33.80,28.11,320.00,2.00,0.00,30.30,M,6.21,M,CLR,M,M,M,M,M,M,M,M,M,M,M,M,M,M,M,KQFU 200750Z AUTO 32002KT 9999 CLR 20/01 A3030 RMK A02 TSNO
QFW,2020-10-20 07:50,127.8833,37.6667,69.80,41.00,35.09,250.00,2.00,0.00,30.28,M,6.21,M,CLR,M,M,M,M,M,M,M,M,M,M,M,M,M,M,M,KQFW 200750Z AUTO 25002KT 9999 CLR 21/05 A3028 RMK A02 TSNO
QFV,2020-10-20 07:50,127.5000,38.0500,68.00,39.20,34.80,200.00,1.00,0.00,30.30,M,6.21,M,CLR,M,M,M,M,M,M,M,M,M,M,M,M,M,M,M,KQFV 200750Z AUTO 20001KT 9999 CLR 20/04 A3030 RMK A02 TSNO
RKNW,2020-10-20 07:51,127.9467,37.3375,68.00,48.20,49.10,240.00,5.00,0.00,30.27,M,6.21,M,CLR,M,M,M,M,M,M,M,M,M,M,M,M,M,M,M,RKNW 200751Z 24005KT 9999 SKC 20/09 A3027
RKJK,2020-10-20 07:56,126.6220,35.8994,65.50,50.40,58.12,350.00,10.00,0.00,30.23,1024.10,8.00,M,CLR,M,M,M,M,M,M,M,M,M,M,M,M,M,M,M,RKJK 200756Z AUTO 35010KT 8SM CLR 19/10 A3023 RMK AO2 SLP241 T01860102 $
RKSG,2020-10-20 07:56,127.0311,36.9622,65.70,48.40,53.56,330.00,6.00,0.00,30.24,1024.30,3.00,M,CLR,M,M,M,M,M,M,M,HZ,M,M,M,M,M,M,M,RKSG 200756Z 33006KT 3SM HZ CLR 19/09 A3024 RMK AO2A SLP243 T01870091 $
RKSO,2020-10-20 07:58,127.0296,37.0906,67.10,50.00,54.17,300.00,3.00,0.00,30.23,1024.00,3.00,M,CLR,M,M,M,M,M,M,M,HZ,M,M,M,M,M,M,M,RKSO 200758Z 30003KT 3SM HZ CLR 20/10 A3023 RMK AO2A TWR VIS 2 1/2 AO2A SLP240 T01950100 $
RKSY,2020-10-20 07:58,126.9753,37.5241,67.10,42.80,41.26,0.00,0.00,0.00,30.23,1024.00,6.21,M,CLR,M,M,M,M,M,M,M,M,M,M,M,M,M,M,M,RKSY 200758Z AUTO 00000KT 9999 CLR 20/06 A3023 RMK AO2 SLP240 T01950060 402140080 $
RKJB,2020-10-20 08:00,126.3800,34.9800,66.20,46.40,48.83,350.00,7.00,0.00,30.24,M,6.21,M,M,M,M,M,M,M,M,M,M,M,M,M,M,M,M,M,RKJB 200800Z 35007KT CAVOK 19/08 Q1024 NOSIG
RKPC,2020-10-20 08:00,126.4930,33.5113,68.00,57.20,68.35,70.00,17.00,0.00,30.21,M,6.21,M,FEW,M,M,M,3000.00,M,M,M,M,M,M,M,M,M,M,M,RKPC 200800Z 07017KT 9999 FEW030 20/14 Q1023 NOSIG
RKNY,2020-10-20 08:00,128.6692,38.0613,60.80,51.80,72.20,140.00,4.00,0.00,30.27,M,6.21,M,M,M,M,M,M,M,M,M,M,M,M,M,M,M,M,M,RKNY 200800Z 14004KT CAVOK 16/11 Q1025 NOSIG
QFB,2020-10-20 08:00,128.7167,35.6500,69.80,41.00,35.09,60.00,2.00,0.00,30.30,M,6.21,M,CLR,M,M,M,M,M,M,M,M,M,M,M,M,M,M,M,KQFB 200800Z AUTO 06002KT 9999 CLR 21/05 A3030 RMK A02 TSNO
RKSS,2020-10-20 08:00,126.7906,37.5583,69.80,35.60,28.39,20.00,5.00,0.00,30.24,M,6.21,M,M,M,M,M,M,M,M,M,M,M,M,M,M,M,M,M,RKSS 200800Z 02005KT 340V050 CAVOK 21/02 Q1024 NOSIG
RKTN,2020-10-20 08:00,128.6589,35.8941,71.60,37.40,28.68,100.00,7.00,0.00,30.24,M,6.21,M,M,M,M,M,M,M,M,M,M,M,M,M,M,M,M,M,RKTN 200800Z 10007KT CAVOK 22/03 Q1024
RKTU,2020-10-20 08:00,127.4991,36.7166,68.00,44.60,42.85,300.00,2.00,0.00,30.24,M,6.21,M,M,M,M,M,M,M,M,M,M,M,M,M,M,M,M,M,RKTU 200800Z 30002KT CAVOK 20/07 Q1024
QEN,2020-10-20 08:00,128.7500,37.6667,53.60,44.60,71.45,40.00,2.00,0.00,30.32,M,6.21,M,CLR,M,M,M,M,M,M,M,M,M,M,M,M,M,M,M,KQEN 200800Z AUTO 04002KT 9999 CLR 12/07 A3032 RMK A02 TSNO
QES,2020-10-20 08:00,126.4500,36.9667,64.40,46.40,51.98,M,M,0.00,30.28,M,6.21,M,CLR,M,M,M,M,M,M,M,M,M,M,M,M,M,M,M,KQES 200800Z AUTO 9999 CLR 18/08 A3028 RMK A02 TSNO
QEJ,2020-10-20 08:00,127.9500,38.2000,66.20,42.80,42.57,220.00,1.00,0.00,30.26,M,6.21,M,CLR,M,M,M,M,M,M,M,M,M,M,M,M,M,M,M,KQEJ 200800Z AUTO 22001KT 9999 CLR 19/06 A3026 RMK A02 TSNO
QEI,2020-10-20 08:00,128.0667,37.9500,62.60,44.60,51.72,140.00,3.00,0.00,30.27,M,6.21,M,CLR,M,M,M,M,M,M,M,M,M,M,M,M,M,M,M,KQEI 200800Z AUTO 14003KT 9999 CLR 17/07 A3027 RMK A02 TSNO
QEQ,2020-10-20 08:00,127.5500,37.8500,68.00,39.20,34.80,170.00,2.00,0.00,30.27,M,6.21,M,CLR,M,M,M,M,M,M,M,M,M,M,M,M,M,M,M,KQEQ 200800Z AUTO 17002KT 9999 CLR 20/04 A3027 RMK A02 TSNO
QEW,2020-10-20 08:00,128.1500,36.4000,66.20,41.00,39.72,280.00,2.00,0.00,30.26,M,6.21,M,CLR,M,M,M,M,M,M,M,M,M,M,M,M,M,M,M,KQEW 200800Z AUTO 28002KT 9999 CLR 19/05 A3026 RMK A02 TSNO
QEP,2020-10-20 08:00,127.2667,37.4000,66.20,44.60,45.60,110.00,1.00,0.00,30.27,M,6.21,M,CLR,M,M,M,M,M,M,M,M,M,M,M,M,M,M,M,KQEP 200800Z AUTO 11001KT 9999 CLR 19/07 A3027 RMK A02 TSNO
RKPK,2020-10-20 08:00,128.9382,35.1795,68.00,48.20,49.10,70.00,8.00,0.00,30.24,M,6.21,M,FEW,M,M,M,5000.00,M,M,M,M,M,M,M,M,M,M,M,RKPK 200800Z 07008KT 9999 FEW050 20/09 Q1024
QFT,2020-10-20 08:00,127.3500,37.6000,66.20,44.60,45.60,0.00,0.00,0.00,30.25,M,M,M,CLR,M,M,M,M,M,M,M,,M,M,M,M,M,M,M,KQFT 200800Z AUTO 00000KT / // CLR 19/07 A3025 RMK A02 TSNO
QFU,2020-10-20 08:00,126.9667,37.8000,68.00,33.80,28.11,10.00,2.00,0.00,30.28,M,6.21,M,CLR,M,M,M,M,M,M,M,M,M,M,M,M,M,M,M,KQFU 200800Z AUTO 01002KT 9999 CLR 20/01 A3028 RMK A02 TSNO
QEX,2020-10-20 08:00,128.3000,36.1000,69.80,37.40,30.49,40.00,2.00,0.00,30.18,M,6.21,M,CLR,M,M,M,M,M,M,M,M,M,M,M,M,M,M,M,KQEX 200800Z AUTO 04002KT 9999 CLR 21/03 A3018 RMK A02 TSNO
QFW,2020-10-20 08:00,127.8833,37.6667,68.00,42.80,40.00,170.00,2.00,0.00,30.28,M,6.21,M,CLR,M,M,M,M,M,M,M,M,M,M,M,M,M,M,M,KQFW 200800Z AUTO 17002KT 9999 CLR 20/06 A3028 RMK A02 TSNO
QFV,2020-10-20 08:00,127.5000,38.0500,68.00,41.00,37.32,240.00,1.00,0.00,30.29,M,6.21,M,CLR,M,M,M,M,M,M,M,M,M,M,M,M,M,M,M,KQFV 200800Z AUTO 24001KT 9999 CLR 20/05 A3029 RMK A02 TSNO
RKSI,2020-10-20 08:00,126.4500,37.4667,64.40,44.60,48.55,330.00,4.00,0.00,30.21,M,6.21,M,M,M,M,M,M,M,M,M,M,M,M,M,M,M,M,M,RKSI 200800Z 33004KT CAVOK 18/07 Q1023 NOSIG
RKSM,2020-10-20 08:00,127.1139,37.4458,69.80,42.80,37.61,340.00,3.00,0.00,30.26,M,5.59,M,FEW,M,M,M,20000.00,M,M,M,HZ,M,M,M,M,M,M,M,RKSM 200800Z 34003KT 9000 HZ FEW200 21/06 A3026
QFB,2020-10-20 08:10,128.7167,35.6500,69.80,42.80,37.61,10.00,2.00,0.00,30.30,M,6.21,M,CLR,M,M,M,M,M,M,M,M,M,M,M,M,M,M,M,KQFB 200810Z AUTO 01002KT 9999 CLR 21/06 A3030 RMK A02 TSNO
QEN,2020-10-20 08:10,128.7500,37.6667,53.60,44.60,71.45,40.00,2.00,0.00,30.32,M,6.21,M,CLR,M,M,M,M,M,M,M,M,M,M,M,M,M,M,M,KQEN 200810Z AUTO 04002KT 9999 CLR 12/07 A3032 RMK A02 TSNO
QES,2020-10-20 08:10,126.4500,36.9667,66.20,48.20,52.25,M,M,0.00,30.27,M,6.21,M,CLR,M,M,M,M,M,M,M,M,M,M,M,M,M,M,M,KQES 200810Z AUTO 9999 CLR 19/09 A3027 RMK A02 TSNO
QEJ,2020-10-20 08:10,127.9500,38.2000,64.40,44.60,48.55,170.00,1.00,0.00,30.25,M,6.21,M,CLR,M,M,M,M,M,M,M,M,M,M,M,M,M,M,M,KQEJ 200810Z AUTO 17001KT 9999 CLR 18/07 A3025 RMK A02 TSNO
QEI,2020-10-20 08:10,128.0667,37.9500,60.80,44.60,55.12,140.00,3.00,0.00,30.27,M,6.21,M,CLR,M,M,M,M,M,M,M,M,M,M,M,M,M,M,M,KQEI 200810Z AUTO 14003KT 9999 CLR 16/07 A3027 RMK A02 TSNO
QEQ,2020-10-20 08:10,127.5500,37.8500,66.20,41.00,39.72,170.00,2.00,0.00,30.26,M,6.21,M,CLR,M,M,M,M,M,M,M,M,M,M,M,M,M,M,M,KQEQ 200810Z AUTO 17002KT 9999 CLR 19/05 A3026 RMK A02 TSNO
QEW,2020-10-20 08:10,128.1500,36.4000,64.40,41.00,42.28,280.00,2.00,0.00,30.26,M,6.21,M,CLR,M,M,M,M,M,M,M,M,M,M,M,M,M,M,M,KQEW 200810Z AUTO 28002KT 9999 CLR 18/05 A3026 RMK A02 TSNO
QEP,2020-10-20 08:10,127.2667,37.4000,66.20,46.40,48.83,180.00,1.00,0.00,30.26,M,6.21,M,CLR,M,M,M,M,M,M,M,M,M,M,M,M,M,M,M,KQEP 200810Z AUTO 18001KT 9999 CLR 19/08 A3026 RMK A02 TSNO
QFT,2020-10-20 08:10,127.3500,37.6000,66.20,44.60,45.60,290.00,1.00,0.00,30.23,M,M,M,CLR,M,M,M,M,M,M,M,,M,M,M,M,M,M,M,KQFT 200810Z AUTO 29001KT / // CLR 19/07 A3023 RMK A02 TSNO
QFU,2020-10-20 08:10,126.9667,37.8000,68.00,35.60,30.20,350.00,2.00,0.00,30.27,M,6.21,M,CLR,M,M,M,M,M,M,M,M,M,M,M,M,M,M,M,KQFU 200810Z AUTO 35002KT 9999 CLR 20/02 A3027 RMK A02 TSNO
QEX,2020-10-20 08:10,128.3000,36.1000,69.80,37.40,30.49,360.00,2.00,0.00,30.18,M,6.21,M,CLR,M,M,M,M,M,M,M,M,M,M,M,M,M,M,M,KQEX 200810Z AUTO 36002KT 9999 CLR 21/03 A3018 RMK A02 TSNO
QFW,2020-10-20 08:10,127.8833,37.6667,64.40,42.80,45.32,130.00,3.00,0.00,30.28,M,6.21,M,CLR,M,M,M,M,M,M,M,M,M,M,M,M,M,M,M,KQFW 200810Z AUTO 13003KT 9999 CLR 18/06 A3028 RMK A02 TSNO
QFV,2020-10-20 08:10,127.5000,38.0500,64.40,42.80,45.32,270.00,1.00,0.00,30.28,M,6.21,M,CLR,M,M,M,M,M,M,M,M,M,M,M,M,M,M,M,KQFV 200810Z AUTO 27001KT 9999 CLR 18/06 A3028 RMK A02 TSNO
QFB,2020-10-20 08:20,128.7167,35.6500,68.00,44.60,42.85,260.00,1.00,0.00,30.31,M,6.21,M,CLR,M,M,M,M,M,M,M,M,M,M,M,M,M,M,M,KQFB 200820Z AUTO 26001KT 9999 CLR 20/07 A3031 RMK A02 TSNO
QEN,2020-10-20 08:20,128.7500,37.6667,51.80,46.40,81.74,30.00,1.00,0.00,30.32,M,6.21,M,CLR,M,M,M,M,M,M,M,M,M,M,M,M,M,M,M,KQEN 200820Z AUTO 03001KT 9999 CLR 11/08 A3032 RMK A02 TSNO
QES,2020-10-20 08:20,126.4500,36.9667,64.40,48.20,55.63,M,M,0.00,30.27,M,6.21,M,CLR,M,M,M,M,M,M,M,M,M,M,M,M,M,M,M,KQES 200820Z AUTO 9999 CLR 18/09 A3027 RMK A02 TSNO
QEJ,2020-10-20 08:20,127.9500,38.2000,62.60,44.60,51.72,20.00,1.00,0.00,30.24,M,6.21,M,CLR,M,M,M,M,M,M,M,M,M,M,M,M,M,M,M,KQEJ 200820Z AUTO 02001KT 9999 CLR 17/07 A3024 RMK A02 TSNO
QEI,2020-10-20 08:20,128.0667,37.9500,59.00,44.60,58.77,130.00,2.00,0.00,30.26,M,6.21,M,CLR,M,M,M,M,M,M,M,M,M,M,M,M,M,M,M,KQEI 200820Z AUTO 13002KT 9999 CLR 15/07 A3026 RMK A02 TSNO
QEW,2020-10-20 08:20,128.1500,36.4000,64.40,42.80,45.32,280.00,2.00,0.00,30.25,M,6.21,M,CLR,M,M,M,M,M,M,M,M,M,M,M,M,M,M,M,KQEW 200820Z AUTO 28002KT 9999 CLR 18/06 A3025 RMK A02 TSNO
QEP,2020-10-20 08:20,127.2667,37.4000,64.40,46.40,51.98,110.00,1.00,0.00,30.25,M,6.21,M,CLR,M,M,M,M,M,M,M,M,M,M,M,M,M,M,M,KQEP 200820Z AUTO 11001KT 9999 CLR 18/08 A3025 RMK A02 TSNO
QFT,2020-10-20 08:20,127.3500,37.6000,64.40,46.40,51.98,250.00,1.00,0.00,30.22,M,M,M,CLR,M,M,M,M,M,M,M,,M,M,M,M,M,M,M,KQFT 200820Z AUTO 25001KT / // CLR 18/08 A3022 RMK A02 TSNO
QFU,2020-10-20 08:20,126.9667,37.8000,68.00,33.80,28.11,60.00,2.00,0.00,30.26,M,6.21,M,CLR,M,M,M,M,M,M,M,M,M,M,M,M,M,M,M,KQFU 200820Z AUTO 06002KT 9999 CLR 20/01 A3026 RMK A02 TSNO
QEX,2020-10-20 08:20,128.3000,36.1000,68.00,41.00,37.32,300.00,2.00,0.00,30.18,M,6.21,M,CLR,M,M,M,M,M,M,M,M,M,M,M,M,M,M,M,KQEX 200820Z AUTO 30002KT 9999 CLR 20/05 A3018 RMK A02 TSNO
QFW,2020-10-20 08:20,127.8833,37.6667,62.60,42.80,48.28,140.00,3.00,0.00,30.27,M,6.21,M,CLR,M,M,M,M,M,M,M,M,M,M,M,M,M,M,M,KQFW 200820Z AUTO 14003KT 9999 CLR 17/06 A3027 RMK A02 TSNO
QFV,2020-10-20 08:20,127.5000,38.0500,60.80,42.80,51.45,310.00,1.00,0.00,30.27,M,6.21,M,CLR,M,M,M,M,M,M,M,M,M,M,M,M,M,M,M,KQFV 200820Z AUTO 31001KT 9999 CLR 16/06 A3027 RMK A02 TSNO
QEQ,2020-10-20 08:20,127.5500,37.8500,66.20,42.80,42.57,160.00,1.00,0.00,30.26,M,6.21,M,CLR,M,M,M,M,M,M,M,M,M,M,M,M,M,M,M,KQEQ 200820Z AUTO 16001KT 9999 CLR 19/06 A3026 RMK A02 TSNO
QFB,2020-10-20 08:30,128.7167,35.6500,66.20,44.60,45.60,170.00,1.00,0.00,30.31,M,6.21,M,CLR,M,M,M,M,M,M,M,M,M,M,M,M,M,M,M,KQFB 200830Z AUTO 17001KT 9999 CLR 19/07 A3031 RMK A02 TSNO
QEN,2020-10-20 08:30,128.7500,37.6667,51.80,46.40,81.74,30.00,2.00,0.00,30.32,M,6.21,M,CLR,M,M,M,M,M,M,M,M,M,M,M,M,M,M,M,KQEN 200830Z AUTO 03002KT 9999 CLR 11/08 A3032 RMK A02 TSNO
QEW,2020-10-20 08:30,128.1500,36.4000,60.80,44.60,55.12,280.00,2.00,0.00,30.25,M,6.21,M,CLR,M,M,M,M,M,M,M,M,M,M,M,M,M,M,M,KQEW 200830Z AUTO 28002KT 9999 CLR 16/07 A3025 RMK A02 TSNO
QFV,2020-10-20 08:30,127.5000,38.0500,59.00,42.80,54.86,280.00,1.00,0.00,30.27,M,6.21,M,CLR,M,M,M,M,M,M,M,M,M,M,M,M,M,M,M,KQFV 200830Z AUTO 28001KT 9999 CLR 15/06 A3027 RMK A02 TSNO
QES,2020-10-20 08:30,126.4500,36.9667,64.40,48.20,55.63,M,M,0.00,30.27,M,6.21,M,CLR,M,M,M,M,M,M,M,M,M,M,M,M,M,M,M,KQES 200830Z AUTO 9999 CLR 18/09 A3027 RMK A02 TSNO
QEJ,2020-10-20 08:30,127.9500,38.2000,60.80,44.60,55.12,130.00,1.00,0.00,30.23,M,6.21,M,CLR,M,M,M,M,M,M,M,M,M,M,M,M,M,M,M,KQEJ 200830Z AUTO 13001KT 9999 CLR 16/07 A3023 RMK A02 TSNO
QEI,2020-10-20 08:30,128.0667,37.9500,59.00,44.60,58.77,150.00,2.00,0.00,30.25,M,6.21,M,CLR,M,M,M,M,M,M,M,M,M,M,M,M,M,M,M,KQEI 200830Z AUTO 15002KT 9999 CLR 15/07 A3025 RMK A02 TSNO
QEQ,2020-10-20 08:30,127.5500,37.8500,62.60,42.80,48.28,110.00,1.00,0.00,30.25,M,6.21,M,CLR,M,M,M,M,M,M,M,M,M,M,M,M,M,M,M,KQEQ 200830Z AUTO 11001KT 9999 CLR 17/06 A3025 RMK A02 TSNO
QEP,2020-10-20 08:30,127.2667,37.4000,60.80,46.40,59.01,120.00,1.00,0.00,30.25,M,6.21,M,CLR,M,M,M,M,M,M,M,M,M,M,M,M,M,M,M,KQEP 200830Z AUTO 12001KT 9999 CLR 16/08 A3025 RMK A02 TSNO
QFT,2020-10-20 08:30,127.3500,37.6000,62.60,46.40,55.37,190.00,1.00,0.00,30.21,M,M,M,CLR,M,M,M,M,M,M,M,,M,M,M,M,M,M,M,KQFT 200830Z AUTO 19001KT / // CLR 17/08 A3021 RMK A02 TSNO
QFU,2020-10-20 08:30,126.9667,37.8000,64.40,42.80,45.32,260.00,4.00,0.00,30.26,M,6.21,M,CLR,M,M,M,M,M,M,M,M,M,M,M,M,M,M,M,KQFU 200830Z AUTO 26004KT 9999 CLR 18/06 A3026 RMK A02 TSNO
QEX,2020-10-20 08:30,128.3000,36.1000,68.00,42.80,40.00,340.00,1.00,0.00,30.18,M,6.21,M,CLR,M,M,M,M,M,M,M,M,M,M,M,M,M,M,M,KQEX 200830Z AUTO 34001KT 9999 CLR 20/06 A3018 RMK A02 TSNO
QFW,2020-10-20 08:30,127.8833,37.6667,62.60,44.60,51.72,130.00,2.00,0.00,30.25,M,6.21,M,CLR,M,M,M,M,M,M,M,M,M,M,M,M,M,M,M,KQFW 200830Z AUTO 13002KT 9999 CLR 17/07 A3025 RMK A02 TSNO
RKSI,2020-10-20 08:30,126.4500,37.4667,62.60,46.40,55.37,320.00,3.00,0.00,30.21,M,6.21,M,M,M,M,M,M,M,M,M,M,M,M,M,M,M,M,M,RKSI 200830Z 32003KT CAVOK 17/08 Q1023 NOSIG
QFB,2020-10-20 08:40,128.7167,35.6500,66.20,44.60,45.60,220.00,1.00,0.00,30.31,M,6.21,M,CLR,M,M,M,M,M,M,M,M,M,M,M,M,M,M,M,KQFB 200840Z AUTO 22001KT 9999 CLR 19/07 A3031 RMK A02 TSNO
QEN,2020-10-20 08:40,128.7500,37.6667,51.80,44.60,76.34,20.00,2.00,0.00,30.31,M,6.21,M,CLR,M,M,M,M,M,M,M,M,M,M,M,M,M,M,M,KQEN 200840Z AUTO 02002KT 9999 CLR 11/07 A3031 RMK A02 TSNO
QES,2020-10-20 08:40,126.4500,36.9667,64.40,48.20,55.63,M,M,0.00,30.27,M,6.21,M,CLR,M,M,M,M,M,M,M,M,M,M,M,M,M,M,M,KQES 200840Z AUTO 9999 CLR 18/09 A3027 RMK A02 TSNO
QEJ,2020-10-20 08:40,127.9500,38.2000,59.00,44.60,58.77,130.00,1.00,0.00,30.23,M,6.21,M,CLR,M,M,M,M,M,M,M,M,M,M,M,M,M,M,M,KQEJ 200840Z AUTO 13001KT 9999 CLR 15/07 A3023 RMK A02 TSNO
QEI,2020-10-20 08:40,128.0667,37.9500,57.20,44.60,62.69,150.00,2.00,0.00,30.24,M,6.21,M,CLR,M,M,M,M,M,M,M,M,M,M,M,M,M,M,M,KQEI 200840Z AUTO 15002KT 9999 CLR 14/07 A3024 RMK A02 TSNO
QEW,2020-10-20 08:40,128.1500,36.4000,60.80,42.80,51.45,240.00,1.00,0.00,30.25,M,6.21,M,CLR,M,M,M,M,M,M,M,M,M,M,M,M,M,M,M,KQEW 200840Z AUTO 24001KT 9999 CLR 16/06 A3025 RMK A02 TSNO
QEX,2020-10-20 08:40,128.3000,36.1000,66.20,42.80,42.57,300.00,1.00,0.00,30.18,M,6.21,M,CLR,M,M,M,M,M,M,M,M,M,M,M,M,M,M,M,KQEX 200840Z AUTO 30001KT 9999 CLR 19/06 A3018 RMK A02 TSNO
QEQ,2020-10-20 08:40,127.5500,37.8500,62.60,42.80,48.28,0.00,0.00,0.00,30.25,M,6.21,M,CLR,M,M,M,M,M,M,M,M,M,M,M,M,M,M,M,KQEQ 200840Z AUTO 00000KT 9999 CLR 17/06 A3025 RMK A02 TSNO
QEP,2020-10-20 08:40,127.2667,37.4000,60.80,44.60,55.12,130.00,1.00,0.00,30.24,M,6.21,M,CLR,M,M,M,M,M,M,M,M,M,M,M,M,M,M,M,KQEP 200840Z AUTO 13001KT 9999 CLR 16/07 A3024 RMK A02 TSNO
QFT,2020-10-20 08:40,127.3500,37.6000,60.80,44.60,55.12,200.00,1.00,0.00,30.20,M,M,M,CLR,M,M,M,M,M,M,M,,M,M,M,M,M,M,M,KQFT 200840Z AUTO 20001KT / // CLR 16/07 A3020 RMK A02 TSNO
QFU,2020-10-20 08:40,126.9667,37.8000,62.60,42.80,48.28,250.00,2.00,0.00,30.26,M,6.21,M,CLR,M,M,M,M,M,M,M,M,M,M,M,M,M,M,M,KQFU 200840Z AUTO 25002KT 9999 CLR 17/06 A3026 RMK A02 TSNO
QFW,2020-10-20 08:40,127.8833,37.6667,60.80,42.80,51.45,140.00,1.00,0.00,30.24,M,6.21,M,CLR,M,M,M,M,M,M,M,M,M,M,M,M,M,M,M,KQFW 200840Z AUTO 14001KT 9999 CLR 16/06 A3024 RMK A02 TSNO
QFV,2020-10-20 08:40,127.5000,38.0500,59.00,42.80,54.86,290.00,2.00,0.00,30.26,M,6.21,M,CLR,M,M,M,M,M,M,M,M,M,M,M,M,M,M,M,KQFV 200840Z AUTO 29002KT 9999 CLR 15/06 A3026 RMK A02 TSNO
QEN,2020-10-20 08:50,128.7500,37.6667,50.00,44.60,81.61,40.00,2.00,0.00,30.31,M,6.21,M,CLR,M,M,M,M,M,M,M,M,M,M,M,M,M,M,M,KQEN 200850Z AUTO 04002KT 9999 CLR 10/07 A3031 RMK A02 TSNO
QES,2020-10-20 08:50,126.4500,36.9667,64.40,48.20,55.63,M,M,0.00,30.27,M,6.21,M,CLR,M,M,M,M,M,M,M,M,M,M,M,M,M,M,M,KQES 200850Z AUTO 9999 CLR 18/09 A3027 RMK A02 TSNO
QEJ,2020-10-20 08:50,127.9500,38.2000,57.20,46.40,67.12,360.00,1.00,0.00,30.22,M,6.21,M,CLR,M,M,M,M,M,M,M,M,M,M,M,M,M,M,M,KQEJ 200850Z AUTO 36001KT 9999 CLR 14/08 A3022 RMK A02 TSNO
QEI,2020-10-20 08:50,128.0667,37.9500,57.20,42.80,58.52,170.00,2.00,0.00,30.23,M,6.21,M,CLR,M,M,M,M,M,M,M,M,M,M,M,M,M,M,M,KQEI 200850Z AUTO 17002KT 9999 CLR 14/06 A3023 RMK A02 TSNO
QEQ,2020-10-20 08:50,127.5500,37.8500,60.80,42.80,51.45,110.00,1.00,0.00,30.25,M,6.21,M,CLR,M,M,M,M,M,M,M,M,M,M,M,M,M,M,M,KQEQ 200850Z AUTO 11001KT 9999 CLR 16/06 A3025 RMK A02 TSNO
QEW,2020-10-20 08:50,128.1500,36.4000,60.80,41.00,48.00,180.00,2.00,0.00,30.24,M,6.21,M,CLR,M,M,M,M,M,M,M,M,M,M,M,M,M,M,M,KQEW 200850Z AUTO 18002KT 9999 CLR 16/05 A3024 RMK A02 TSNO
QEP,2020-10-20 08:50,127.2667,37.4000,60.80,44.60,55.12,130.00,1.00,0.00,30.24,M,6.21,M,CLR,M,M,M,M,M,M,M,M,M,M,M,M,M,M,M,KQEP 200850Z AUTO 13001KT 9999 CLR 16/07 A3024 RMK A02 TSNO
QFB,2020-10-20 08:50,128.7167,35.6500,66.20,46.40,48.83,120.00,1.00,0.00,30.31,M,6.21,M,CLR,M,M,M,M,M,M,M,M,M,M,M,M,M,M,M,KQFB 200850Z AUTO 12001KT 9999 CLR 19/08 A3031 RMK A02 TSNO
QFT,2020-10-20 08:50,127.3500,37.6000,60.80,44.60,55.12,170.00,2.00,0.00,30.21,M,M,M,CLR,M,M,M,M,M,M,M,,M,M,M,M,M,M,M,KQFT 200850Z AUTO 17002KT / // CLR 16/07 A3021 RMK A02 TSNO
QFU,2020-10-20 08:50,126.9667,37.8000,62.60,42.80,48.28,250.00,2.00,0.00,30.26,M,6.21,M,CLR,M,M,M,M,M,M,M,M,M,M,M,M,M,M,M,KQFU 200850Z AUTO 25002KT 9999 CLR 17/06 A3026 RMK A02 TSNO
QEX,2020-10-20 08:50,128.3000,36.1000,66.20,42.80,42.57,230.00,1.00,0.00,30.17,M,6.21,M,CLR,M,M,M,M,M,M,M,M,M,M,M,M,M,M,M,KQEX 200850Z AUTO 23001KT 9999 CLR 19/06 A3017 RMK A02 TSNO
QFW,2020-10-20 08:50,127.8833,37.6667,60.80,44.60,55.12,140.00,1.00,0.00,30.24,M,6.21,M,CLR,M,M,M,M,M,M,M,M,M,M,M,M,M,M,M,KQFW 200850Z AUTO 14001KT 9999 CLR 16/07 A3024 RMK A02 TSNO
QFV,2020-10-20 08:50,127.5000,38.0500,57.20,42.80,58.52,270.00,2.00,0.00,30.26,M,6.21,M,CLR,M,M,M,M,M,M,M,M,M,M,M,M,M,M,M,KQFV 200850Z AUTO 27002KT 9999 CLR 14/06 A3026 RMK A02 TSNO
RKJK,2020-10-20 08:56,126.6220,35.8994,60.30,53.80,79.10,330.00,4.00,0.00,30.21,1023.50,6.00,M,CLR,M,M,M,M,M,M,M,HZ,M,M,M,M,M,M,M,RKJK 200856Z AUTO 33004KT 6SM HZ CLR 16/12 A3021 RMK AO2 SLP235 T01570121 58007 $
RKSG,2020-10-20 08:56,127.0311,36.9622,64.20,48.60,56.86,0.00,0.00,0.00,30.21,1023.30,2.75,M,CLR,M,M,M,M,M,M,M,HZ,M,M,M,M,M,M,M,RKSG 200856Z 00000KT 2 3/4SM HZ CLR 18/09 A3021 RMK AO2A SLP233 T01790092 58016 $
RKSO,2020-10-20 08:58,127.0296,37.0906,64.00,50.70,61.92,220.00,3.00,0.00,30.20,1023.00,3.00,M,CLR,M,M,M,M,M,M,M,HZ,M,M,M,M,M,M,M,RKSO 200858Z 22003KT 3SM HZ CLR 18/10 A3020 RMK AO2A SLP230 T01780104 58016 $
RKSY,2020-10-20 08:58,126.9753,37.5241,60.40,46.00,58.96,0.00,0.00,0.00,30.20,1023.00,6.21,M,CLR,M,M,M,M,M,M,M,M,M,M,M,M,M,M,M,RKSY 200858Z AUTO 00000KT 9999 CLR 16/08 A3020 RMK AO2 SLP230 T01580078 58021 $
QEN,2020-10-20 09:00,128.7500,37.6667,50.00,44.60,81.61,10.00,2.00,0.00,30.30,M,6.21,M,CLR,M,M,M,M,M,M,M,M,M,M,M,M,M,M,M,KQEN 200900Z AUTO 01002KT 9999 CLR 10/07 A3030 RMK A02 TSNO
QES,2020-10-20 09:00,126.4500,36.9667,64.40,48.20,55.63,M,M,0.00,30.27,M,6.21,M,CLR,M,M,M,M,M,M,M,M,M,M,M,M,M,M,M,KQES 200900Z AUTO 9999 CLR 18/09 A3027 RMK A02 TSNO
QEJ,2020-10-20 09:00,127.9500,38.2000,57.20,44.60,62.69,0.00,0.00,0.00,30.22,M,6.21,M,CLR,M,M,M,M,M,M,M,M,M,M,M,M,M,M,M,KQEJ 200900Z AUTO 00000KT 9999 CLR 14/07 A3022 RMK A02 TSNO
QEI,2020-10-20 09:00,128.0667,37.9500,57.20,42.80,58.52,180.00,2.00,0.00,30.23,M,6.21,M,CLR,M,M,M,M,M,M,M,M,M,M,M,M,M,M,M,KQEI 200900Z AUTO 18002KT 9999 CLR 14/06 A3023 RMK A02 TSNO
QEW,2020-10-20 09:00,128.1500,36.4000,59.00,44.60,58.77,260.00,2.00,0.00,30.24,M,6.21,M,CLR,M,M,M,M,M,M,M,M,M,M,M,M,M,M,M,KQEW 200900Z AUTO 26002KT 9999 CLR 15/07 A3024 RMK A02 TSNO
QEP,2020-10-20 09:00,127.2667,37.4000,59.00,46.40,62.92,130.00,1.00,0.00,30.24,M,6.21,M,CLR,M,M,M,M,M,M,M,M,M,M,M,M,M,M,M,KQEP 200900Z AUTO 13001KT 9999 CLR 15/08 A3024 RMK A02 TSNO
QFB,2020-10-20 09:00,128.7167,35.6500,64.40,46.40,51.98,210.00,1.00,0.00,30.31,M,6.21,M,CLR,M,M,M,M,M,M,M,M,M,M,M,M,M,M,M,KQFB 200900Z AUTO 21001KT 9999 CLR 18/08 A3031 RMK A02 TSNO
QFT,2020-10-20 09:00,127.3500,37.6000,59.00,44.60,58.77,120.00,1.00,0.00,30.21,M,M,M,CLR,M,M,M,M,M,M,M,,M,M,M,M,M,M,M,KQFT 200900Z AUTO 12001KT / // CLR 15/07 A3021 RMK A02 TSNO
QFU,2020-10-20 09:00,126.9667,37.8000,59.00,42.80,54.86,230.00,1.00,0.00,30.25,M,6.21,M,CLR,M,M,M,M,M,M,M,M,M,M,M,M,M,M,M,KQFU 200900Z AUTO 23001KT 9999 CLR 15/06 A3025 RMK A02 TSNO
QEX,2020-10-20 09:00,128.3000,36.1000,66.20,42.80,42.57,0.00,0.00,0.00,30.17,M,6.21,M,CLR,M,M,M,M,M,M,M,M,M,M,M,M,M,M,M,KQEX 200900Z AUTO 00000KT 9999 CLR 19/06 A3017 RMK A02 TSNO
QFW,2020-10-20 09:00,127.8833,37.6667,60.80,42.80,51.45,130.00,1.00,0.00,30.24,M,6.21,M,CLR,M,M,M,M,M,M,M,M,M,M,M,M,M,M,M,KQFW 200900Z AUTO 13001KT 9999 CLR 16/06 A3024 RMK A02 TSNO
RKJB,2020-10-20 09:00,126.3800,34.9800,60.80,53.60,77.14,10.00,5.00,0.00,30.21,M,2.49,M,NSC,M,M,M,M,M,M,M,BR,M,M,M,M,M,M,M,RKJB 200900Z 01005KT 4000 BR NSC 16/12 Q1023 NOSIG
RKPC,2020-10-20 09:00,126.4930,33.5113,66.20,57.20,72.74,100.00,13.00,0.00,30.21,M,6.21,M,FEW,M,M,M,3000.00,M,M,M,M,M,M,M,M,M,M,M,RKPC 200900Z 10013KT 9999 FEW030 19/14 Q1023 NOSIG
RKNY,2020-10-20 09:00,128.6692,38.0613,59.00,51.80,76.98,170.00,5.00,0.00,30.24,M,6.21,M,M,M,M,M,M,M,M,M,M,M,M,M,M,M,M,M,RKNY 200900Z 17005KT CAVOK 15/11 Q1024 NOSIG
RKSS,2020-10-20 09:00,126.7906,37.5583,62.60,39.20,42.00,60.00,1.00,0.00,30.21,M,6.21,M,M,M,M,M,M,M,M,M,M,M,M,M,M,M,M,M,RKSS 200900Z 06001KT CAVOK 17/04 Q1023 NOSIG
RKTN,2020-10-20 09:00,128.6589,35.8941,64.40,41.00,42.28,110.00,8.00,0.00,30.27,M,6.21,M,M,M,M,M,M,M,M,M,M,M,M,M,M,M,M,M,RKTN 200900Z 11008KT CAVOK 18/05 Q1025
RKTU,2020-10-20 09:00,127.4991,36.7166,62.60,48.20,59.26,130.00,3.00,0.00,30.21,M,6.21,M,M,M,M,M,M,M,M,M,M,M,M,M,M,M,M,M,RKTU 200900Z 13003KT CAVOK 17/09 Q1023
QEQ,2020-10-20 09:00,127.5500,37.8500,59.00,44.60,58.77,0.00,0.00,0.00,30.25,M,6.21,M,CLR,M,M,M,M,M,M,M,M,M,M,M,M,M,M,M,KQEQ 200900Z AUTO 00000KT 9999 CLR 15/07 A3025 RMK A02 TSNO
RKPK,2020-10-20 09:00,128.9382,35.1795,66.20,48.20,52.25,60.00,8.00,0.00,30.24,M,6.21,M,FEW,M,M,M,5000.00,M,M,M,M,M,M,M,M,M,M,M,RKPK 200900Z 06008KT 9999 FEW050 19/09 Q1024
RKSI,2020-10-20 09:00,126.4500,37.4667,62.60,46.40,55.37,290.00,5.00,0.00,30.21,M,6.21,M,M,M,M,M,M,M,M,M,M,M,M,M,M,M,M,M,RKSI 200900Z 29005KT CAVOK 17/08 Q1023 NOSIG
RKSM,2020-10-20 09:00,127.1139,37.4458,62.60,44.60,51.72,0.00,0.00,0.00,30.22,M,5.59,M,FEW,M,M,M,20000.00,M,M,M,HZ,M,M,M,M,M,M,M,RKSM 200900Z 00000KT 9000 HZ FEW200 17/07 A3022
QFV,2020-10-20 09:00,127.5000,38.0500,55.40,42.80,62.46,270.00,2.00,0.00,30.26,M,6.21,M,CLR,M,M,M,M,M,M,M,M,M,M,M,M,M,M,M,KQFV 200900Z AUTO 27002KT 9999 CLR 13/06 A3026 RMK A02 TSNO
QFB,2020-10-20 09:10,128.7167,35.6500,64.40,46.40,51.98,230.00,2.00,0.00,30.31,M,6.21,M,CLR,M,M,M,M,M,M,M,M,M,M,M,M,M,M,M,KQFB 200910Z AUTO 23002KT 9999 CLR 18/08 A3031 RMK A02 TSNO
QEN,2020-10-20 09:10,128.7500,37.6667,50.00,42.80,76.18,30.00,2.00,0.00,30.29,M,6.21,M,CLR,M,M,M,M,M,M,M,M,M,M,M,M,M,M,M,KQEN 200910Z AUTO 03002KT 9999 CLR 10/06 A3029 RMK A02 TSNO
QES,2020-10-20 09:10,126.4500,36.9667,64.40,48.20,55.63,M,M,0.00,30.27,M,6.21,M,CLR,M,M,M,M,M,M,M,M,M,M,M,M,M,M,M,KQES 200910Z AUTO 9999 CLR 18/09 A3027 RMK A02 TSNO
QEJ,2020-10-20 09:10,127.9500,38.2000,55.40,44.60,66.91,100.00,1.00,0.00,30.22,M,6.21,M,CLR,M,M,M,M,M,M,M,M,M,M,M,M,M,M,M,KQEJ 200910Z AUTO 10001KT 9999 CLR 13/07 A3022 RMK A02 TSNO
QEI,2020-10-20 09:10,128.0667,37.9500,55.40,42.80,62.46,140.00,2.00,0.00,30.22,M,6.21,M,CLR,M,M,M,M,M,M,M,M,M,M,M,M,M,M,M,KQEI 200910Z AUTO 14002KT 9999 CLR 13/06 A3022 RMK A02 TSNO
QEQ,2020-10-20 09:10,127.5500,37.8500,57.20,42.80,58.52,310.00,1.00,0.00,30.26,M,6.21,M,CLR,M,M,M,M,M,M,M,M,M,M,M,M,M,M,M,KQEQ 200910Z AUTO 31001KT 9999 CLR 14/06 A3026 RMK A02 TSNO
QEW,2020-10-20 09:10,128.1500,36.4000,57.20,44.60,62.69,220.00,2.00,0.00,30.24,M,6.21,M,CLR,M,M,M,M,M,M,M,M,M,M,M,M,M,M,M,KQEW 200910Z AUTO 22002KT 9999 CLR 14/07 A3024 RMK A02 TSNO
QEP,2020-10-20 09:10,127.2667,37.4000,59.00,44.60,58.77,120.00,1.00,0.00,30.24,M,6.21,M,CLR,M,M,M,M,M,M,M,M,M,M,M,M,M,M,M,KQEP 200910Z AUTO 12001KT 9999 CLR 15/07 A3024 RMK A02 TSNO
QFT,2020-10-20 09:10,127.3500,37.6000,59.00,44.60,58.77,120.00,2.00,0.00,30.21,M,M,M,CLR,M,M,M,M,M,M,M,,M,M,M,M,M,M,M,KQFT 200910Z AUTO 12002KT / // CLR 15/07 A3021 RMK A02 TSNO
QFU,2020-10-20 09:10,126.9667,37.8000,57.20,42.80,58.52,250.00,2.00,0.00,30.26,M,6.21,M,CLR,M,M,M,M,M,M,M,M,M,M,M,M,M,M,M,KQFU 200910Z AUTO 25002KT 9999 CLR 14/06 A3026 RMK A02 TSNO
QEX,2020-10-20 09:10,128.3000,36.1000,64.40,42.80,45.32,10.00,1.00,0.00,30.17,M,6.21,M,CLR,M,M,M,M,M,M,M,M,M,M,M,M,M,M,M,KQEX 200910Z AUTO 01001KT 9999 CLR 18/06 A3017 RMK A02 TSNO
QFW,2020-10-20 09:10,127.8833,37.6667,59.00,44.60,58.77,130.00,2.00,0.00,30.24,M,6.21,M,CLR,M,M,M,M,M,M,M,M,M,M,M,M,M,M,M,KQFW 200910Z AUTO 13002KT 9999 CLR 15/07 A3024 RMK A02 TSNO
QFV,2020-10-20 09:10,127.5000,38.0500,55.40,42.80,62.46,300.00,2.00,0.00,30.26,M,6.21,M,CLR,M,M,M,M,M,M,M,M,M,M,M,M,M,M,M,KQFV 200910Z AUTO 30002KT 9999 CLR 13/06 A3026 RMK A02 TSNO
QFB,2020-10-20 09:20,128.7167,35.6500,64.40,46.40,51.98,270.00,1.00,0.00,30.31,M,6.21,M,CLR,M,M,M,M,M,M,M,M,M,M,M,M,M,M,M,KQFB 200920Z AUTO 27001KT 9999 CLR 18/08 A3031 RMK A02 TSNO
QEN,2020-10-20 09:20,128.7500,37.6667,51.80,42.80,71.26,30.00,3.00,0.00,30.28,M,6.21,M,CLR,M,M,M,M,M,M,M,M,M,M,M,M,M,M,M,KQEN 200920Z AUTO 03003KT 9999 CLR 11/06 A3028 RMK A02 TSNO
QES,2020-10-20 09:20,126.4500,36.9667,64.40,50.00,59.50,M,M,0.00,30.27,M,6.21,M,CLR,M,M,M,M,M,M,M,M,M,M,M,M,M,M,M,KQES 200920Z AUTO 9999 CLR 18/10 A3027 RMK A02 TSNO
QEJ,2020-10-20 09:20,127.9500,38.2000,55.40,44.60,66.91,130.00,1.00,0.00,30.22,M,6.21,M,CLR,M,M,M,M,M,M,M,M,M,M,M,M,M,M,M,KQEJ 200920Z AUTO 13001KT 9999 CLR 13/07 A3022 RMK A02 TSNO
QEI,2020-10-20 09:20,128.0667,37.9500,55.40,42.80,62.46,100.00,2.00,0.00,30.23,M,6.21,M,CLR,M,M,M,M,M,M,M,M,M,M,M,M,M,M,M,KQEI 200920Z AUTO 10002KT 9999 CLR 13/06 A3023 RMK A02 TSNO
QEW,2020-10-20 09:20,128.1500,36.4000,59.00,41.00,51.18,180.00,1.00,0.00,30.23,M,6.21,M,CLR,M,M,M,M,M,M,M,M,M,M,M,M,M,M,M,KQEW 200920Z AUTO 18001KT 9999 CLR 15/05 A3023 RMK A02 TSNO
QEP,2020-10-20 09:20,127.2667,37.4000,57.20,46.40,67.12,0.00,0.00,0.00,30.24,M,6.21,M,CLR,M,M,M,M,M,M,M,M,M,M,M,M,M,M,M,KQEP 200920Z AUTO 00000KT 9999 CLR 14/08 A3024 RMK A02 TSNO
QFT,2020-10-20 09:20,127.3500,37.6000,57.20,44.60,62.69,130.00,1.00,0.00,30.21,M,M,M,CLR,M,M,M,M,M,M,M,,M,M,M,M,M,M,M,KQFT 200920Z AUTO 13001KT / // CLR 14/07 A3021 RMK A02 TSNO
QFU,2020-10-20 09:20,126.9667,37.8000,57.20,42.80,58.52,230.00,1.00,0.00,30.26,M,6.21,M,CLR,M,M,M,M,M,M,M,M,M,M,M,M,M,M,M,KQFU 200920Z AUTO 23001KT 9999 CLR 14/06 A3026 RMK A02 TSNO
QEX,2020-10-20 09:20,128.3000,36.1000,64.40,44.60,48.55,320.00,1.00,0.00,30.17,M,6.21,M,CLR,M,M,M,M,M,M,M,M,M,M,M,M,M,M,M,KQEX 200920Z AUTO 32001KT 9999 CLR 18/07 A3017 RMK A02 TSNO
QEQ,2020-10-20 09:20,127.5500,37.8500,57.20,42.80,58.52,360.00,1.00,0.00,30.26,M,6.21,M,CLR,M,M,M,M,M,M,M,M,M,M,M,M,M,M,M,KQEQ 200920Z AUTO 36001KT 9999 CLR 14/06 A3026 RMK A02 TSNO
QFW,2020-10-20 09:20,127.8833,37.6667,59.00,44.60,58.77,140.00,2.00,0.00,30.24,M,6.21,M,CLR,M,M,M,M,M,M,M,M,M,M,M,M,M,M,M,KQFW 200920Z AUTO 14002KT 9999 CLR 15/07 A3024 RMK A02 TSNO
QFV,2020-10-20 09:20,127.5000,38.0500,53.60,42.80,66.70,290.00,2.00,0.00,30.27,M,6.21,M,CLR,M,M,M,M,M,M,M,M,M,M,M,M,M,M,M,KQFV 200920Z AUTO 29002KT 9999 CLR 12/06 A3027 RMK A02 TSNO
QFT,2020-10-20 09:30,127.3500,37.6000,57.20,46.40,67.12,0.00,0.00,0.00,30.22,M,M,M,CLR,M,M,M,M,M,M,M,,M,M,M,M,M,M,M,KQFT 200930Z AUTO 00000KT / // CLR 14/08 A3022 RMK A02 TSNO
QFU,2020-10-20 09:30,126.9667,37.8000,57.20,42.80,58.52,170.00,1.00,0.00,30.27,M,6.21,M,CLR,M,M,M,M,M,M,M,M,M,M,M,M,M,M,M,KQFU 200930Z AUTO 17001KT 9999 CLR 14/06 A3027 RMK A02 TSNO
QEX,2020-10-20 09:30,128.3000,36.1000,62.60,44.60,51.72,30.00,1.00,0.00,30.16,M,6.21,M,CLR,M,M,M,M,M,M,M,M,M,M,M,M,M,M,M,KQEX 200930Z AUTO 03001KT 9999 CLR 17/07 A3016 RMK A02 TSNO
QFW,2020-10-20 09:30,127.8833,37.6667,57.20,44.60,62.69,140.00,1.00,0.00,30.24,M,6.21,M,CLR,M,M,M,M,M,M,M,M,M,M,M,M,M,M,M,KQFW 200930Z AUTO 14001KT 9999 CLR 14/07 A3024 RMK A02 TSNO
QFV,2020-10-20 09:30,127.5000,38.0500,53.60,41.00,62.23,290.00,3.00,0.00,30.27,M,6.21,M,CLR,M,M,M,M,M,M,M,M,M,M,M,M,M,M,M,KQFV 200930Z AUTO 29003KT 9999 CLR 12/05 A3027 RMK A02 TSNO
RKSI,2020-10-20 09:30,126.4500,37.4667,60.80,48.20,63.15,280.00,5.00,0.00,30.21,M,6.21,M,M,M,M,M,M,M,M,M,M,M,M,M,M,M,M,M,RKSI 200930Z 28005KT CAVOK 16/09 Q1023 NOSIG
QFB,2020-10-20 09:30,128.7167,35.6500,62.60,46.40,55.37,70.00,1.00,0.00,30.31,M,6.21,M,CLR,M,M,M,M,M,M,M,M,M,M,M,M,M,M,M,KQFB 200930Z AUTO 07001KT 9999 CLR 17/08 A3031 RMK A02 TSNO
QEN,2020-10-20 09:30,128.7500,37.6667,50.00,42.80,76.18,30.00,2.00,0.00,30.28,M,6.21,M,CLR,M,M,M,M,M,M,M,M,M,M,M,M,M,M,M,KQEN 200930Z AUTO 03002KT 9999 CLR 10/06 A3028 RMK A02 TSNO
QES,2020-10-20 09:30,126.4500,36.9667,64.40,50.00,59.50,M,M,0.00,M,M,6.21,M,CLR,M,M,M,M,M,M,M,M,M,M,M,M,M,M,M,KQES 200930Z AUTO 9999 CLR 18/10 / RMK A02 TSNO
QEJ,2020-10-20 09:30,127.9500,38.2000,55.40,44.60,66.91,0.00,0.00,0.00,30.22,M,6.21,M,CLR,M,M,M,M,M,M,M,M,M,M,M,M,M,M,M,KQEJ 200930Z AUTO 00000KT 9999 CLR 13/07 A3022 RMK A02 TSNO
QEI,2020-10-20 09:30,128.0667,37.9500,53.60,44.60,71.45,150.00,1.00,0.00,30.23,M,6.21,M,CLR,M,M,M,M,M,M,M,M,M,M,M,M,M,M,M,KQEI 200930Z AUTO 15001KT 9999 CLR 12/07 A3023 RMK A02 TSNO
QEQ,2020-10-20 09:30,127.5500,37.8500,57.20,42.80,58.52,100.00,1.00,0.00,30.26,M,6.21,M,CLR,M,M,M,M,M,M,M,M,M,M,M,M,M,M,M,KQEQ 200930Z AUTO 10001KT 9999 CLR 14/06 A3026 RMK A02 TSNO
QEW,2020-10-20 09:30,128.1500,36.4000,57.20,42.80,58.52,260.00,2.00,0.00,30.23,M,6.21,M,CLR,M,M,M,M,M,M,M,M,M,M,M,M,M,M,M,KQEW 200930Z AUTO 26002KT 9999 CLR 14/06 A3023 RMK A02 TSNO
QEP,2020-10-20 09:30,127.2667,37.4000,57.20,46.40,67.12,90.00,1.00,0.00,30.24,M,6.21,M,CLR,M,M,M,M,M,M,M,M,M,M,M,M,M,M,M,KQEP 200930Z AUTO 09001KT 9999 CLR 14/08 A3024 RMK A02 TSNO
QFT,2020-10-20 09:40,127.3500,37.6000,57.20,46.40,67.12,0.00,0.00,0.00,30.22,M,M,M,CLR,M,M,M,M,M,M,M,,M,M,M,M,M,M,M,KQFT 200940Z AUTO 00000KT / // CLR 14/08 A3022 RMK A02 TSNO
QFU,2020-10-20 09:40,126.9667,37.8000,57.20,41.00,54.60,240.00,1.00,0.00,30.27,M,6.21,M,CLR,M,M,M,M,M,M,M,M,M,M,M,M,M,M,M,KQFU 200940Z AUTO 24001KT 9999 CLR 14/05 A3027 RMK A02 TSNO
QEX,2020-10-20 09:40,128.3000,36.1000,62.60,44.60,51.72,40.00,2.00,0.00,30.16,M,6.21,M,CLR,M,M,M,M,M,M,M,M,M,M,M,M,M,M,M,KQEX 200940Z AUTO 04002KT 9999 CLR 17/07 A3016 RMK A02 TSNO
QFW,2020-10-20 09:40,127.8833,37.6667,57.20,44.60,62.69,120.00,1.00,0.00,30.24,M,6.21,M,CLR,M,M,M,M,M,M,M,M,M,M,M,M,M,M,M,KQFW 200940Z AUTO 12001KT 9999 CLR 14/07 A3024 RMK A02 TSNO
QFV,2020-10-20 09:40,127.5000,38.0500,51.80,41.00,66.48,290.00,2.00,0.00,30.27,M,6.21,M,CLR,M,M,M,M,M,M,M,M,M,M,M,M,M,M,M,KQFV 200940Z AUTO 29002KT 9999 CLR 11/05 A3027 RMK A02 TSNO
QFB,2020-10-20 09:40,128.7167,35.6500,62.60,48.20,59.26,80.00,1.00,0.00,30.31,M,6.21,M,CLR,M,M,M,M,M,M,M,M,M,M,M,M,M,M,M,KQFB 200940Z AUTO 08001KT 9999 CLR 17/09 A3031 RMK A02 TSNO
QEN,2020-10-20 09:40,128.7500,37.6667,50.00,42.80,76.18,360.00,1.00,0.00,30.28,M,6.21,M,CLR,M,M,M,M,M,M,M,M,M,M,M,M,M,M,M,KQEN 200940Z AUTO 36001KT 9999 CLR 10/06 A3028 RMK A02 TSNO
QES,2020-10-20 09:40,126.4500,36.9667,64.40,50.00,59.50,M,M,0.00,M,M,6.21,M,CLR,M,M,M,M,M,M,M,M,M,M,M,M,M,M,M,KQES 200940Z AUTO 9999 CLR 18/10 / RMK A02 TSNO
QEJ,2020-10-20 09:40,127.9500,38.2000,53.60,44.60,71.45,160.00,1.00,0.00,30.22,M,6.21,M,CLR,M,M,M,M,M,M,M,M,M,M,M,M,M,M,M,KQEJ 200940Z AUTO 16001KT 9999 CLR 12/07 A3022 RMK A02 TSNO
QEI,2020-10-20 09:40,128.0667,37.9500,53.60,44.60,71.45,130.00,2.00,0.00,30.23,M,6.21,M,CLR,M,M,M,M,M,M,M,M,M,M,M,M,M,M,M,KQEI 200940Z AUTO 13002KT 9999 CLR 12/07 A3023 RMK A02 TSNO
QEQ,2020-10-20 09:40,127.5500,37.8500,55.40,42.80,62.46,0.00,0.00,0.00,30.27,M,6.21,M,CLR,M,M,M,M,M,M,M,M,M,M,M,M,M,M,M,KQEQ 200940Z AUTO 00000KT 9999 CLR 13/06 A3027 RMK A02 TSNO
QEW,2020-10-20 09:40,128.1500,36.4000,55.40,44.60,66.91,260.00,2.00,0.00,30.23,M,6.21,M,CLR,M,M,M,M,M,M,M,M,M,M,M,M,M,M,M,KQEW 200940Z AUTO 26002KT 9999 CLR 13/07 A3023 RMK A02 TSNO
QEP,2020-10-20 09:40,127.2667,37.4000,57.20,46.40,67.12,160.00,1.00,0.00,30.25,M,6.21,M,CLR,M,M,M,M,M,M,M,M,M,M,M,M,M,M,M,KQEP 200940Z AUTO 16001KT 9999 CLR 14/08 A3025 RMK A02 TSNO
QFB,2020-10-20 09:50,128.7167,35.6500,62.60,48.20,59.26,130.00,1.00,0.00,30.30,M,6.21,M,CLR,M,M,M,M,M,M,M,M,M,M,M,M,M,M,M,KQFB 200950Z AUTO 13001KT 9999 CLR 17/09 A3030 RMK A02 TSNO
QEN,2020-10-20 09:50,128.7500,37.6667,48.20,44.60,87.28,10.00,1.00,0.00,30.28,M,6.21,M,CLR,M,M,M,M,M,M,M,M,M,M,M,M,M,M,M,KQEN 200950Z AUTO 01001KT 9999 CLR 09/07 A3028 RMK A02 TSNO
QES,2020-10-20 09:50,126.4500,36.9667,64.40,50.00,59.50,M,M,0.00,M,M,6.21,M,CLR,M,M,M,M,M,M,M,M,M,M,M,M,M,M,M,KQES 200950Z AUTO 9999 CLR 18/10 / RMK A02 TSNO
QEJ,2020-10-20 09:50,127.9500,38.2000,51.80,44.60,76.34,80.00,1.00,0.00,30.23,M,6.21,M,CLR,M,M,M,M,M,M,M,M,M,M,M,M,M,M,M,KQEJ 200950Z AUTO 08001KT 9999 CLR 11/07 A3023 RMK A02 TSNO
QEI,2020-10-20 09:50,128.0667,37.9500,51.80,44.60,76.34,140.00,1.00,0.00,30.24,M,6.21,M,CLR,M,M,M,M,M,M,M,M,M,M,M,M,M,M,M,KQEI 200950Z AUTO 14001KT 9999 CLR 11/07 A3024 RMK A02 TSNO
QEQ,2020-10-20 09:50,127.5500,37.8500,53.60,44.60,71.45,200.00,1.00,0.00,30.27,M,6.21,M,CLR,M,M,M,M,M,M,M,M,M,M,M,M,M,M,M,KQEQ 200950Z AUTO 20001KT 9999 CLR 12/07 A3027 RMK A02 TSNO
QEW,2020-10-20 09:50,128.1500,36.4000,57.20,41.00,54.60,180.00,1.00,0.00,30.23,M,6.21,M,CLR,M,M,M,M,M,M,M,M,M,M,M,M,M,M,M,KQEW 200950Z AUTO 18001KT 9999 CLR 14/05 A3023 RMK A02 TSNO
QEP,2020-10-20 09:50,127.2667,37.4000,55.40,46.40,71.64,230.00,1.00,0.00,30.25,M,6.21,M,CLR,M,M,M,M,M,M,M,M,M,M,M,M,M,M,M,KQEP 200950Z AUTO 23001KT 9999 CLR 13/08 A3025 RMK A02 TSNO
QFT,2020-10-20 09:50,127.3500,37.6000,55.40,46.40,71.64,0.00,0.00,0.00,30.22,M,M,M,CLR,M,M,M,M,M,M,M,,M,M,M,M,M,M,M,KQFT 200950Z AUTO 00000KT / // CLR 13/08 A3022 RMK A02 TSNO
QFU,2020-10-20 09:50,126.9667,37.8000,55.40,41.00,58.27,250.00,2.00,0.00,30.27,M,6.21,M,CLR,M,M,M,M,M,M,M,M,M,M,M,M,M,M,M,KQFU 200950Z AUTO 25002KT 9999 CLR 13/05 A3027 RMK A02 TSNO
QEX,2020-10-20 09:50,128.3000,36.1000,62.60,44.60,51.72,260.00,1.00,0.00,30.16,M,6.21,M,CLR,M,M,M,M,M,M,M,M,M,M,M,M,M,M,M,KQEX 200950Z AUTO 26001KT 9999 CLR 17/07 A3016 RMK A02 TSNO
QFW,2020-10-20 09:50,127.8833,37.6667,57.20,44.60,62.69,140.00,1.00,0.00,30.25,M,6.21,M,CLR,M,M,M,M,M,M,M,M,M,M,M,M,M,M,M,KQFW 200950Z AUTO 14001KT 9999 CLR 14/07 A3025 RMK A02 TSNO
QFV,2020-10-20 09:50,127.5000,38.0500,51.80,42.80,71.26,330.00,2.00,0.00,30.27,M,6.21,M,CLR,M,M,M,M,M,M,M,M,M,M,M,M,M,M,M,KQFV 200950Z AUTO 33002KT 9999 CLR 11/06 A3027 RMK A02 TSNO
RKJK,2020-10-20 09:56,126.6220,35.8994,57.20,52.30,83.65,360.00,5.00,0.00,30.21,1023.50,6.00,M,CLR,M,M,M,M,M,M,M,HZ,M,M,M,M,M,M,M,RKJK 200956Z AUTO 36005KT 6SM HZ CLR 14/11 A3021 RMK AO2 SLP235 T01400113 $
RKSG,2020-10-20 09:56,127.0311,36.9622,57.00,48.60,73.44,0.00,0.00,0.00,30.22,1023.70,2.75,M,CLR,M,M,M,M,M,M,M,HZ,M,M,M,M,M,M,M,RKSG 200956Z 00000KT 2 3/4SM HZ CLR 14/09 A3022 RMK AO2A SLP237 T01390092 $
RKSO,2020-10-20 09:58,127.0296,37.0906,57.60,52.20,82.15,0.00,0.00,0.00,30.22,1023.70,3.00,M,CLR,M,M,M,M,M,M,M,HZ,M,M,M,M,M,M,M,RKSO 200958Z 00000KT 3SM HZ CLR 14/11 A3022 RMK AO2A SLP237 T01420112 $
RKSY,2020-10-20 09:58,126.9753,37.5241,56.70,46.40,68.35,0.00,0.00,0.00,30.22,1023.70,6.21,M,CLR,M,M,M,M,M,M,M,M,M,M,M,M,M,M,M,RKSY 200958Z AUTO 00000KT 9999 CLR 14/08 A3022 RMK AO2 SLP237 T01370080 $
QEN,2020-10-20 10:00,128.7500,37.6667,48.20,44.60,87.28,330.00,3.00,0.00,30.28,M,6.21,M,CLR,M,M,M,M,M,M,M,M,M,M,M,M,M,M,47.21,KQEN 201000Z AUTO 33003KT 9999 CLR 09/07 A3028 RMK A02 TSNO
QES,2020-10-20 10:00,126.4500,36.9667,64.40,50.00,59.50,M,M,0.00,M,M,6.21,M,CLR,M,M,M,M,M,M,M,M,M,M,M,M,M,M,M,KQES 201000Z AUTO 9999 CLR 18/10 / RMK A02 TSNO
QEJ,2020-10-20 10:00,127.9500,38.2000,51.80,44.60,76.34,0.00,0.00,0.00,30.23,M,6.21,M,CLR,M,M,M,M,M,M,M,M,M,M,M,M,M,M,M,KQEJ 201000Z AUTO 00000KT 9999 CLR 11/07 A3023 RMK A02 TSNO
QEI,2020-10-20 10:00,128.0667,37.9500,51.80,44.60,76.34,140.00,1.00,0.00,30.24,M,6.21,M,CLR,M,M,M,M,M,M,M,M,M,M,M,M,M,M,M,KQEI 201000Z AUTO 14001KT 9999 CLR 11/07 A3024 RMK A02 TSNO
QEQ,2020-10-20 10:00,127.5500,37.8500,53.60,44.60,71.45,140.00,2.00,0.00,30.27,M,6.21,M,CLR,M,M,M,M,M,M,M,M,M,M,M,M,M,M,M,KQEQ 201000Z AUTO 14002KT 9999 CLR 12/07 A3027 RMK A02 TSNO
QEW,2020-10-20 10:00,128.1500,36.4000,55.40,41.00,58.27,0.00,0.00,0.00,30.23,M,6.21,M,CLR,M,M,M,M,M,M,M,M,M,M,M,M,M,M,M,KQEW 201000Z AUTO 00000KT 9999 CLR 13/05 A3023 RMK A02 TSNO
QEP,2020-10-20 10:00,127.2667,37.4000,55.40,46.40,71.64,0.00,0.00,0.00,30.26,M,6.21,M,CLR,M,M,M,M,M,M,M,M,M,M,M,M,M,M,M,KQEP 201000Z AUTO 00000KT 9999 CLR 13/08 A3026 RMK A02 TSNO
RKPK,2020-10-20 10:00,128.9382,35.1795,64.40,48.20,55.63,50.00,9.00,0.00,30.24,M,6.21,M,M,M,M,M,M,M,M,M,M,M,M,M,M,M,M,M,RKPK 201000Z 05009KT CAVOK 18/09 Q1024
QFT,2020-10-20 10:00,127.3500,37.6000,55.40,46.40,71.64,50.00,1.00,0.00,30.23,M,M,M,CLR,M,M,M,M,M,M,M,,M,M,M,M,M,M,M,KQFT 201000Z AUTO 05001KT / // CLR 13/08 A3023 RMK A02 TSNO
QFU,2020-10-20 10:00,126.9667,37.8000,55.40,41.00,58.27,240.00,2.00,0.00,30.28,M,6.21,M,CLR,M,M,M,M,M,M,M,M,M,M,M,M,M,M,M,KQFU 201000Z AUTO 24002KT 9999 CLR 13/05 A3028 RMK A02 TSNO
QEX,2020-10-20 10:00,128.3000,36.1000,62.60,44.60,51.72,290.00,1.00,0.00,30.17,M,6.21,M,CLR,M,M,M,M,M,M,M,M,M,M,M,M,M,M,M,KQEX 201000Z AUTO 29001KT 9999 CLR 17/07 A3017 RMK A02 TSNO
QFW,2020-10-20 10:00,127.8833,37.6667,55.40,44.60,66.91,160.00,1.00,0.00,30.25,M,6.21,M,CLR,M,M,M,M,M,M,M,M,M,M,M,M,M,M,M,KQFW 201000Z AUTO 16001KT 9999 CLR 13/07 A3025 RMK A02 TSNO
RKSI,2020-10-20 10:00,126.4500,37.4667,60.80,48.20,63.15,290.00,3.00,0.00,30.21,M,6.21,M,M,M,M,M,M,M,M,M,M,M,M,M,M,M,M,M,RKSI 201000Z 29003KT CAVOK 16/09 Q1023 NOSIG
RKJB,2020-10-20 10:00,126.3800,34.9800,59.00,53.60,82.25,160.00,5.00,0.00,30.21,M,2.49,M,NSC,M,M,M,M,M,M,M,BR,M,M,M,M,M,M,M,RKJB 201000Z 16005KT 4000 BR NSC 15/12 Q1023 NOSIG
RKPC,2020-10-20 10:00,126.4930,33.5113,64.40,57.20,77.45,110.00,10.00,0.00,30.18,M,6.21,M,FEW,M,M,M,3000.00,M,M,M,M,M,M,M,M,M,M,M,RKPC 201000Z 11010KT 9999 FEW030 18/14 Q1022 NOSIG
RKNY,2020-10-20 10:00,128.6692,38.0613,57.20,50.00,76.82,250.00,4.00,0.00,30.21,M,6.21,M,M,M,M,M,M,M,M,M,M,M,M,M,M,M,M,M,RKNY 201000Z 25004KT CAVOK 14/10 Q1023 NOSIG
QFB,2020-10-20 10:00,128.7167,35.6500,60.80,48.20,63.15,200.00,1.00,0.00,30.30,M,6.21,M,CLR,M,M,M,M,M,M,M,M,M,M,M,M,M,M,M,KQFB 201000Z AUTO 20001KT 9999 CLR 16/09 A3030 RMK A02 TSNO
RKSS,2020-10-20 10:00,126.7906,37.5583,55.40,44.60,66.91,300.00,6.00,0.00,30.24,M,6.21,M,M,M,M,M,M,M,M,M,M,M,M,M,M,M,M,M,RKSS 201000Z 30006KT CAVOK 13/07 Q1024 NOSIG
RKTN,2020-10-20 10:00,128.6589,35.8941,64.40,44.60,48.55,120.00,8.00,0.00,30.24,M,6.21,M,M,M,M,M,M,M,M,M,M,M,M,M,M,M,M,M,RKTN 201000Z 12008KT CAVOK 18/07 Q1024
RKTU,2020-10-20 10:00,127.4991,36.7166,55.40,48.20,76.66,120.00,2.00,0.00,30.24,M,6.21,M,M,M,M,M,M,M,M,M,M,M,M,M,M,M,M,M,RKTU 201000Z 12002KT CAVOK 13/09 Q1024
RKSM,2020-10-20 10:00,127.1139,37.4458,57.20,46.40,67.12,180.00,3.00,0.00,30.24,M,6.21,M,FEW,M,M,M,20000.00,M,M,M,M,M,M,M,M,M,M,M,RKSM 201000Z 18003KT 9999 FEW200 14/08 A3024
QFV,2020-10-20 10:00,127.5000,38.0500,51.80,42.80,71.26,100.00,1.00,0.00,30.28,M,6.21,M,CLR,M,M,M,M,M,M,M,M,M,M,M,M,M,M,M,KQFV 201000Z AUTO 10001KT 9999 CLR 11/06 A3028 RMK A02 TSNO
QEN,2020-10-20 10:10,128.7500,37.6667,48.20,42.80,81.47,10.00,1.00,0.00,30.29,M,6.21,M,CLR,M,M,M,M,M,M,M,M,M,M,M,M,M,M,M,KQEN 201010Z AUTO 01001KT 9999 CLR 09/06 A3029 RMK A02 TSNO
QES,2020-10-20 10:10,126.4500,36.9667,64.40,50.00,59.50,M,M,0.00,M,M,6.21,M,CLR,M,M,M,M,M,M,M,M,M,M,M,M,M,M,M,KQES 201010Z AUTO 9999 CLR 18/10 / RMK A02 TSNO
QEJ,2020-10-20 10:10,127.9500,38.2000,51.80,44.60,76.34,0.00,0.00,0.00,30.23,M,6.21,M,CLR,M,M,M,M,M,M,M,M,M,M,M,M,M,M,M,KQEJ 201010Z AUTO 00000KT 9999 CLR 11/07 A3023 RMK A02 TSNO
QEI,2020-10-20 10:10,128.0667,37.9500,51.80,44.60,76.34,140.00,1.00,0.00,30.24,M,6.21,M,CLR,M,M,M,M,M,M,M,M,M,M,M,M,M,M,M,KQEI 201010Z AUTO 14001KT 9999 CLR 11/07 A3024 RMK A02 TSNO
QEQ,2020-10-20 10:10,127.5500,37.8500,53.60,44.60,71.45,140.00,1.00,0.00,30.27,M,6.21,M,CLR,M,M,M,M,M,M,M,M,M,M,M,M,M,M,M,KQEQ 201010Z AUTO 14001KT 9999 CLR 12/07 A3027 RMK A02 TSNO
QEW,2020-10-20 10:10,128.1500,36.4000,55.40,42.80,62.46,0.00,0.00,0.00,30.24,M,6.21,M,CLR,M,M,M,M,M,M,M,M,M,M,M,M,M,M,M,KQEW 201010Z AUTO 00000KT 9999 CLR 13/06 A3024 RMK A02 TSNO
QEP,2020-10-20 10:10,127.2667,37.4000,55.40,48.20,76.66,90.00,1.00,0.00,30.26,M,6.21,M,CLR,M,M,M,M,M,M,M,M,M,M,M,M,M,M,M,KQEP 201010Z AUTO 09001KT 9999 CLR 13/09 A3026 RMK A02 TSNO
QFT,2020-10-20 10:10,127.3500,37.6000,55.40,46.40,71.64,0.00,0.00,0.00,30.23,M,M,M,CLR,M,M,M,M,M,M,M,,M,M,M,M,M,M,M,KQFT 201010Z AUTO 00000KT / // CLR 13/08 A3023 RMK A02 TSNO
QFU,2020-10-20 10:10,126.9667,37.8000,55.40,41.00,58.27,240.00,1.00,0.00,30.28,M,6.21,M,CLR,M,M,M,M,M,M,M,M,M,M,M,M,M,M,M,KQFU 201010Z AUTO 24001KT 9999 CLR 13/05 A3028 RMK A02 TSNO
QEX,2020-10-20 10:10,128.3000,36.1000,60.80,44.60,55.12,350.00,1.00,0.00,30.17,M,6.21,M,CLR,M,M,M,M,M,M,M,M,M,M,M,M,M,M,M,KQEX 201010Z AUTO 35001KT 9999 CLR 16/07 A3017 RMK A02 TSNO
QFW,2020-10-20 10:10,127.8833,37.6667,55.40,44.60,66.91,140.00,1.00,0.00,30.25,M,6.21,M,CLR,M,M,M,M,M,M,M,M,M,M,M,M,M,M,M,KQFW 201010Z AUTO 14001KT 9999 CLR 13/07 A3025 RMK A02 TSNO
QFB,2020-10-20 10:10,128.7167,35.6500,60.80,48.20,63.15,50.00,1.00,0.00,30.30,M,6.21,M,CLR,M,M,M,M,M,M,M,M,M,M,M,M,M,M,M,KQFB 201010Z AUTO 05001KT 9999 CLR 16/09 A3030 RMK A02 TSNO
QFV,2020-10-20 10:10,127.5000,38.0500,50.00,41.00,71.07,310.00,2.00,0.00,30.28,M,6.21,M,CLR,M,M,M,M,M,M,M,M,M,M,M,M,M,M,M,KQFV 201010Z AUTO 31002KT 9999 CLR 10/05 A3028 RMK A02 TSNO
RKSO,2020-10-20 10:18,127.0296,37.0906,55.40,53.60,93.65,0.00,0.00,0.00,30.22,1023.70,4.00,M,CLR,M,M,M,M,M,M,M,BR,M,M,M,M,M,M,M,RKSO 201018Z AUTO 00000KT 4SM BR CLR 13/12 A3022 RMK AO2 SLP237
QFB,2020-10-20 10:20,128.7167,35.6500,60.80,48.20,63.15,250.00,1.00,0.00,30.31,M,6.21,M,CLR,M,M,M,M,M,M,M,M,M,M,M,M,M,M,M,KQFB 201020Z AUTO 25001KT 9999 CLR 16/09 A3031 RMK A02 TSNO
QEN,2020-10-20 10:20,128.7500,37.6667,48.20,41.00,76.01,330.00,2.00,0.00,30.28,M,6.21,M,CLR,M,M,M,M,M,M,M,M,M,M,M,M,M,M,M,KQEN 201020Z AUTO 33002KT 9999 CLR 09/05 A3028 RMK A02 TSNO
QES,2020-10-20 10:20,126.4500,36.9667,64.40,50.00,59.50,M,M,0.00,M,M,6.21,M,CLR,M,M,M,M,M,M,M,M,M,M,M,M,M,M,M,KQES 201020Z AUTO 9999 CLR 18/10 / RMK A02 TSNO
QEJ,2020-10-20 10:20,127.9500,38.2000,51.80,44.60,76.34,0.00,0.00,0.00,30.23,M,6.21,M,CLR,M,M,M,M,M,M,M,M,M,M,M,M,M,M,M,KQEJ 201020Z AUTO 00000KT 9999 CLR 11/07 A3023 RMK A02 TSNO
QEI,2020-10-20 10:20,128.0667,37.9500,51.80,44.60,76.34,140.00,1.00,0.00,30.25,M,6.21,M,CLR,M,M,M,M,M,M,M,M,M,M,M,M,M,M,M,KQEI 201020Z AUTO 14001KT 9999 CLR 11/07 A3025 RMK A02 TSNO
QEQ,2020-10-20 10:20,127.5500,37.8500,51.80,44.60,76.34,120.00,1.00,0.00,30.27,M,6.21,M,CLR,M,M,M,M,M,M,M,M,M,M,M,M,M,M,M,KQEQ 201020Z AUTO 12001KT 9999 CLR 11/07 A3027 RMK A02 TSNO
QEW,2020-10-20 10:20,128.1500,36.4000,55.40,42.80,62.46,150.00,1.00,0.00,30.24,M,6.21,M,CLR,M,M,M,M,M,M,M,M,M,M,M,M,M,M,M,KQEW 201020Z AUTO 15001KT 9999 CLR 13/06 A3024 RMK A02 TSNO
QEP,2020-10-20 10:20,127.2667,37.4000,55.40,46.40,71.64,90.00,1.00,0.00,30.27,M,6.21,M,CLR,M,M,M,M,M,M,M,M,M,M,M,M,M,M,M,KQEP 201020Z AUTO 09001KT 9999 CLR 13/08 A3027 RMK A02 TSNO
QFT,2020-10-20 10:20,127.3500,37.6000,55.40,46.40,71.64,0.00,0.00,0.00,30.23,M,M,M,CLR,M,M,M,M,M,M,M,,M,M,M,M,M,M,M,KQFT 201020Z AUTO 00000KT / // CLR 13/08 A3023 RMK A02 TSNO
QFU,2020-10-20 10:20,126.9667,37.8000,55.40,41.00,58.27,240.00,1.00,0.00,30.28,M,6.21,M,CLR,M,M,M,M,M,M,M,M,M,M,M,M,M,M,M,KQFU 201020Z AUTO 24001KT 9999 CLR 13/05 A3028 RMK A02 TSNO
QEX,2020-10-20 10:20,128.3000,36.1000,60.80,44.60,55.12,300.00,1.00,0.00,30.17,M,6.21,M,CLR,M,M,M,M,M,M,M,M,M,M,M,M,M,M,M,KQEX 201020Z AUTO 30001KT 9999 CLR 16/07 A3017 RMK A02 TSNO
QFW,2020-10-20 10:20,127.8833,37.6667,55.40,44.60,66.91,120.00,1.00,0.00,30.26,M,6.21,M,CLR,M,M,M,M,M,M,M,M,M,M,M,M,M,M,M,KQFW 201020Z AUTO 12001KT 9999 CLR 13/07 A3026 RMK A02 TSNO
QFV,2020-10-20 10:20,127.5000,38.0500,50.00,42.80,76.18,360.00,2.00,0.00,30.28,M,6.21,M,CLR,M,M,M,M,M,M,M,M,M,M,M,M,M,M,M,KQFV 201020Z AUTO 36002KT 9999 CLR 10/06 A3028 RMK A02 TSNO
QFB,2020-10-20 10:30,128.7167,35.6500,60.80,48.20,63.15,210.00,1.00,0.00,30.32,M,6.21,M,CLR,M,M,M,M,M,M,M,M,M,M,M,M,M,M,M,KQFB 201030Z AUTO 21001KT 9999 CLR 16/09 A3032 RMK A02 TSNO
QEN,2020-10-20 10:30,128.7500,37.6667,46.40,41.00,81.34,320.00,3.00,0.00,30.28,M,6.21,M,CLR,M,M,M,M,M,M,M,M,M,M,M,M,M,M,45.15,KQEN 201030Z AUTO 32003KT 9999 CLR 08/05 A3028 RMK A02 TSNO
QES,2020-10-20 10:30,126.4500,36.9667,64.40,50.00,59.50,M,M,0.00,M,M,6.21,M,CLR,M,M,M,M,M,M,M,M,M,M,M,M,M,M,M,KQES 201030Z AUTO 9999 CLR 18/10 / RMK A02 TSNO
QEJ,2020-10-20 10:30,127.9500,38.2000,50.00,44.60,81.61,0.00,0.00,0.00,30.24,M,6.21,M,CLR,M,M,M,M,M,M,M,M,M,M,M,M,M,M,M,KQEJ 201030Z AUTO 00000KT 9999 CLR 10/07 A3024 RMK A02 TSNO
QEI,2020-10-20 10:30,128.0667,37.9500,50.00,44.60,81.61,150.00,1.00,0.00,30.25,M,6.21,M,CLR,M,M,M,M,M,M,M,M,M,M,M,M,M,M,M,KQEI 201030Z AUTO 15001KT 9999 CLR 10/07 A3025 RMK A02 TSNO
QEQ,2020-10-20 10:30,127.5500,37.8500,51.80,44.60,76.34,130.00,1.00,0.00,30.28,M,6.21,M,CLR,M,M,M,M,M,M,M,M,M,M,M,M,M,M,M,KQEQ 201030Z AUTO 13001KT 9999 CLR 11/07 A3028 RMK A02 TSNO
QEW,2020-10-20 10:30,128.1500,36.4000,53.60,42.80,66.70,90.00,1.00,0.00,30.24,M,6.21,M,CLR,M,M,M,M,M,M,M,M,M,M,M,M,M,M,M,KQEW 201030Z AUTO 09001KT 9999 CLR 12/06 A3024 RMK A02 TSNO
QEP,2020-10-20 10:30,127.2667,37.4000,55.40,46.40,71.64,0.00,0.00,0.00,30.27,M,6.21,M,CLR,M,M,M,M,M,M,M,M,M,M,M,M,M,M,M,KQEP 201030Z AUTO 00000KT 9999 CLR 13/08 A3027 RMK A02 TSNO
QFT,2020-10-20 10:30,127.3500,37.6000,53.60,44.60,71.45,160.00,1.00,0.00,30.24,M,M,M,CLR,M,M,M,M,M,M,M,,M,M,M,M,M,M,M,KQFT 201030Z AUTO 16001KT / // CLR 12/07 A3024 RMK A02 TSNO
QFU,2020-10-20 10:30,126.9667,37.8000,55.40,41.00,58.27,230.00,1.00,0.00,30.28,M,6.21,M,CLR,M,M,M,M,M,M,M,M,M,M,M,M,M,M,M,KQFU 201030Z AUTO 23001KT 9999 CLR 13/05 A3028 RMK A02 TSNO
QEX,2020-10-20 10:30,128.3000,36.1000,60.80,42.80,51.45,340.00,1.00,0.00,30.18,M,6.21,M,CLR,M,M,M,M,M,M,M,M,M,M,M,M,M,M,M,KQEX 201030Z AUTO 34001KT 9999 CLR 16/06 A3018 RMK A02 TSNO
QFW,2020-10-20 10:30,127.8833,37.6667,53.60,44.60,71.45,0.00,0.00,0.00,30.26,M,6.21,M,CLR,M,M,M,M,M,M,M,M,M,M,M,M,M,M,M,KQFW 201030Z AUTO 00000KT 9999 CLR 12/07 A3026 RMK A02 TSNO
QFV,2020-10-20 10:30,127.5000,38.0500,50.00,41.00,71.07,250.00,1.00,0.00,30.29,M,6.21,M,CLR,M,M,M,M,M,M,M,M,M,M,M,M,M,M,M,KQFV 201030Z AUTO 25001KT 9999 CLR 10/05 A3029 RMK A02 TSNO
RKSI,2020-10-20 10:30,126.4500,37.4667,60.80,48.20,63.15,310.00,2.00,0.00,30.24,M,6.21,M,M,M,M,M,M,M,M,M,M,M,M,M,M,M,M,M,RKSI 201030Z 31002KT CAVOK 16/09 Q1024 NOSIG
QFB,2020-10-20 10:40,128.7167,35.6500,59.00,48.20,67.33,160.00,1.00,0.00,30.32,M,6.21,M,CLR,M,M,M,M,M,M,M,M,M,M,M,M,M,M,M,KQFB 201040Z AUTO 16001KT 9999 CLR 15/09 A3032 RMK A02 TSNO
QEN,2020-10-20 10:40,128.7500,37.6667,46.40,39.20,75.84,340.00,1.00,0.00,30.28,M,6.21,M,CLR,M,M,M,M,M,M,M,M,M,M,M,M,M,M,M,KQEN 201040Z AUTO 34001KT 9999 CLR 08/04 A3028 RMK A02 TSNO
QES,2020-10-20 10:40,126.4500,36.9667,64.40,50.00,59.50,M,M,0.00,M,M,6.21,M,CLR,M,M,M,M,M,M,M,M,M,M,M,M,M,M,M,KQES 201040Z AUTO 9999 CLR 18/10 / RMK A02 TSNO
QEJ,2020-10-20 10:40,127.9500,38.2000,50.00,44.60,81.61,0.00,0.00,0.00,30.24,M,6.21,M,CLR,M,M,M,M,M,M,M,M,M,M,M,M,M,M,M,KQEJ 201040Z AUTO 00000KT 9999 CLR 10/07 A3024 RMK A02 TSNO
QEI,2020-10-20 10:40,128.0667,37.9500,50.00,44.60,81.61,160.00,1.00,0.00,30.25,M,6.21,M,CLR,M,M,M,M,M,M,M,M,M,M,M,M,M,M,M,KQEI 201040Z AUTO 16001KT 9999 CLR 10/07 A3025 RMK A02 TSNO
QEQ,2020-10-20 10:40,127.5500,37.8500,51.80,44.60,76.34,100.00,1.00,0.00,30.28,M,6.21,M,CLR,M,M,M,M,M,M,M,M,M,M,M,M,M,M,M,KQEQ 201040Z AUTO 10001KT 9999 CLR 11/07 A3028 RMK A02 TSNO
QEW,2020-10-20 10:40,128.1500,36.4000,53.60,42.80,66.70,270.00,1.00,0.00,30.25,M,6.21,M,CLR,M,M,M,M,M,M,M,M,M,M,M,M,M,M,M,KQEW 201040Z AUTO 27001KT 9999 CLR 12/06 A3025 RMK A02 TSNO
QEP,2020-10-20 10:40,127.2667,37.4000,53.60,46.40,76.50,50.00,1.00,0.00,30.27,M,6.21,M,CLR,M,M,M,M,M,M,M,M,M,M,M,M,M,M,M,KQEP 201040Z AUTO 05001KT 9999 CLR 12/08 A3027 RMK A02 TSNO
QEX,2020-10-20 10:40,128.3000,36.1000,60.80,42.80,51.45,340.00,1.00,0.00,30.18,M,6.21,M,CLR,M,M,M,M,M,M,M,M,M,M,M,M,M,M,M,KQEX 201040Z AUTO 34001KT 9999 CLR 16/06 A3018 RMK A02 TSNO
QFV,2020-10-20 10:40,127.5000,38.0500,48.20,41.00,76.01,230.00,1.00,0.00,30.29,M,6.21,M,CLR,M,M,M,M,M,M,M,M,M,M,M,M,M,M,M,KQFV 201040Z AUTO 23001KT 9999 CLR 09/05 A3029 RMK A02 TSNO
QFW,2020-10-20 10:40,127.8833,37.6667,53.60,44.60,71.45,140.00,1.00,0.00,30.26,M,6.21,M,CLR,M,M,M,M,M,M,M,M,M,M,M,M,M,M,M,KQFW 201040Z AUTO 14001KT 9999 CLR 12/07 A3026 RMK A02 TSNO
QEN,2020-10-20 10:50,128.7500,37.6667,44.60,41.00,87.09,330.00,1.00,0.00,30.28,M,6.21,M,CLR,M,M,M,M,M,M,M,M,M,M,M,M,M,M,M,KQEN 201050Z AUTO 33001KT 9999 CLR 07/05 A3028 RMK A02 TSNO
QES,2020-10-20 10:50,126.4500,36.9667,64.40,50.00,59.50,M,M,0.00,M,M,6.21,M,CLR,M,M,M,M,M,M,M,M,M,M,M,M,M,M,M,KQES 201050Z AUTO 9999 CLR 18/10 / RMK A02 TSNO
QEJ,2020-10-20 10:50,127.9500,38.2000,50.00,44.60,81.61,190.00,1.00,0.00,30.24,M,6.21,M,CLR,M,M,M,M,M,M,M,M,M,M,M,M,M,M,M,KQEJ 201050Z AUTO 19001KT 9999 CLR 10/07 A3024 RMK A02 TSNO
QEI,2020-10-20 10:50,128.0667,37.9500,50.00,44.60,81.61,140.00,1.00,0.00,30.25,M,6.21,M,CLR,M,M,M,M,M,M,M,M,M,M,M,M,M,M,M,KQEI 201050Z AUTO 14001KT 9999 CLR 10/07 A3025 RMK A02 TSNO
QEQ,2020-10-20 10:50,127.5500,37.8500,51.80,42.80,71.26,100.00,1.00,0.00,30.28,M,6.21,M,CLR,M,M,M,M,M,M,M,M,M,M,M,M,M,M,M,KQEQ 201050Z AUTO 10001KT 9999 CLR 11/06 A3028 RMK A02 TSNO
QEW,2020-10-20 10:50,128.1500,36.4000,53.60,42.80,66.70,0.00,0.00,0.00,30.25,M,6.21,M,CLR,M,M,M,M,M,M,M,M,M,M,M,M,M,M,M,KQEW 201050Z AUTO 00000KT 9999 CLR 12/06 A3025 RMK A02 TSNO
QEP,2020-10-20 10:50,127.2667,37.4000,53.60,46.40,76.50,320.00,1.00,0.00,30.27,M,6.21,M,CLR,M,M,M,M,M,M,M,M,M,M,M,M,M,M,M,KQEP 201050Z AUTO 32001KT 9999 CLR 12/08 A3027 RMK A02 TSNO
QFB,2020-10-20 10:50,128.7167,35.6500,59.00,48.20,67.33,130.00,1.00,0.00,30.31,M,6.21,M,CLR,M,M,M,M,M,M,M,M,M,M,M,M,M,M,M,KQFB 201050Z AUTO 13001KT 9999 CLR 15/09 A3031 RMK A02 TSNO
QFT,2020-10-20 10:50,127.3500,37.6000,53.60,44.60,71.45,170.00,1.00,0.00,30.25,M,M,M,CLR,M,M,M,M,M,M,M,,M,M,M,M,M,M,M,KQFT 201050Z AUTO 17001KT / // CLR 12/07 A3025 RMK A02 TSNO
QFU,2020-10-20 10:50,126.9667,37.8000,53.60,41.00,62.23,230.00,1.00,0.00,30.29,M,6.21,M,CLR,M,M,M,M,M,M,M,M,M,M,M,M,M,M,M,KQFU 201050Z AUTO 23001KT 9999 CLR 12/05 A3029 RMK A02 TSNO
QEX,2020-10-20 10:50,128.3000,36.1000,60.80,42.80,51.45,20.00,2.00,0.00,30.18,M,6.21,M,CLR,M,M,M,M,M,M,M,M,M,M,M,M,M,M,M,KQEX 201050Z AUTO 02002KT 9999 CLR 16/06 A3018 RMK A02 TSNO
QFW,2020-10-20 10:50,127.8833,37.6667,53.60,44.60,71.45,150.00,1.00,0.00,30.27,M,6.21,M,CLR,M,M,M,M,M,M,M,M,M,M,M,M,M,M,M,KQFW 201050Z AUTO 15001KT 9999 CLR 12/07 A3027 RMK A02 TSNO
QFV,2020-10-20 10:50,127.5000,38.0500,48.20,41.00,76.01,290.00,2.00,0.00,30.29,M,6.21,M,CLR,M,M,M,M,M,M,M,M,M,M,M,M,M,M,M,KQFV 201050Z AUTO 29002KT 9999 CLR 09/05 A3029 RMK A02 TSNO
RKJK,2020-10-20 10:56,126.6220,35.8994,59.40,54.90,85.02,30.00,3.00,0.00,30.19,1022.80,7.00,M,CLR,M,M,M,M,M,M,M,M,M,M,M,M,M,M,M,RKJK 201056Z AUTO 03003KT 7SM CLR 15/13 A3019 RMK AO2 SLP228 T01520127 $
RKSG,2020-10-20 10:56,127.0311,36.9622,57.20,48.20,71.83,0.00,0.00,0.00,30.24,1024.40,2.75,M,CLR,M,M,M,M,M,M,M,HZ,M,M,M,M,M,M,M,RKSG 201056Z 00000KT 2 3/4SM HZ CLR 14/09 A3024 RMK AO2A SLP244 $
RKSY,2020-10-20 10:58,126.9753,37.5241,54.10,46.60,75.69,0.00,0.00,0.00,30.23,1024.00,6.21,M,CLR,M,M,M,M,M,M,M,M,M,M,M,M,M,M,M,RKSY 201058Z AUTO 00000KT 9999 CLR 12/08 A3023 RMK AO2 SLP240 T01230081 $
RKSO,2020-10-20 10:58,127.0296,37.0906,52.20,48.70,87.82,90.00,3.00,0.00,30.23,1024.00,3.00,M,CLR,M,M,M,M,M,M,M,M,M,M,M,M,M,M,M,RKSO 201058Z 09003KT 3SM CLR 11/09 A3023 RMK AO2A SLP240 T01120093 $
RKJB,2020-10-20 11:00,126.3800,34.9800,60.80,57.20,87.92,240.00,2.00,0.00,30.21,M,2.49,M,NSC,M,M,M,M,M,M,M,BR,M,M,M,M,M,M,M,RKJB 201100Z 24002KT 4000 BR NSC 16/14 Q1023 NOSIG
RKPC,2020-10-20 11:00,126.4930,33.5113,66.20,55.40,68.15,130.00,8.00,0.00,30.21,M,6.21,M,FEW,M,M,M,3000.00,M,M,M,M,M,M,M,M,M,M,M,RKPC 201100Z 13008KT 9999 FEW030 19/13 Q1023 NOSIG
RKNY,2020-10-20 11:00,128.6692,38.0613,53.60,48.20,81.87,240.00,5.00,0.00,30.24,M,6.21,M,M,M,M,M,M,M,M,M,M,M,M,M,M,M,M,M,RKNY 201100Z 24005KT CAVOK 12/09 Q1024 NOSIG
QFB,2020-10-20 11:00,128.7167,35.6500,59.00,48.20,67.33,210.00,1.00,0.00,30.32,M,6.21,M,CLR,M,M,M,M,M,M,M,M,M,M,M,M,M,M,M,KQFB 201100Z AUTO 21001KT 9999 CLR 15/09 A3032 RMK A02 TSNO
RKSS,2020-10-20 11:00,126.7906,37.5583,57.20,48.20,71.83,330.00,2.00,0.00,30.24,M,6.21,M,M,M,M,M,M,M,M,M,M,M,M,M,M,M,M,M,RKSS 201100Z 33002KT CAVOK 14/09 Q1024 NOSIG
RKTN,2020-10-20 11:00,128.6589,35.8941,62.60,46.40,55.37,80.00,6.00,0.00,30.27,M,6.21,M,M,M,M,M,M,M,M,M,M,M,M,M,M,M,M,M,RKTN 201100Z 08006KT CAVOK 17/08 Q1025
RKTU,2020-10-20 11:00,127.4991,36.7166,51.80,48.20,87.47,110.00,3.00,0.00,30.24,M,6.21,M,M,M,M,M,M,M,M,M,M,M,M,M,M,M,M,M,RKTU 201100Z 11003KT CAVOK 11/09 Q1024
QEN,2020-10-20 11:00,128.7500,37.6667,44.60,41.00,87.09,290.00,2.00,0.00,30.29,M,6.21,M,CLR,M,M,M,M,M,M,M,M,M,M,M,M,M,M,M,KQEN 201100Z AUTO 29002KT 9999 CLR 07/05 A3029 RMK A02 TSNO
QES,2020-10-20 11:00,126.4500,36.9667,64.40,50.00,59.50,M,M,0.00,M,M,6.21,M,CLR,M,M,M,M,M,M,M,M,M,M,M,M,M,M,M,KQES 201100Z AUTO 9999 CLR 18/10 / RMK A02 TSNO
QEJ,2020-10-20 11:00,127.9500,38.2000,48.20,44.60,87.28,0.00,0.00,0.00,30.25,M,6.21,M,CLR,M,M,M,M,M,M,M,M,M,M,M,M,M,M,M,KQEJ 201100Z AUTO 00000KT 9999 CLR 09/07 A3025 RMK A02 TSNO
QEI,2020-10-20 11:00,128.0667,37.9500,50.00,44.60,81.61,140.00,1.00,0.00,30.26,M,6.21,M,CLR,M,M,M,M,M,M,M,M,M,M,M,M,M,M,M,KQEI 201100Z AUTO 14001KT 9999 CLR 10/07 A3026 RMK A02 TSNO
QEQ,2020-10-20 11:00,127.5500,37.8500,51.80,44.60,76.34,150.00,1.00,0.00,30.29,M,6.21,M,CLR,M,M,M,M,M,M,M,M,M,M,M,M,M,M,M,KQEQ 201100Z AUTO 15001KT 9999 CLR 11/07 A3029 RMK A02 TSNO
QEW,2020-10-20 11:00,128.1500,36.4000,53.60,42.80,66.70,20.00,3.00,0.00,30.25,M,6.21,M,CLR,M,M,M,M,M,M,M,M,M,M,M,M,M,M,M,KQEW 201100Z AUTO 02003KT 9999 CLR 12/06 A3025 RMK A02 TSNO
QEP,2020-10-20 11:00,127.2667,37.4000,53.60,46.40,76.50,20.00,1.00,0.00,30.27,M,5.59,M,CLR,M,M,M,M,M,M,M,HZ,M,M,M,M,M,M,M,KQEP 201100Z AUTO 02001KT 9000 HZ CLR 12/08 A3027 RMK A02 TSNO
RKPK,2020-10-20 11:00,128.9382,35.1795,64.40,46.40,51.98,30.00,10.00,0.00,30.24,M,6.21,M,M,M,M,M,M,M,M,M,M,M,M,M,M,M,M,M,RKPK 201100Z 03010KT CAVOK 18/08 Q1024
QFT,2020-10-20 11:00,127.3500,37.6000,51.80,44.60,76.34,0.00,0.00,0.00,30.25,M,M,M,CLR,M,M,M,M,M,M,M,,M,M,M,M,M,M,M,KQFT 201100Z AUTO 00000KT / // CLR 11/07 A3025 RMK A02 TSNO
QFU,2020-10-20 11:00,126.9667,37.8000,53.60,41.00,62.23,0.00,0.00,0.00,30.29,M,6.21,M,CLR,M,M,M,M,M,M,M,M,M,M,M,M,M,M,M,KQFU 201100Z AUTO 00000KT 9999 CLR 12/05 A3029 RMK A02 TSNO
QEX,2020-10-20 11:00,128.3000,36.1000,59.00,42.80,54.86,10.00,1.00,0.00,30.18,M,6.21,M,CLR,M,M,M,M,M,M,M,M,M,M,M,M,M,M,M,KQEX 201100Z AUTO 01001KT 9999 CLR 15/06 A3018 RMK A02 TSNO
QFW,2020-10-20 11:00,127.8833,37.6667,51.80,44.60,76.34,100.00,2.00,0.00,30.27,M,6.21,M,CLR,M,M,M,M,M,M,M,M,M,M,M,M,M,M,M,KQFW 201100Z AUTO 10002KT 9999 CLR 11/07 A3027 RMK A02 TSNO
QFV,2020-10-20 11:00,127.5000,38.0500,48.20,41.00,76.01,80.00,1.00,0.00,30.29,M,6.21,M,CLR,M,M,M,M,M,M,M,M,M,M,M,M,M,M,M,KQFV 201100Z AUTO 08001KT 9999 CLR 09/05 A3029 RMK A02 TSNO
RKSI,2020-10-20 11:00,126.4500,37.4667,59.00,48.20,67.33,300.00,3.00,0.00,30.24,M,6.21,M,M,M,M,M,M,M,M,M,M,M,M,M,M,M,M,M,RKSI 201100Z 30003KT CAVOK 15/09 Q1024 NOSIG
RKSM,2020-10-20 11:00,127.1139,37.4458,55.40,44.60,66.91,170.00,2.00,0.00,30.25,M,6.21,M,FEW,M,M,M,20000.00,M,M,M,M,M,M,M,M,M,M,M,RKSM 201100Z 17002KT 9999 FEW200 13/07 A3025
QFB,2020-10-20 11:10,128.7167,35.6500,59.00,48.20,67.33,240.00,1.00,0.00,30.32,M,6.21,M,CLR,M,M,M,M,M,M,M,M,M,M,M,M,M,M,M,KQFB 201110Z AUTO 24001KT 9999 CLR 15/09 A3032 RMK A02 TSNO
QEN,2020-10-20 11:10,128.7500,37.6667,44.60,41.00,87.09,300.00,2.00,0.00,30.29,M,6.21,M,CLR,M,M,M,M,M,M,M,M,M,M,M,M,M,M,M,KQEN 201110Z AUTO 30002KT 9999 CLR 07/05 A3029 RMK A02 TSNO
QES,2020-10-20 11:10,126.4500,36.9667,64.40,50.00,59.50,M,M,0.00,M,M,5.59,M,CLR,M,M,M,M,M,M,M,M,M,M,M,M,M,M,M,KQES 201110Z AUTO 9000 CLR 18/10 / RMK A02 TSNO
QEJ,2020-10-20 11:10,127.9500,38.2000,48.20,44.60,87.28,0.00,0.00,0.00,30.25,M,6.21,M,CLR,M,M,M,M,M,M,M,M,M,M,M,M,M,M,M,KQEJ 201110Z AUTO 00000KT 9999 CLR 09/07 A3025 RMK A02 TSNO
QEI,2020-10-20 11:10,128.0667,37.9500,50.00,44.60,81.61,0.00,0.00,0.00,30.26,M,6.21,M,CLR,M,M,M,M,M,M,M,M,M,M,M,M,M,M,M,KQEI 201110Z AUTO 00000KT 9999 CLR 10/07 A3026 RMK A02 TSNO
QEQ,2020-10-20 11:10,127.5500,37.8500,50.00,44.60,81.61,130.00,2.00,0.00,30.28,M,6.21,M,CLR,M,M,M,M,M,M,M,M,M,M,M,M,M,M,M,KQEQ 201110Z AUTO 13002KT 9999 CLR 10/07 A3028 RMK A02 TSNO
QEW,2020-10-20 11:10,128.1500,36.4000,51.80,42.80,71.26,300.00,1.00,0.00,30.25,M,6.21,M,CLR,M,M,M,M,M,M,M,M,M,M,M,M,M,M,M,KQEW 201110Z AUTO 30001KT 9999 CLR 11/06 A3025 RMK A02 TSNO
QEP,2020-10-20 11:10,127.2667,37.4000,53.60,46.40,76.50,100.00,1.00,0.00,30.28,M,6.21,M,CLR,M,M,M,M,M,M,M,M,M,M,M,M,M,M,M,KQEP 201110Z AUTO 10001KT 9999 CLR 12/08 A3028 RMK A02 TSNO
QFT,2020-10-20 11:10,127.3500,37.6000,51.80,44.60,76.34,170.00,1.00,0.00,30.25,M,M,M,CLR,M,M,M,M,M,M,M,,M,M,M,M,M,M,M,KQFT 201110Z AUTO 17001KT / // CLR 11/07 A3025 RMK A02 TSNO
QFU,2020-10-20 11:10,126.9667,37.8000,53.60,41.00,62.23,90.00,1.00,0.00,30.29,M,6.21,M,CLR,M,M,M,M,M,M,M,M,M,M,M,M,M,M,M,KQFU 201110Z AUTO 09001KT 9999 CLR 12/05 A3029 RMK A02 TSNO
QEX,2020-10-20 11:10,128.3000,36.1000,59.00,44.60,58.77,30.00,1.00,0.00,30.18,M,6.21,M,CLR,M,M,M,M,M,M,M,M,M,M,M,M,M,M,M,KQEX 201110Z AUTO 03001KT 9999 CLR 15/07 A3018 RMK A02 TSNO
QFW,2020-10-20 11:10,127.8833,37.6667,53.60,46.40,76.50,120.00,1.00,0.00,30.27,M,6.21,M,CLR,M,M,M,M,M,M,M,M,M,M,M,M,M,M,M,KQFW 201110Z AUTO 12001KT 9999 CLR 12/08 A3027 RMK A02 TSNO
QFV,2020-10-20 11:10,127.5000,38.0500,48.20,41.00,76.01,310.00,1.00,0.00,30.30,M,6.21,M,CLR,M,M,M,M,M,M,M,M,M,M,M,M,M,M,M,KQFV 201110Z AUTO 31001KT 9999 CLR 09/05 A3030 RMK A02 TSNO
QFB,2020-10-20 11:20,128.7167,35.6500,55.40,48.20,76.66,310.00,3.00,0.00,30.32,M,6.21,M,CLR,M,M,M,M,M,M,M,M,M,M,M,M,M,M,M,KQFB 201120Z AUTO 31003KT 9999 CLR 13/09 A3032 RMK A02 TSNO
QEN,2020-10-20 11:20,128.7500,37.6667,44.60,41.00,87.09,270.00,3.00,0.00,30.29,M,6.21,M,CLR,M,M,M,M,M,M,M,M,M,M,M,M,M,M,43.09,KQEN 201120Z AUTO 27003KT 9999 CLR 07/05 A3029 RMK A02 TSNO
QES,2020-10-20 11:20,126.4500,36.9667,64.40,50.00,59.50,M,M,0.00,M,M,6.21,M,CLR,M,M,M,M,M,M,M,M,M,M,M,M,M,M,M,KQES 201120Z AUTO 9999 CLR 18/10 / RMK A02 TSNO
QEJ,2020-10-20 11:20,127.9500,38.2000,48.20,44.60,87.28,0.00,0.00,0.00,30.25,M,6.21,M,CLR,M,M,M,M,M,M,M,M,M,M,M,M,M,M,M,KQEJ 201120Z AUTO 00000KT 9999 CLR 09/07 A3025 RMK A02 TSNO
QEI,2020-10-20 11:20,128.0667,37.9500,48.20,44.60,87.28,140.00,1.00,0.00,30.26,M,6.21,M,CLR,M,M,M,M,M,M,M,M,M,M,M,M,M,M,M,KQEI 201120Z AUTO 14001KT 9999 CLR 09/07 A3026 RMK A02 TSNO
QEQ,2020-10-20 11:20,127.5500,37.8500,50.00,44.60,81.61,90.00,1.00,0.00,30.28,M,6.21,M,CLR,M,M,M,M,M,M,M,M,M,M,M,M,M,M,M,KQEQ 201120Z AUTO 09001KT 9999 CLR 10/07 A3028 RMK A02 TSNO
QEW,2020-10-20 11:20,128.1500,36.4000,50.00,42.80,76.18,0.00,0.00,0.00,30.25,M,6.21,M,CLR,M,M,M,M,M,M,M,M,M,M,M,M,M,M,M,KQEW 201120Z AUTO 00000KT 9999 CLR 10/06 A3025 RMK A02 TSNO
QEP,2020-10-20 11:20,127.2667,37.4000,51.80,46.40,81.74,0.00,0.00,0.00,30.27,M,5.59,M,CLR,M,M,M,M,M,M,M,HZ,M,M,M,M,M,M,M,KQEP 201120Z AUTO 00000KT 9000 HZ CLR 11/08 A3027 RMK A02 TSNO
QFT,2020-10-20 11:20,127.3500,37.6000,51.80,44.60,76.34,170.00,1.00,0.00,30.25,M,M,M,CLR,M,M,M,M,M,M,M,,M,M,M,M,M,M,M,KQFT 201120Z AUTO 17001KT / // CLR 11/07 A3025 RMK A02 TSNO
QFU,2020-10-20 11:20,126.9667,37.8000,53.60,42.80,66.70,10.00,1.00,0.00,30.29,M,6.21,M,CLR,M,M,M,M,M,M,M,M,M,M,M,M,M,M,M,KQFU 201120Z AUTO 01001KT 9999 CLR 12/06 A3029 RMK A02 TSNO
QEX,2020-10-20 11:20,128.3000,36.1000,59.00,44.60,58.77,350.00,2.00,0.00,30.18,M,6.21,M,CLR,M,M,M,M,M,M,M,M,M,M,M,M,M,M,M,KQEX 201120Z AUTO 35002KT 9999 CLR 15/07 A3018 RMK A02 TSNO
QFW,2020-10-20 11:20,127.8833,37.6667,51.80,46.40,81.74,110.00,1.00,0.00,30.27,M,6.21,M,CLR,M,M,M,M,M,M,M,M,M,M,M,M,M,M,M,KQFW 201120Z AUTO 11001KT 9999 CLR 11/08 A3027 RMK A02 TSNO
QFV,2020-10-20 11:20,127.5000,38.0500,46.40,41.00,81.34,280.00,1.00,0.00,30.30,M,6.21,M,CLR,M,M,M,M,M,M,M,M,M,M,M,M,M,M,M,KQFV 201120Z AUTO 28001KT 9999 CLR 08/05 A3030 RMK A02 TSNO
QFB,2020-10-20 11:30,128.7167,35.6500,53.60,48.20,81.87,290.00,2.00,0.00,30.31,M,6.21,M,CLR,M,M,M,M,M,M,M,M,M,M,M,M,M,M,M,KQFB 201130Z AUTO 29002KT 9999 CLR 12/09 A3031 RMK A02 TSNO
QEN,2020-10-20 11:30,128.7500,37.6667,44.60,41.00,87.09,290.00,2.00,0.00,30.29,M,6.21,M,CLR,M,M,M,M,M,M,M,M,M,M,M,M,M,M,M,KQEN 201130Z AUTO 29002KT 9999 CLR 07/05 A3029 RMK A02 TSNO
QES,2020-10-20 11:30,126.4500,36.9667,64.40,50.00,59.50,M,M,0.00,M,M,6.21,M,CLR,M,M,M,M,M,M,M,M,M,M,M,M,M,M,M,KQES 201130Z AUTO 9999 CLR 18/10 / RMK A02 TSNO
QEJ,2020-10-20 11:30,127.9500,38.2000,48.20,44.60,87.28,0.00,0.00,0.00,30.25,M,6.21,M,CLR,M,M,M,M,M,M,M,M,M,M,M,M,M,M,M,KQEJ 201130Z AUTO 00000KT 9999 CLR 09/07 A3025 RMK A02 TSNO
QEI,2020-10-20 11:30,128.0667,37.9500,48.20,44.60,87.28,120.00,1.00,0.00,30.26,M,6.21,M,CLR,M,M,M,M,M,M,M,M,M,M,M,M,M,M,M,KQEI 201130Z AUTO 12001KT 9999 CLR 09/07 A3026 RMK A02 TSNO
QEQ,2020-10-20 11:30,127.5500,37.8500,50.00,44.60,81.61,130.00,2.00,0.00,30.28,M,6.21,M,CLR,M,M,M,M,M,M,M,M,M,M,M,M,M,M,M,KQEQ 201130Z AUTO 13002KT 9999 CLR 10/07 A3028 RMK A02 TSNO
QEW,2020-10-20 11:30,128.1500,36.4000,50.00,42.80,76.18,20.00,2.00,0.00,30.25,M,6.21,M,CLR,M,M,M,M,M,M,M,M,M,M,M,M,M,M,M,KQEW 201130Z AUTO 02002KT 9999 CLR 10/06 A3025 RMK A02 TSNO
QEP,2020-10-20 11:30,127.2667,37.4000,51.80,46.40,81.74,110.00,1.00,0.00,30.28,M,4.97,M,CLR,M,M,M,M,M,M,M,HZ,M,M,M,M,M,M,M,KQEP 201130Z AUTO 11001KT 8000 HZ CLR 11/08 A3028 RMK A02 TSNO
QFT,2020-10-20 11:30,127.3500,37.6000,51.80,44.60,76.34,0.00,0.00,0.00,30.25,M,M,M,CLR,M,M,M,M,M,M,M,,M,M,M,M,M,M,M,KQFT 201130Z AUTO 00000KT / // CLR 11/07 A3025 RMK A02 TSNO
QFU,2020-10-20 11:30,126.9667,37.8000,51.80,41.00,66.48,0.00,0.00,0.00,30.29,M,6.21,M,CLR,M,M,M,M,M,M,M,M,M,M,M,M,M,M,M,KQFU 201130Z AUTO 00000KT 9999 CLR 11/05 A3029 RMK A02 TSNO
QEX,2020-10-20 11:30,128.3000,36.1000,59.00,44.60,58.77,330.00,1.00,0.00,30.18,M,6.21,M,CLR,M,M,M,M,M,M,M,M,M,M,M,M,M,M,M,KQEX 201130Z AUTO 33001KT 9999 CLR 15/07 A3018 RMK A02 TSNO
QFW,2020-10-20 11:30,127.8833,37.6667,51.80,46.40,81.74,130.00,1.00,0.00,30.28,M,6.21,M,CLR,M,M,M,M,M,M,M,M,M,M,M,M,M,M,M,KQFW 201130Z AUTO 13001KT 9999 CLR 11/08 A3028 RMK A02 TSNO
QFV,2020-10-20 11:30,127.5000,38.0500,46.40,41.00,81.34,110.00,1.00,0.00,30.30,M,6.21,M,CLR,M,M,M,M,M,M,M,M,M,M,M,M,M,M,M,KQFV 201130Z AUTO 11001KT 9999 CLR 08/05 A3030 RMK A02 TSNO
RKSI,2020-10-20 11:30,126.4500,37.4667,57.20,48.20,71.83,310.00,4.00,0.00,30.24,M,6.21,M,M,M,M,M,M,M,M,M,M,M,M,M,M,M,M,M,RKSI 201130Z 31004KT CAVOK 14/09 Q1024 NOSIG
QFB,2020-10-20 11:40,128.7167,35.6500,55.40,48.20,76.66,60.00,1.00,0.00,30.31,M,6.21,M,CLR,M,M,M,M,M,M,M,M,M,M,M,M,M,M,M,KQFB 201140Z AUTO 06001KT 9999 CLR 13/09 A3031 RMK A02 TSNO
QEN,2020-10-20 11:40,128.7500,37.6667,44.60,44.60,100.00,260.00,3.00,0.00,30.29,M,6.21,M,CLR,M,M,M,M,M,M,M,M,M,M,M,M,M,M,43.09,KQEN 201140Z AUTO 26003KT 9999 CLR 07/07 A3029 RMK A02 TSNO
QES,2020-10-20 11:40,126.4500,36.9667,64.40,50.00,59.50,M,M,0.00,M,M,5.59,M,CLR,M,M,M,M,M,M,M,M,M,M,M,M,M,M,M,KQES 201140Z AUTO 9000 CLR 18/10 / RMK A02 TSNO
QEJ,2020-10-20 11:40,127.9500,38.2000,48.20,44.60,87.28,100.00,1.00,0.00,30.25,M,6.21,M,CLR,M,M,M,M,M,M,M,M,M,M,M,M,M,M,M,KQEJ 201140Z AUTO 10001KT 9999 CLR 09/07 A3025 RMK A02 TSNO
QEI,2020-10-20 11:40,128.0667,37.9500,48.20,42.80,81.47,150.00,1.00,0.00,30.26,M,6.21,M,CLR,M,M,M,M,M,M,M,M,M,M,M,M,M,M,M,KQEI 201140Z AUTO 15001KT 9999 CLR 09/06 A3026 RMK A02 TSNO
QEQ,2020-10-20 11:40,127.5500,37.8500,50.00,44.60,81.61,120.00,1.00,0.00,30.28,M,6.21,M,CLR,M,M,M,M,M,M,M,M,M,M,M,M,M,M,M,KQEQ 201140Z AUTO 12001KT 9999 CLR 10/07 A3028 RMK A02 TSNO
QEW,2020-10-20 11:40,128.1500,36.4000,50.00,42.80,76.18,280.00,1.00,0.00,30.25,M,6.21,M,CLR,M,M,M,M,M,M,M,M,M,M,M,M,M,M,M,KQEW 201140Z AUTO 28001KT 9999 CLR 10/06 A3025 RMK A02 TSNO
QEP,2020-10-20 11:40,127.2667,37.4000,51.80,46.40,81.74,90.00,1.00,0.00,30.27,M,6.21,M,CLR,M,M,M,M,M,M,M,M,M,M,M,M,M,M,M,KQEP 201140Z AUTO 09001KT 9999 CLR 11/08 A3027 RMK A02 TSNO
QFT,2020-10-20 11:40,127.3500,37.6000,51.80,46.40,81.74,30.00,1.00,0.00,30.25,M,M,M,CLR,M,M,M,M,M,M,M,,M,M,M,M,M,M,M,KQFT 201140Z AUTO 03001KT / // CLR 11/08 A3025 RMK A02 TSNO
QFU,2020-10-20 11:40,126.9667,37.8000,51.80,41.00,66.48,0.00,0.00,0.00,30.29,M,5.59,M,CLR,M,M,M,M,M,M,M,HZ,M,M,M,M,M,M,M,KQFU 201140Z AUTO 00000KT 9000 HZ CLR 11/05 A3029 RMK A02 TSNO
QEX,2020-10-20 11:40,128.3000,36.1000,57.20,46.40,67.12,40.00,2.00,0.00,30.18,M,6.21,M,CLR,M,M,M,M,M,M,M,M,M,M,M,M,M,M,M,KQEX 201140Z AUTO 04002KT 9999 CLR 14/08 A3018 RMK A02 TSNO
QFW,2020-10-20 11:40,127.8833,37.6667,51.80,46.40,81.74,110.00,1.00,0.00,30.28,M,6.21,M,CLR,M,M,M,M,M,M,M,M,M,M,M,M,M,M,M,KQFW 201140Z AUTO 11001KT 9999 CLR 11/08 A3028 RMK A02 TSNO
QFV,2020-10-20 11:40,127.5000,38.0500,46.40,42.80,87.19,60.00,1.00,0.00,30.30,M,6.21,M,CLR,M,M,M,M,M,M,M,M,M,M,M,M,M,M,M,KQFV 201140Z AUTO 06001KT 9999 CLR 08/06 A3030 RMK A02 TSNO
RKSO,2020-10-20 11:48,127.0296,37.0906,51.80,48.20,87.47,90.00,5.00,0.00,30.22,1023.70,5.00,M,CLR,M,M,M,M,M,M,M,HZ,M,M,M,M,M,M,M,RKSO 201148Z 09005KT 5SM HZ CLR 11/09 A3022 RMK AO2A SLP237
QFB,2020-10-20 11:50,128.7167,35.6500,55.40,46.40,71.64,320.00,1.00,0.00,30.31,M,6.21,M,CLR,M,M,M,M,M,M,M,M,M,M,M,M,M,M,M,KQFB 201150Z AUTO 32001KT 9999 CLR 13/08 A3031 RMK A02 TSNO
QEN,2020-10-20 11:50,128.7500,37.6667,42.80,42.80,100.00,240.00,3.00,0.00,30.29,M,6.21,M,CLR,M,M,M,M,M,M,M,M,M,M,M,M,M,M,41.03,KQEN 201150Z AUTO 24003KT 9999 CLR 06/06 A3029 RMK A02 TSNO
QES,2020-10-20 11:50,126.4500,36.9667,64.40,50.00,59.50,M,M,0.00,M,M,5.59,M,CLR,M,M,M,M,M,M,M,M,M,M,M,M,M,M,M,KQES 201150Z AUTO 9000 CLR 18/10 / RMK A02 TSNO
QEJ,2020-10-20 11:50,127.9500,38.2000,48.20,44.60,87.28,320.00,1.00,0.00,30.25,M,6.21,M,CLR,M,M,M,M,M,M,M,M,M,M,M,M,M,M,M,KQEJ 201150Z AUTO 32001KT 9999 CLR 09/07 A3025 RMK A02 TSNO
QEI,2020-10-20 11:50,128.0667,37.9500,48.20,42.80,81.47,130.00,1.00,0.00,30.26,M,6.21,M,CLR,M,M,M,M,M,M,M,M,M,M,M,M,M,M,M,KQEI 201150Z AUTO 13001KT 9999 CLR 09/06 A3026 RMK A02 TSNO
QEQ,2020-10-20 11:50,127.5500,37.8500,48.20,44.60,87.28,160.00,2.00,0.00,30.28,M,6.21,M,CLR,M,M,M,M,M,M,M,M,M,M,M,M,M,M,M,KQEQ 201150Z AUTO 16002KT 9999 CLR 09/07 A3028 RMK A02 TSNO
QEW,2020-10-20 11:50,128.1500,36.4000,50.00,42.80,76.18,260.00,2.00,0.00,30.25,M,6.21,M,CLR,M,M,M,M,M,M,M,M,M,M,M,M,M,M,M,KQEW 201150Z AUTO 26002KT 9999 CLR 10/06 A3025 RMK A02 TSNO
QEP,2020-10-20 11:50,127.2667,37.4000,51.80,46.40,81.74,190.00,1.00,0.00,30.27,M,6.21,M,CLR,M,M,M,M,M,M,M,M,M,M,M,M,M,M,M,KQEP 201150Z AUTO 19001KT 9999 CLR 11/08 A3027 RMK A02 TSNO
QFT,2020-10-20 11:50,127.3500,37.6000,51.80,44.60,76.34,0.00,0.00,0.00,30.25,M,M,M,CLR,M,M,M,M,M,M,M,,M,M,M,M,M,M,M,KQFT 201150Z AUTO 00000KT / // CLR 11/07 A3025 RMK A02 TSNO
QFU,2020-10-20 11:50,126.9667,37.8000,51.80,41.00,66.48,150.00,1.00,0.00,30.29,M,5.59,M,CLR,M,M,M,M,M,M,M,HZ,M,M,M,M,M,M,M,KQFU 201150Z AUTO 15001KT 9000 HZ CLR 11/05 A3029 RMK A02 TSNO
QEX,2020-10-20 11:50,128.3000,36.1000,57.20,46.40,67.12,20.00,1.00,0.00,30.18,M,6.21,M,CLR,M,M,M,M,M,M,M,M,M,M,M,M,M,M,M,KQEX 201150Z AUTO 02001KT 9999 CLR 14/08 A3018 RMK A02 TSNO
QFW,2020-10-20 11:50,127.8833,37.6667,51.80,46.40,81.74,110.00,1.00,0.00,30.28,M,6.21,M,CLR,M,M,M,M,M,M,M,M,M,M,M,M,M,M,M,KQFW 201150Z AUTO 11001KT 9999 CLR 11/08 A3028 RMK A02 TSNO
QFV,2020-10-20 11:50,127.5000,38.0500,46.40,41.00,81.34,310.00,1.00,0.00,30.30,M,6.21,M,CLR,M,M,M,M,M,M,M,M,M,M,M,M,M,M,M,KQFV 201150Z AUTO 31001KT 9999 CLR 08/05 A3030 RMK A02 TSNO
RKJK,2020-10-20 11:56,126.6220,35.8994,56.30,53.80,91.30,0.00,0.00,0.00,30.20,1023.10,4.00,M,CLR,M,M,M,M,M,M,M,BR,M,M,M,M,M,M,M,RKJK 201156Z AUTO 00000KT 4SM BR CLR 14/12 A3020 RMK AO2 SLP231 T01350121 10214 20135 58003 $
RKSG,2020-10-20 11:56,127.0311,36.9622,57.40,49.10,73.76,0.00,0.00,0.00,30.23,1024.00,2.50,M,CLR,M,M,M,M,M,M,M,HZ,M,M,M,M,M,M,M,RKSG 201156Z 00000KT 2 1/2SM HZ CLR 14/10 A3023 RMK AO2A SLP240 T01410095 10211 20126 50007 $
RKSO,2020-10-20 11:58,127.0296,37.0906,51.10,47.80,88.42,80.00,6.00,0.00,30.22,1023.70,5.00,M,M,M,M,M,M,M,M,M,HZ,M,M,M,M,M,M,M,RKSO 201158Z 08006KT 5SM HZ 11/09 A3022 RMK AO2A SLP237 T01060088 10219 20101 50008 $
RKSY,2020-10-20 11:58,126.9753,37.5241,52.50,47.10,81.79,0.00,0.00,0.00,30.23,1024.00,6.21,M,CLR,M,M,M,M,M,M,M,M,M,M,M,M,M,M,M,RKSY 201158Z AUTO 00000KT 9999 CLR 11/08 A3023 RMK AO2 SLP240 T01140084 10214 20111 50011 $
QEQ,2020-10-20 12:00,127.5500,37.8500,48.20,44.60,87.28,150.00,3.00,0.00,30.28,M,6.21,M,CLR,M,M,M,M,M,M,M,M,M,M,M,M,M,M,47.21,KQEQ 201200Z AUTO 15003KT 9999 CLR 09/07 A3028 RMK A02 TSNO
QEW,2020-10-20 12:00,128.1500,36.4000,50.00,42.80,76.18,190.00,1.00,0.00,30.25,M,6.21,M,CLR,M,M,M,M,M,M,M,M,M,M,M,M,M,M,M,KQEW 201200Z AUTO 19001KT 9999 CLR 10/06 A3025 RMK A02 TSNO
QEP,2020-10-20 12:00,127.2667,37.4000,51.80,46.40,81.74,40.00,1.00,0.00,30.27,M,5.59,M,CLR,M,M,M,M,M,M,M,HZ,M,M,M,M,M,M,M,KQEP 201200Z AUTO 04001KT 9000 HZ CLR 11/08 A3027 RMK A02 TSNO
QEN,2020-10-20 12:00,128.7500,37.6667,42.80,44.60,M,260.00,4.00,0.00,30.29,M,6.21,M,CLR,M,M,M,M,M,M,M,M,M,M,M,M,M,M,M,KQEN 201200Z AUTO 26004KT 9999 CLR 06/07 A3029 RMK A02 TSNO
QES,2020-10-20 12:00,126.4500,36.9667,64.40,50.00,59.50,M,M,0.00,M,M,5.59,M,CLR,M,M,M,M,M,M,M,M,M,M,M,M,M,M,M,KQES 201200Z AUTO 9000 CLR 18/10 / RMK A02 TSNO
QEJ,2020-10-20 12:00,127.9500,38.2000,46.40,42.80,87.19,180.00,2.00,0.00,30.25,M,6.21,M,CLR,M,M,M,M,M,M,M,M,M,M,M,M,M,M,M,KQEJ 201200Z AUTO 18002KT 9999 CLR 08/06 A3025 RMK A02 TSNO
QEI,2020-10-20 12:00,128.0667,37.9500,48.20,44.60,87.28,110.00,1.00,0.00,30.27,M,6.21,M,CLR,M,M,M,M,M,M,M,M,M,M,M,M,M,M,M,KQEI 201200Z AUTO 11001KT 9999 CLR 09/07 A3027 RMK A02 TSNO
RKJB,2020-10-20 12:00,126.3800,34.9800,57.20,51.80,82.12,290.00,1.00,0.00,30.24,M,1.55,M,NSC,M,M,M,M,M,M,M,BR,M,M,M,M,M,M,M,RKJB 201200Z 29001KT 2500 BR NSC 14/11 Q1024 NOSIG
RKPC,2020-10-20 12:00,126.4930,33.5113,64.40,55.40,72.56,110.00,7.00,0.00,30.21,M,6.21,M,FEW,M,M,M,3000.00,M,M,M,M,M,M,M,M,M,M,M,RKPC 201200Z 11007KT 9999 FEW030 18/13 Q1023 NOSIG
RKNY,2020-10-20 12:00,128.6692,38.0613,53.60,44.60,71.45,240.00,5.00,0.00,30.24,M,6.21,M,NCD,M,M,M,M,M,M,M,M,M,M,M,M,M,M,M,RKNY 201200Z AUTO 24005KT 9999 NCD 12/07 Q1024
QFB,2020-10-20 12:00,128.7167,35.6500,55.40,46.40,71.64,10.00,1.00,0.00,30.31,M,6.21,M,CLR,M,M,M,M,M,M,M,M,M,M,M,M,M,M,M,KQFB 201200Z AUTO 01001KT 9999 CLR 13/08 A3031 RMK A02 TSNO
RKSS,2020-10-20 12:00,126.7906,37.5583,53.60,51.80,93.60,340.00,3.00,0.00,30.24,M,3.73,M,NSC,M,M,M,M,M,M,M,M,M,M,M,M,M,M,M,RKSS 201200Z 34003KT 6000 NSC 12/11 Q1024 NOSIG
RKTN,2020-10-20 12:00,128.6589,35.8941,60.80,46.40,59.01,150.00,2.00,0.00,30.27,M,6.21,M,M,M,M,M,M,M,M,M,M,M,M,M,M,M,M,M,RKTN 201200Z 15002KT CAVOK 16/08 Q1025
RKTU,2020-10-20 12:00,127.4991,36.7166,48.20,46.40,93.45,60.00,2.00,0.00,30.24,M,5.59,M,NSC,M,M,M,M,M,M,M,M,M,M,M,M,M,M,M,RKTU 201200Z 06002KT 9000 NSC 09/08 Q1024
RKPK,2020-10-20 12:00,128.9382,35.1795,62.60,46.40,55.37,20.00,9.00,0.00,30.24,M,6.21,M,M,M,M,M,M,M,M,M,M,M,M,M,M,M,M,M,RKPK 201200Z 02009KT CAVOK 17/08 Q1024
QFT,2020-10-20 12:00,127.3500,37.6000,50.00,44.60,81.61,140.00,1.00,0.00,30.25,M,M,M,CLR,M,M,M,M,M,M,M,,M,M,M,M,M,M,M,KQFT 201200Z AUTO 14001KT / // CLR 10/07 A3025 RMK A02 TSNO
QFU,2020-10-20 12:00,126.9667,37.8000,50.00,41.00,71.07,0.00,0.00,0.00,30.29,M,5.59,M,CLR,M,M,M,M,M,M,M,HZ,M,M,M,M,M,M,M,KQFU 201200Z AUTO 00000KT 9000 HZ CLR 10/05 A3029 RMK A02 TSNO
QEX,2020-10-20 12:00,128.3000,36.1000,57.20,46.40,67.12,20.00,1.00,0.00,30.18,M,6.21,M,CLR,M,M,M,M,M,M,M,M,M,M,M,M,M,M,M,KQEX 201200Z AUTO 02001KT 9999 CLR 14/08 A3018 RMK A02 TSNO
QFW,2020-10-20 12:00,127.8833,37.6667,50.00,46.40,87.37,20.00,1.00,0.00,30.28,M,6.21,M,CLR,M,M,M,M,M,M,M,M,M,M,M,M,M,M,M,KQFW 201200Z AUTO 02001KT 9999 CLR 10/08 A3028 RMK A02 TSNO
QFV,2020-10-20 12:00,127.5000,38.0500,46.40,41.00,81.34,220.00,1.00,0.00,30.30,M,6.21,M,CLR,M,M,M,M,M,M,M,M,M,M,M,M,M,M,M,KQFV 201200Z AUTO 22001KT 9999 CLR 08/05 A3030 RMK A02 TSNO
RKSI,2020-10-20 12:00,126.4500,37.4667,55.40,50.00,81.99,360.00,2.00,0.00,30.24,M,6.21,M,M,M,M,M,M,M,M,M,M,M,M,M,M,M,M,M,RKSI 201200Z 36002KT CAVOK 13/10 Q1024 NOSIG
RKSM,2020-10-20 12:00,127.1139,37.4458,53.60,44.60,71.45,170.00,3.00,0.00,30.25,M,6.21,M,FEW,M,M,M,20000.00,M,M,M,M,M,M,M,M,M,M,M,RKSM 201200Z 17003KT 9999 FEW200 12/07 A3025
QEI,2020-10-20 12:10,128.0667,37.9500,48.20,42.80,81.47,110.00,1.00,0.00,30.27,M,6.21,M,CLR,M,M,M,M,M,M,M,M,M,M,M,M,M,M,M,KQEI 201210Z AUTO 11001KT 9999 CLR 09/06 A3027 RMK A02 TSNO
QEQ,2020-10-20 12:10,127.5500,37.8500,48.20,44.60,87.28,150.00,1.00,0.00,30.29,M,6.21,M,CLR,M,M,M,M,M,M,M,M,M,M,M,M,M,M,M,KQEQ 201210Z AUTO 15001KT 9999 CLR 09/07 A3029 RMK A02 TSNO
QEW,2020-10-20 12:10,128.1500,36.4000,50.00,42.80,76.18,110.00,2.00,0.00,30.25,M,6.21,M,CLR,M,M,M,M,M,M,M,M,M,M,M,M,M,M,M,KQEW 201210Z AUTO 11002KT 9999 CLR 10/06 A3025 RMK A02 TSNO
QEP,2020-10-20 12:10,127.2667,37.4000,51.80,46.40,81.74,30.00,1.00,0.00,30.27,M,4.97,M,CLR,M,M,M,M,M,M,M,HZ,M,M,M,M,M,M,M,KQEP 201210Z AUTO 03001KT 8000 HZ CLR 11/08 A3027 RMK A02 TSNO
QEN,2020-10-20 12:10,128.7500,37.6667,44.60,44.60,100.00,260.00,5.00,0.00,30.29,M,6.21,M,CLR,M,M,M,M,M,M,M,M,M,M,M,M,M,M,41.36,KQEN 201210Z AUTO 26005KT 9999 CLR 07/07 A3029 RMK A02 TSNO
QES,2020-10-20 12:10,126.4500,36.9667,64.40,50.00,59.50,M,M,0.00,M,M,6.21,M,CLR,M,M,M,M,M,M,M,M,M,M,M,M,M,M,M,KQES 201210Z AUTO 9999 CLR 18/10 / RMK A02 TSNO
QEJ,2020-10-20 12:10,127.9500,38.2000,46.40,42.80,87.19,180.00,1.00,0.00,30.26,M,6.21,M,CLR,M,M,M,M,M,M,M,M,M,M,M,M,M,M,M,KQEJ 201210Z AUTO 18001KT 9999 CLR 08/06 A3026 RMK A02 TSNO
QFB,2020-10-20 12:10,128.7167,35.6500,53.60,46.40,76.50,300.00,3.00,0.00,30.31,M,6.21,M,CLR,M,M,M,M,M,M,M,M,M,M,M,M,M,M,M,KQFB 201210Z AUTO 30003KT 9999 CLR 12/08 A3031 RMK A02 TSNO
QFT,2020-10-20 12:10,127.3500,37.6000,50.00,44.60,81.61,0.00,0.00,0.00,30.24,M,M,M,CLR,M,M,M,M,M,M,M,,M,M,M,M,M,M,M,KQFT 201210Z AUTO 00000KT / // CLR 10/07 A3024 RMK A02 TSNO
QFU,2020-10-20 12:10,126.9667,37.8000,50.00,41.00,71.07,180.00,1.00,0.00,30.29,M,5.59,M,CLR,M,M,M,M,M,M,M,HZ,M,M,M,M,M,M,M,KQFU 201210Z AUTO 18001KT 9000 HZ CLR 10/05 A3029 RMK A02 TSNO
QEX,2020-10-20 12:10,128.3000,36.1000,57.20,46.40,67.12,10.00,2.00,0.00,30.18,M,6.21,M,CLR,M,M,M,M,M,M,M,M,M,M,M,M,M,M,M,KQEX 201210Z AUTO 01002KT 9999 CLR 14/08 A3018 RMK A02 TSNO
QFW,2020-10-20 12:10,127.8833,37.6667,50.00,46.40,87.37,20.00,1.00,0.00,30.28,M,6.21,M,CLR,M,M,M,M,M,M,M,M,M,M,M,M,M,M,M,KQFW 201210Z AUTO 02001KT 9999 CLR 10/08 A3028 RMK A02 TSNO
QFV,2020-10-20 12:10,127.5000,38.0500,44.60,41.00,87.09,100.00,2.00,0.00,30.30,M,6.21,M,CLR,M,M,M,M,M,M,M,M,M,M,M,M,M,M,M,KQFV 201210Z AUTO 10002KT 9999 CLR 07/05 A3030 RMK A02 TSNO
QFB,2020-10-20 12:20,128.7167,35.6500,53.60,46.40,76.50,280.00,1.00,0.00,30.31,M,6.21,M,CLR,M,M,M,M,M,M,M,M,M,M,M,M,M,M,M,KQFB 201220Z AUTO 28001KT 9999 CLR 12/08 A3031 RMK A02 TSNO
QEN,2020-10-20 12:20,128.7500,37.6667,42.80,44.60,M,260.00,5.00,0.00,30.29,M,6.21,M,CLR,M,M,M,M,M,M,M,M,M,M,M,M,M,M,M,KQEN 201220Z AUTO 26005KT 9999 CLR 06/07 A3029 RMK A02 TSNO
QES,2020-10-20 12:20,126.4500,36.9667,64.40,50.00,59.50,M,M,0.00,M,M,6.21,M,CLR,M,M,M,M,M,M,M,M,M,M,M,M,M,M,M,KQES 201220Z AUTO 9999 CLR 18/10 / RMK A02 TSNO
QEJ,2020-10-20 12:20,127.9500,38.2000,46.40,42.80,87.19,0.00,0.00,0.00,30.26,M,6.21,M,CLR,M,M,M,M,M,M,M,M,M,M,M,M,M,M,M,KQEJ 201220Z AUTO 00000KT 9999 CLR 08/06 A3026 RMK A02 TSNO
QEI,2020-10-20 12:20,128.0667,37.9500,48.20,42.80,81.47,160.00,1.00,0.00,30.27,M,5.59,M,CLR,M,M,M,M,M,M,M,HZ,M,M,M,M,M,M,M,KQEI 201220Z AUTO 16001KT 9000 HZ CLR 09/06 A3027 RMK A02 TSNO
QEQ,2020-10-20 12:20,127.5500,37.8500,50.00,44.60,81.61,130.00,2.00,0.00,30.28,M,6.21,M,CLR,M,M,M,M,M,M,M,M,M,M,M,M,M,M,M,KQEQ 201220Z AUTO 13002KT 9999 CLR 10/07 A3028 RMK A02 TSNO
QEW,2020-10-20 12:20,128.1500,36.4000,50.00,42.80,76.18,300.00,1.00,0.00,30.25,M,6.21,M,CLR,M,M,M,M,M,M,M,M,M,M,M,M,M,M,M,KQEW 201220Z AUTO 30001KT 9999 CLR 10/06 A3025 RMK A02 TSNO
QEP,2020-10-20 12:20,127.2667,37.4000,50.00,46.40,87.37,0.00,0.00,0.00,30.27,M,4.97,M,CLR,M,M,M,M,M,M,M,HZ,M,M,M,M,M,M,M,KQEP 201220Z AUTO 00000KT 8000 HZ CLR 10/08 A3027 RMK A02 TSNO
QFT,2020-10-20 12:20,127.3500,37.6000,50.00,46.40,87.37,30.00,1.00,0.00,30.24,M,M,M,CLR,M,M,M,M,M,M,M,,M,M,M,M,M,M,M,KQFT 201220Z AUTO 03001KT / // CLR 10/08 A3024 RMK A02 TSNO
QFU,2020-10-20 12:20,126.9667,37.8000,50.00,41.00,71.07,0.00,0.00,0.00,30.29,M,5.59,M,CLR,M,M,M,M,M,M,M,HZ,M,M,M,M,M,M,M,KQFU 201220Z AUTO 00000KT 9000 HZ CLR 10/05 A3029 RMK A02 TSNO
QEX,2020-10-20 12:20,128.3000,36.1000,57.20,46.40,67.12,360.00,2.00,0.00,30.18,M,6.21,M,CLR,M,M,M,M,M,M,M,M,M,M,M,M,M,M,M,KQEX 201220Z AUTO 36002KT 9999 CLR 14/08 A3018 RMK A02 TSNO
QFW,2020-10-20 12:20,127.8833,37.6667,50.00,46.40,87.37,100.00,2.00,0.00,30.28,M,6.21,M,CLR,M,M,M,M,M,M,M,M,M,M,M,M,M,M,M,KQFW 201220Z AUTO 10002KT 9999 CLR 10/08 A3028 RMK A02 TSNO
QFV,2020-10-20 12:20,127.5000,38.0500,44.60,41.00,87.09,60.00,1.00,0.00,30.30,M,3.73,M,CLR,M,M,M,M,M,M,M,,M,M,M,M,M,M,M,KQFV 201220Z AUTO 06001KT 6000 // CLR 07/05 A3030 RMK A02 TSNO
RKJK,2020-10-20 12:26,126.6220,35.8994,55.40,55.40,100.00,310.00,3.00,0.00,30.21,1023.50,2.50,M,CLR,M,M,M,M,M,M,M,BR,M,M,M,M,M,M,M,RKJK 201226Z AUTO 31003KT 2 1/2SM BR CLR 13/13 A3021 RMK AO2 VIS 2 RWY18 SLP235 $
QEN,2020-10-20 12:30,128.7500,37.6667,41.00,44.60,M,240.00,4.00,0.00,30.29,M,6.21,M,CLR,M,M,M,M,M,M,M,M,M,M,M,M,M,M,M,KQEN 201230Z AUTO 24004KT 9999 CLR 05/07 A3029 RMK A02 TSNO
QES,2020-10-20 12:30,126.4500,36.9667,64.40,50.00,59.50,M,M,0.00,M,M,4.97,M,CLR,M,M,M,M,M,M,M,M,M,M,M,M,M,M,M,KQES 201230Z AUTO 8000 CLR 18/10 / RMK A02 TSNO
QEJ,2020-10-20 12:30,127.9500,38.2000,46.40,42.80,87.19,110.00,1.00,0.00,30.26,M,6.21,M,CLR,M,M,M,M,M,M,M,M,M,M,M,M,M,M,M,KQEJ 201230Z AUTO 11001KT 9999 CLR 08/06 A3026 RMK A02 TSNO
QEI,2020-10-20 12:30,128.0667,37.9500,46.40,42.80,87.19,0.00,0.00,0.00,30.27,M,6.21,M,CLR,M,M,M,M,M,M,M,M,M,M,M,M,M,M,M,KQEI 201230Z AUTO 00000KT 9999 CLR 08/06 A3027 RMK A02 TSNO
QEQ,2020-10-20 12:30,127.5500,37.8500,48.20,44.60,87.28,150.00,2.00,0.00,30.28,M,6.21,M,CLR,M,M,M,M,M,M,M,M,M,M,M,M,M,M,M,KQEQ 201230Z AUTO 15002KT 9999 CLR 09/07 A3028 RMK A02 TSNO
QEW,2020-10-20 12:30,128.1500,36.4000,48.20,42.80,81.47,220.00,1.00,0.00,30.26,M,6.21,M,CLR,M,M,M,M,M,M,M,M,M,M,M,M,M,M,M,KQEW 201230Z AUTO 22001KT 9999 CLR 09/06 A3026 RMK A02 TSNO
QEP,2020-10-20 12:30,127.2667,37.4000,50.00,44.60,81.61,230.00,1.00,0.00,30.27,M,4.97,M,CLR,M,M,M,M,M,M,M,HZ,M,M,M,M,M,M,M,KQEP 201230Z AUTO 23001KT 8000 HZ CLR 10/07 A3027 RMK A02 TSNO
QFT,2020-10-20 12:30,127.3500,37.6000,50.00,44.60,81.61,170.00,1.00,0.00,30.25,M,M,M,CLR,M,M,M,M,M,M,M,,M,M,M,M,M,M,M,KQFT 201230Z AUTO 17001KT / // CLR 10/07 A3025 RMK A02 TSNO
QFU,2020-10-20 12:30,126.9667,37.8000,50.00,41.00,71.07,20.00,1.00,0.00,30.29,M,5.59,M,CLR,M,M,M,M,M,M,M,HZ,M,M,M,M,M,M,M,KQFU 201230Z AUTO 02001KT 9000 HZ CLR 10/05 A3029 RMK A02 TSNO
QEX,2020-10-20 12:30,128.3000,36.1000,55.40,46.40,71.64,340.00,1.00,0.00,30.18,M,6.21,M,CLR,M,M,M,M,M,M,M,M,M,M,M,M,M,M,M,KQEX 201230Z AUTO 34001KT 9999 CLR 13/08 A3018 RMK A02 TSNO
QFW,2020-10-20 12:30,127.8833,37.6667,50.00,46.40,87.37,130.00,1.00,0.00,30.28,M,6.21,M,CLR,M,M,M,M,M,M,M,M,M,M,M,M,M,M,M,KQFW 201230Z AUTO 13001KT 9999 CLR 10/08 A3028 RMK A02 TSNO
QFV,2020-10-20 12:30,127.5000,38.0500,44.60,41.00,87.09,130.00,1.00,0.00,30.30,M,6.21,M,CLR,M,M,M,M,M,M,M,M,M,M,M,M,M,M,M,KQFV 201230Z AUTO 13001KT 9999 CLR 07/05 A3030 RMK A02 TSNO
RKSI,2020-10-20 12:30,126.4500,37.4667,57.20,51.80,82.12,350.00,2.00,0.00,30.24,M,6.21,M,M,M,M,M,M,M,M,M,M,M,M,M,M,M,M,M,RKSI 201230Z 35002KT CAVOK 14/11 Q1024 NOSIG
QFB,2020-10-20 12:30,128.7167,35.6500,53.60,46.40,76.50,290.00,3.00,0.00,30.32,M,6.21,M,CLR,M,M,M,M,M,M,M,M,M,M,M,M,M,M,M,KQFB 201230Z AUTO 29003KT 9999 CLR 12/08 A3032 RMK A02 TSNO
QEN,2020-10-20 12:40,128.7500,37.6667,41.00,44.60,M,250.00,4.00,0.00,M,M,6.21,M,CLR,M,M,M,M,M,M,M,M,M,M,M,M,M,M,M,KQEN 201240Z AUTO 25004KT 9999 CLR 05/07 / RMK A02 TSNO
QES,2020-10-20 12:40,126.4500,36.9667,64.40,50.00,59.50,M,M,0.00,M,M,3.73,M,CLR,M,M,M,M,M,M,M,M,M,M,M,M,M,M,M,KQES 201240Z AUTO 6000 CLR 18/10 / RMK A02 TSNO
QEJ,2020-10-20 12:40,127.9500,38.2000,44.60,42.80,93.35,80.00,1.00,0.00,30.26,M,6.21,M,CLR,M,M,M,M,M,M,M,M,M,M,M,M,M,M,M,KQEJ 201240Z AUTO 08001KT 9999 CLR 07/06 A3026 RMK A02 TSNO
QEI,2020-10-20 12:40,128.0667,37.9500,46.40,42.80,87.19,0.00,0.00,0.00,30.27,M,6.21,M,CLR,M,M,M,M,M,M,M,M,M,M,M,M,M,M,M,KQEI 201240Z AUTO 00000KT 9999 CLR 08/06 A3027 RMK A02 TSNO
QEQ,2020-10-20 12:40,127.5500,37.8500,48.20,44.60,87.28,60.00,1.00,0.00,30.27,M,6.21,M,CLR,M,M,M,M,M,M,M,M,M,M,M,M,M,M,M,KQEQ 201240Z AUTO 06001KT 9999 CLR 09/07 A3027 RMK A02 TSNO
QEW,2020-10-20 12:40,128.1500,36.4000,50.00,42.80,76.18,100.00,2.00,0.00,30.25,M,6.21,M,CLR,M,M,M,M,M,M,M,M,M,M,M,M,M,M,M,KQEW 201240Z AUTO 10002KT 9999 CLR 10/06 A3025 RMK A02 TSNO
QEP,2020-10-20 12:40,127.2667,37.4000,50.00,46.40,87.37,0.00,0.00,0.00,30.27,M,4.97,M,CLR,M,M,M,M,M,M,M,M,M,M,M,M,M,M,M,KQEP 201240Z AUTO 00000KT 8000 CLR 10/08 A3027 RMK A02 TSNO
QFT,2020-10-20 12:40,127.3500,37.6000,50.00,44.60,81.61,180.00,1.00,0.00,30.24,M,M,M,CLR,M,M,M,M,M,M,M,,M,M,M,M,M,M,M,KQFT 201240Z AUTO 18001KT / // CLR 10/07 A3024 RMK A02 TSNO
QEX,2020-10-20 12:40,128.3000,36.1000,55.40,46.40,71.64,350.00,1.00,0.00,30.18,M,6.21,M,CLR,M,M,M,M,M,M,M,M,M,M,M,M,M,M,M,KQEX 201240Z AUTO 35001KT 9999 CLR 13/08 A3018 RMK A02 TSNO
QFW,2020-10-20 12:40,127.8833,37.6667,50.00,46.40,87.37,70.00,1.00,0.00,30.28,M,6.21,M,CLR,M,M,M,M,M,M,M,M,M,M,M,M,M,M,M,KQFW 201240Z AUTO 07001KT 9999 CLR 10/08 A3028 RMK A02 TSNO
QFV,2020-10-20 12:40,127.5000,38.0500,44.60,41.00,87.09,140.00,1.00,0.00,30.30,M,6.21,M,CLR,M,M,M,M,M,M,M,M,M,M,M,M,M,M,M,KQFV 201240Z AUTO 14001KT 9999 CLR 07/05 A3030 RMK A02 TSNO
QFU,2020-10-20 12:40,126.9667,37.8000,50.00,42.80,76.18,360.00,1.00,0.00,30.28,M,5.59,M,CLR,M,M,M,M,M,M,M,HZ,M,M,M,M,M,M,M,KQFU 201240Z AUTO 36001KT 9000 HZ CLR 10/06 A3028 RMK A02 TSNO
QFB,2020-10-20 12:40,128.7167,35.6500,51.80,46.40,81.74,310.00,2.00,0.00,30.32,M,6.21,M,CLR,M,M,M,M,M,M,M,M,M,M,M,M,M,M,M,KQFB 201240Z AUTO 31002KT 9999 CLR 11/08 A3032 RMK A02 TSNO
QFB,2020-10-20 12:50,128.7167,35.6500,51.80,46.40,81.74,270.00,1.00,0.00,30.32,M,6.21,M,CLR,M,M,M,M,M,M,M,M,M,M,M,M,M,M,M,KQFB 201250Z AUTO 27001KT 9999 CLR 11/08 A3032 RMK A02 TSNO
QEN,2020-10-20 12:50,128.7500,37.6667,41.00,44.60,M,260.00,5.00,0.00,M,M,6.21,M,CLR,M,M,M,M,M,M,M,M,M,M,M,M,M,M,M,KQEN 201250Z AUTO 26005KT 9999 CLR 05/07 / RMK A02 TSNO
QES,2020-10-20 12:50,126.4500,36.9667,64.40,50.00,59.50,M,M,0.00,M,M,3.73,M,CLR,M,M,M,M,M,M,M,M,M,M,M,M,M,M,M,KQES 201250Z AUTO 6000 CLR 18/10 / RMK A02 TSNO
QEJ,2020-10-20 12:50,127.9500,38.2000,44.60,42.80,93.35,180.00,1.00,0.00,30.26,M,6.21,M,CLR,M,M,M,M,M,M,M,M,M,M,M,M,M,M,M,KQEJ 201250Z AUTO 18001KT 9999 CLR 07/06 A3026 RMK A02 TSNO
QEI,2020-10-20 12:50,128.0667,37.9500,46.40,42.80,87.19,0.00,0.00,0.00,30.27,M,6.21,M,CLR,M,M,M,M,M,M,M,M,M,M,M,M,M,M,M,KQEI 201250Z AUTO 00000KT 9999 CLR 08/06 A3027 RMK A02 TSNO
QEQ,2020-10-20 12:50,127.5500,37.8500,48.20,44.60,87.28,320.00,1.00,0.00,30.28,M,6.21,M,CLR,M,M,M,M,M,M,M,M,M,M,M,M,M,M,M,KQEQ 201250Z AUTO 32001KT 9999 CLR 09/07 A3028 RMK A02 TSNO
QEW,2020-10-20 12:50,128.1500,36.4000,48.20,42.80,81.47,20.00,1.00,0.00,30.25,M,6.21,M,CLR,M,M,M,M,M,M,M,M,M,M,M,M,M,M,M,KQEW 201250Z AUTO 02001KT 9999 CLR 09/06 A3025 RMK A02 TSNO
QEP,2020-10-20 12:50,127.2667,37.4000,50.00,46.40,87.37,100.00,1.00,0.00,30.27,M,3.73,M,CLR,M,M,M,M,M,M,M,HZ,M,M,M,M,M,M,M,KQEP 201250Z AUTO 10001KT 6000 HZ CLR 10/08 A3027 RMK A02 TSNO
QFT,2020-10-20 12:50,127.3500,37.6000,48.20,44.60,87.28,0.00,0.00,0.00,30.25,M,M,M,CLR,M,M,M,M,M,M,M,,M,M,M,M,M,M,M,KQFT 201250Z AUTO 00000KT / // CLR 09/07 A3025 RMK A02 TSNO
QFU,2020-10-20 12:50,126.9667,37.8000,50.00,42.80,76.18,0.00,0.00,0.00,30.28,M,4.97,M,CLR,M,M,M,M,M,M,M,HZ,M,M,M,M,M,M,M,KQFU 201250Z AUTO 00000KT 8000 HZ CLR 10/06 A3028 RMK A02 TSNO
QEX,2020-10-20 12:50,128.3000,36.1000,55.40,44.60,66.91,0.00,0.00,0.00,30.18,M,6.21,M,CLR,M,M,M,M,M,M,M,M,M,M,M,M,M,M,M,KQEX 201250Z AUTO 00000KT 9999 CLR 13/07 A3018 RMK A02 TSNO
QFW,2020-10-20 12:50,127.8833,37.6667,48.20,46.40,93.45,0.00,0.00,0.00,30.28,M,6.21,M,CLR,M,M,M,M,M,M,M,M,M,M,M,M,M,M,M,KQFW 201250Z AUTO 00000KT 9999 CLR 09/08 A3028 RMK A02 TSNO
QFV,2020-10-20 12:50,127.5000,38.0500,44.60,41.00,87.09,0.00,0.00,0.00,30.30,M,4.97,M,CLR,M,M,M,M,M,M,M,,M,M,M,M,M,M,M,KQFV 201250Z AUTO 00000KT 8000 // CLR 07/05 A3030 RMK A02 TSNO
RKJK,2020-10-20 12:56,126.6220,35.8994,55.40,54.00,95.03,200.00,3.00,0.00,30.22,1023.80,2.50,M,CLR,M,M,M,M,M,M,M,BR,M,M,M,M,M,M,M,RKJK 201256Z AUTO 20003KT 2 1/2SM BR CLR 13/12 A3022 RMK AO2 VIS 1 3/4 RWY18 SLP238 T01300122 $
RKSG,2020-10-20 12:56,127.0311,36.9622,54.70,46.20,72.94,0.00,0.00,0.00,30.23,1024.00,3.00,M,CLR,M,M,M,M,M,M,M,HZ,M,M,M,M,M,M,M,RKSG 201256Z 00000KT 3SM HZ CLR 13/08 A3023 RMK AO2A SLP240 T01260079 $
RKSY,2020-10-20 12:58,126.9753,37.5241,51.30,47.10,85.49,0.00,0.00,0.00,30.22,1023.70,6.21,M,CLR,M,M,M,M,M,M,M,M,M,M,M,M,M,M,M,RKSY 201258Z AUTO 00000KT 9999 CLR 11/08 A3022 RMK AO2 SLP237 T01070084 $
RKSO,2020-10-20 12:58,127.0296,37.0906,50.00,48.20,93.50,90.00,5.00,0.00,30.22,1023.70,5.00,M,FEW,M,M,M,20000.00,M,M,M,BR,M,M,M,M,M,M,M,RKSO 201258Z 09005KT 5SM BR FEW200 10/09 A3022 RMK AO2A SLP237 T01000090 $
QFB,2020-10-20 13:00,128.7167,35.6500,51.80,46.40,81.74,200.00,1.00,0.00,30.31,M,6.21,M,CLR,M,M,M,M,M,M,M,M,M,M,M,M,M,M,M,KQFB 201300Z AUTO 20001KT 9999 CLR 11/08 A3031 RMK A02 TSNO
QEN,2020-10-20 13:00,128.7500,37.6667,41.00,44.60,M,260.00,5.00,0.00,M,M,6.21,M,CLR,M,M,M,M,M,M,M,M,M,M,M,M,M,M,M,KQEN 201300Z AUTO 26005KT 9999 CLR 05/07 / RMK A02 TSNO
QES,2020-10-20 13:00,126.4500,36.9667,64.40,50.00,59.50,M,M,0.00,M,M,3.73,M,CLR,M,M,M,M,M,M,M,M,M,M,M,M,M,M,M,KQES 201300Z AUTO 6000 CLR 18/10 / RMK A02 TSNO
QEJ,2020-10-20 13:00,127.9500,38.2000,46.40,42.80,87.19,180.00,2.00,0.00,30.26,M,6.21,M,CLR,M,M,M,M,M,M,M,M,M,M,M,M,M,M,M,KQEJ 201300Z AUTO 18002KT 9999 CLR 08/06 A3026 RMK A02 TSNO
QEI,2020-10-20 13:00,128.0667,37.9500,46.40,42.80,87.19,130.00,1.00,0.00,30.27,M,6.21,M,CLR,M,M,M,M,M,M,M,M,M,M,M,M,M,M,M,KQEI 201300Z AUTO 13001KT 9999 CLR 08/06 A3027 RMK A02 TSNO
QEQ,2020-10-20 13:00,127.5500,37.8500,46.40,44.60,93.40,310.00,1.00,0.00,30.27,M,6.21,M,CLR,M,M,M,M,M,M,M,M,M,M,M,M,M,M,M,KQEQ 201300Z AUTO 31001KT 9999 CLR 08/07 A3027 RMK A02 TSNO
QEW,2020-10-20 13:00,128.1500,36.4000,48.20,42.80,81.47,270.00,2.00,0.00,30.25,M,6.21,M,CLR,M,M,M,M,M,M,M,M,M,M,M,M,M,M,M,KQEW 201300Z AUTO 27002KT 9999 CLR 09/06 A3025 RMK A02 TSNO
QEP,2020-10-20 13:00,127.2667,37.4000,50.00,46.40,87.37,0.00,0.00,0.00,30.27,M,3.73,M,CLR,M,M,M,M,M,M,M,M,M,M,M,M,M,M,M,KQEP 201300Z AUTO 00000KT 6000 CLR 10/08 A3027 RMK A02 TSNO
QFT,2020-10-20 13:00,127.3500,37.6000,50.00,44.60,81.61,50.00,1.00,0.00,30.24,M,M,M,CLR,M,M,M,M,M,M,M,,M,M,M,M,M,M,M,KQFT 201300Z AUTO 05001KT / // CLR 10/07 A3024 RMK A02 TSNO
QFU,2020-10-20 13:00,126.9667,37.8000,50.00,41.00,71.07,0.00,0.00,0.00,30.28,M,4.97,M,CLR,M,M,M,M,M,M,M,HZ,M,M,M,M,M,M,M,KQFU 201300Z AUTO 00000KT 8000 HZ CLR 10/05 A3028 RMK A02 TSNO
QEX,2020-10-20 13:00,128.3000,36.1000,55.40,44.60,66.91,0.00,0.00,0.00,30.18,M,6.21,M,CLR,M,M,M,M,M,M,M,M,M,M,M,M,M,M,M,KQEX 201300Z AUTO 00000KT 9999 CLR 13/07 A3018 RMK A02 TSNO
QFW,2020-10-20 13:00,127.8833,37.6667,48.20,46.40,93.45,110.00,1.00,0.00,30.27,M,6.21,M,CLR,M,M,M,M,M,M,M,M,M,M,M,M,M,M,M,KQFW 201300Z AUTO 11001KT 9999 CLR 09/08 A3027 RMK A02 TSNO
QFV,2020-10-20 13:00,127.5000,38.0500,44.60,41.00,87.09,280.00,1.00,0.00,30.30,M,4.97,M,CLR,M,M,M,M,M,M,M,,M,M,M,M,M,M,M,KQFV 201300Z AUTO 28001KT 8000 // CLR 07/05 A3030 RMK A02 TSNO
RKJB,2020-10-20 13:00,126.3800,34.9800,53.60,51.80,93.60,110.00,3.00,0.00,30.24,M,3.11,M,NSC,M,M,M,M,M,M,M,BR,M,M,M,M,M,M,M,RKJB 201300Z 11003KT 5000 BR NSC 12/11 Q1024 NOSIG
RKPC,2020-10-20 13:00,126.4930,33.5113,62.60,55.40,77.29,100.00,8.00,0.00,30.21,M,6.21,M,M,M,M,M,M,M,M,M,M,M,M,M,M,M,M,M,RKPC 201300Z 10008KT CAVOK 17/13 Q1023 NOSIG
RKNY,2020-10-20 13:00,128.6692,38.0613,53.60,44.60,71.45,240.00,6.00,0.00,30.21,M,6.21,M,NCD,M,M,M,M,M,M,M,M,M,M,M,M,M,M,M,RKNY 201300Z AUTO 24006KT 9999 NCD 12/07 Q1023
RKSS,2020-10-20 13:00,126.7906,37.5583,51.80,48.20,87.47,320.00,3.00,0.00,30.21,M,4.97,M,NSC,M,M,M,M,M,M,M,M,M,M,M,M,M,M,M,RKSS 201300Z 32003KT 8000 NSC 11/09 Q1023 NOSIG
RKTN,2020-10-20 13:00,128.6589,35.8941,59.00,46.40,62.92,210.00,3.00,0.00,30.27,M,6.21,M,M,M,M,M,M,M,M,M,M,M,M,M,M,M,M,M,RKTN 201300Z 21003KT CAVOK 15/08 Q1025
RKTU,2020-10-20 13:00,127.4991,36.7166,48.20,46.40,93.45,90.00,2.00,0.00,30.24,M,5.59,M,NSC,M,M,M,M,M,M,M,M,M,M,M,M,M,M,M,RKTU 201300Z 09002KT 9000 NSC 09/08 Q1024
RKPK,2020-10-20 13:00,128.9382,35.1795,57.20,46.40,67.12,360.00,7.00,0.00,30.24,M,6.21,M,M,M,M,M,M,M,M,M,M,M,M,M,M,M,M,M,RKPK 201300Z 36007KT CAVOK 14/08 Q1024
RKSI,2020-10-20 13:00,126.4500,37.4667,55.40,50.00,81.99,10.00,3.00,0.00,30.21,M,5.59,M,NSC,M,M,M,M,M,M,M,M,M,M,M,M,M,M,M,RKSI 201300Z 01003KT 9000 NSC 13/10 Q1023 NOSIG
RKSM,2020-10-20 13:00,127.1139,37.4458,53.60,46.40,76.50,0.00,0.00,0.00,30.24,M,6.21,M,FEW,M,M,M,20000.00,M,M,M,M,M,M,M,M,M,M,M,RKSM 201300Z 00000KT 9999 FEW200 12/08 A3024
QFB,2020-10-20 13:10,128.7167,35.6500,51.80,46.40,81.74,110.00,1.00,0.00,30.31,M,6.21,M,CLR,M,M,M,M,M,M,M,M,M,M,M,M,M,M,M,KQFB 201310Z AUTO 11001KT 9999 CLR 11/08 A3031 RMK A02 TSNO
QEN,2020-10-20 13:10,128.7500,37.6667,41.00,44.60,M,270.00,6.00,0.00,M,M,6.21,M,CLR,M,M,M,M,M,M,M,M,M,M,M,M,M,M,M,KQEN 201310Z AUTO 27006KT 9999 CLR 05/07 / RMK A02 TSNO
QES,2020-10-20 13:10,126.4500,36.9667,64.40,50.00,59.50,M,M,0.00,M,M,3.73,M,CLR,M,M,M,M,M,M,M,M,M,M,M,M,M,M,M,KQES 201310Z AUTO 6000 CLR 18/10 / RMK A02 TSNO
QEJ,2020-10-20 13:10,127.9500,38.2000,44.60,42.80,93.35,0.00,0.00,0.00,30.26,M,6.21,M,CLR,M,M,M,M,M,M,M,M,M,M,M,M,M,M,M,KQEJ 201310Z AUTO 00000KT 9999 CLR 07/06 A3026 RMK A02 TSNO
QEI,2020-10-20 13:10,128.0667,37.9500,46.40,42.80,87.19,0.00,0.00,0.00,30.27,M,4.97,M,CLR,M,M,M,M,M,M,M,,M,M,M,M,M,M,M,KQEI 201310Z AUTO 00000KT 8000 // CLR 08/06 A3027 RMK A02 TSNO
QEQ,2020-10-20 13:10,127.5500,37.8500,48.20,46.40,93.45,60.00,2.00,0.00,30.27,M,6.21,M,CLR,M,M,M,M,M,M,M,M,M,M,M,M,M,M,M,KQEQ 201310Z AUTO 06002KT 9999 CLR 09/08 A3027 RMK A02 TSNO
QEW,2020-10-20 13:10,128.1500,36.4000,48.20,42.80,81.47,300.00,1.00,0.00,30.25,M,6.21,M,CLR,M,M,M,M,M,M,M,M,M,M,M,M,M,M,M,KQEW 201310Z AUTO 30001KT 9999 CLR 09/06 A3025 RMK A02 TSNO
QEP,2020-10-20 13:10,127.2667,37.4000,50.00,46.40,87.37,120.00,1.00,0.00,30.27,M,3.73,M,CLR,M,M,M,M,M,M,M,M,M,M,M,M,M,M,M,KQEP 201310Z AUTO 12001KT 6000 CLR 10/08 A3027 RMK A02 TSNO
QFT,2020-10-20 13:10,127.3500,37.6000,48.20,44.60,87.28,170.00,1.00,0.00,30.25,M,M,M,CLR,M,M,M,M,M,M,M,,M,M,M,M,M,M,M,KQFT 201310Z AUTO 17001KT / // CLR 09/07 A3025 RMK A02 TSNO
QFU,2020-10-20 13:10,126.9667,37.8000,48.20,41.00,76.01,0.00,0.00,0.00,30.27,M,3.73,M,CLR,M,M,M,M,M,M,M,HZ,M,M,M,M,M,M,M,KQFU 201310Z AUTO 00000KT 6000 HZ CLR 09/05 A3027 RMK A02 TSNO
QEX,2020-10-20 13:10,128.3000,36.1000,55.40,44.60,66.91,330.00,1.00,0.00,30.18,M,6.21,M,CLR,M,M,M,M,M,M,M,M,M,M,M,M,M,M,M,KQEX 201310Z AUTO 33001KT 9999 CLR 13/07 A3018 RMK A02 TSNO
QFW,2020-10-20 13:10,127.8833,37.6667,48.20,46.40,93.45,220.00,1.00,0.00,30.28,M,6.21,M,CLR,M,M,M,M,M,M,M,M,M,M,M,M,M,M,M,KQFW 201310Z AUTO 22001KT 9999 CLR 09/08 A3028 RMK A02 TSNO
QFV,2020-10-20 13:10,127.5000,38.0500,42.80,41.00,93.30,100.00,1.00,0.00,30.30,M,4.97,M,CLR,M,M,M,M,M,M,M,,M,M,M,M,M,M,M,KQFV 201310Z AUTO 10001KT 8000 // CLR 06/05 A3030 RMK A02 TSNO
RKJK,2020-10-20 13:16,126.6220,35.8994,57.20,55.40,93.69,180.00,3.00,0.00,30.21,1023.40,2.25,M,CLR,M,M,M,M,M,M,M,BR,M,M,M,M,M,M,M,RKJK 201316Z AUTO 18003KT 2 1/4SM BR CLR 14/13 A3021 RMK AO2 VIS 2 1/4V2 3/4 SLP234 $
QFB,2020-10-20 13:20,128.7167,35.6500,51.80,46.40,81.74,130.00,1.00,0.00,30.30,M,6.21,M,CLR,M,M,M,M,M,M,M,M,M,M,M,M,M,M,M,KQFB 201320Z AUTO 13001KT 9999 CLR 11/08 A3030 RMK A02 TSNO
QEN,2020-10-20 13:20,128.7500,37.6667,41.00,44.60,M,260.00,5.00,0.00,M,M,6.21,M,CLR,M,M,M,M,M,M,M,M,M,M,M,M,M,M,M,KQEN 201320Z AUTO 26005KT 9999 CLR 05/07 / RMK A02 TSNO
QES,2020-10-20 13:20,126.4500,36.9667,64.40,50.00,59.50,M,M,0.00,M,M,2.98,M,CLR,M,M,M,M,M,M,M,M,M,M,M,M,M,M,M,KQES 201320Z AUTO 4800 CLR 18/10 / RMK A02 TSNO
QEJ,2020-10-20 13:20,127.9500,38.2000,44.60,42.80,93.35,50.00,1.00,0.00,30.26,M,6.21,M,CLR,M,M,M,M,M,M,M,M,M,M,M,M,M,M,M,KQEJ 201320Z AUTO 05001KT 9999 CLR 07/06 A3026 RMK A02 TSNO
QEI,2020-10-20 13:20,128.0667,37.9500,46.40,42.80,87.19,130.00,1.00,0.00,30.27,M,1.99,M,CLR,M,M,M,M,M,M,M,,M,M,M,M,M,M,M,KQEI 201320Z AUTO 13001KT 3200 // CLR 08/06 A3027 RMK A02 TSNO
QEW,2020-10-20 13:20,128.1500,36.4000,48.20,42.80,81.47,280.00,1.00,0.00,30.25,M,6.21,M,CLR,M,M,M,M,M,M,M,M,M,M,M,M,M,M,M,KQEW 201320Z AUTO 28001KT 9999 CLR 09/06 A3025 RMK A02 TSNO
QEP,2020-10-20 13:20,127.2667,37.4000,48.20,46.40,93.45,130.00,2.00,0.00,30.26,M,3.73,M,CLR,M,M,M,M,M,M,M,M,M,M,M,M,M,M,M,KQEP 201320Z AUTO 13002KT 6000 CLR 09/08 A3026 RMK A02 TSNO
QFT,2020-10-20 13:20,127.3500,37.6000,48.20,44.60,87.28,20.00,1.00,0.00,30.23,M,M,M,CLR,M,M,M,M,M,M,M,,M,M,M,M,M,M,M,KQFT 201320Z AUTO 02001KT / // CLR 09/07 A3023 RMK A02 TSNO
QFU,2020-10-20 13:20,126.9667,37.8000,48.20,41.00,76.01,0.00,0.00,0.00,30.28,M,3.73,M,CLR,M,M,M,M,M,M,M,HZ,M,M,M,M,M,M,M,KQFU 201320Z AUTO 00000KT 6000 HZ CLR 09/05 A3028 RMK A02 TSNO
QEX,2020-10-20 13:20,128.3000,36.1000,55.40,44.60,66.91,330.00,1.00,0.00,30.17,M,6.21,M,CLR,M,M,M,M,M,M,M,M,M,M,M,M,M,M,M,KQEX 201320Z AUTO 33001KT 9999 CLR 13/07 A3017 RMK A02 TSNO
QFW,2020-10-20 13:20,127.8833,37.6667,48.20,46.40,93.45,70.00,1.00,0.00,30.28,M,6.21,M,CLR,M,M,M,M,M,M,M,M,M,M,M,M,M,M,M,KQFW 201320Z AUTO 07001KT 9999 CLR 09/08 A3028 RMK A02 TSNO
QFV,2020-10-20 13:20,127.5000,38.0500,42.80,41.00,93.30,110.00,1.00,0.00,30.30,M,5.59,M,CLR,M,M,M,M,M,M,M,,M,M,M,M,M,M,M,KQFV 201320Z AUTO 11001KT 9000 // CLR 06/05 A3030 RMK A02 TSNO
QEQ,2020-10-20 13:20,127.5500,37.8500,46.40,46.40,100.00,100.00,1.00,0.00,30.27,M,6.21,M,CLR,M,M,M,M,M,M,M,M,M,M,M,M,M,M,M,KQEQ 201320Z AUTO 10001KT 9999 CLR 08/08 A3027 RMK A02 TSNO
RKJK,2020-10-20 13:26,126.6220,35.8994,57.20,55.40,93.69,180.00,3.00,0.00,30.21,1023.40,2.50,M,CLR,M,M,M,M,M,M,M,BR,M,M,M,M,M,M,M,RKJK 201326Z AUTO 18003KT 2 1/2SM BR CLR 14/13 A3021 RMK AO2 SLP234 $
QEN,2020-10-20 13:30,128.7500,37.6667,41.00,44.60,M,260.00,6.00,0.00,M,M,5.59,M,CLR,M,M,M,M,M,M,M,M,M,M,M,M,M,M,M,KQEN 201330Z AUTO 26006KT 9000 CLR 05/07 / RMK A02 TSNO
QEW,2020-10-20 13:30,128.1500,36.4000,46.40,42.80,87.19,220.00,1.00,0.00,30.24,M,6.21,M,CLR,M,M,M,M,M,M,M,M,M,M,M,M,M,M,M,KQEW 201330Z AUTO 22001KT 9999 CLR 08/06 A3024 RMK A02 TSNO
QFB,2020-10-20 13:30,128.7167,35.6500,51.80,46.40,81.74,140.00,1.00,0.00,30.30,M,6.21,M,CLR,M,M,M,M,M,M,M,M,M,M,M,M,M,M,M,KQFB 201330Z AUTO 14001KT 9999 CLR 11/08 A3030 RMK A02 TSNO
QES,2020-10-20 13:30,126.4500,36.9667,64.40,50.00,59.50,M,M,0.00,M,M,2.98,M,CLR,M,M,M,M,M,M,M,M,M,M,M,M,M,M,M,KQES 201330Z AUTO 4800 CLR 18/10 / RMK A02 TSNO
QEJ,2020-10-20 13:30,127.9500,38.2000,44.60,42.80,93.35,0.00,0.00,0.00,30.26,M,6.21,M,CLR,M,M,M,M,M,M,M,M,M,M,M,M,M,M,M,KQEJ 201330Z AUTO 00000KT 9999 CLR 07/06 A3026 RMK A02 TSNO
QEI,2020-10-20 13:30,128.0667,37.9500,46.40,42.80,87.19,0.00,0.00,0.00,30.26,M,6.21,M,CLR,M,M,M,M,M,M,M,M,M,M,M,M,M,M,M,KQEI 201330Z AUTO 00000KT 9999 CLR 08/06 A3026 RMK A02 TSNO
QEQ,2020-10-20 13:30,127.5500,37.8500,46.40,44.60,93.40,120.00,1.00,0.00,30.27,M,5.59,M,CLR,M,M,M,M,M,M,M,M,M,M,M,M,M,M,M,KQEQ 201330Z AUTO 12001KT 9000 CLR 08/07 A3027 RMK A02 TSNO
QEP,2020-10-20 13:30,127.2667,37.4000,48.20,44.60,87.28,110.00,1.00,0.00,30.27,M,3.73,M,CLR,M,M,M,M,M,M,M,M,M,M,M,M,M,M,M,KQEP 201330Z AUTO 11001KT 6000 CLR 09/07 A3027 RMK A02 TSNO
QFT,2020-10-20 13:30,127.3500,37.6000,48.20,46.40,93.45,30.00,1.00,0.00,30.24,M,M,M,CLR,M,M,M,M,M,M,M,,M,M,M,M,M,M,M,KQFT 201330Z AUTO 03001KT / // CLR 09/08 A3024 RMK A02 TSNO
QFU,2020-10-20 13:30,126.9667,37.8000,48.20,41.00,76.01,160.00,1.00,0.00,30.28,M,2.49,M,CLR,M,M,M,M,M,M,M,HZ,M,M,M,M,M,M,M,KQFU 201330Z AUTO 16001KT 4000 HZ CLR 09/05 A3028 RMK A02 TSNO
QEX,2020-10-20 13:30,128.3000,36.1000,55.40,44.60,66.91,310.00,2.00,0.00,30.17,M,6.21,M,CLR,M,M,M,M,M,M,M,M,M,M,M,M,M,M,M,KQEX 201330Z AUTO 31002KT 9999 CLR 13/07 A3017 RMK A02 TSNO
QFW,2020-10-20 13:30,127.8833,37.6667,48.20,46.40,93.45,110.00,1.00,0.00,30.27,M,6.21,M,CLR,M,M,M,M,M,M,M,M,M,M,M,M,M,M,M,KQFW 201330Z AUTO 11001KT 9999 CLR 09/08 A3027 RMK A02 TSNO
QFV,2020-10-20 13:30,127.5000,38.0500,42.80,39.20,86.99,280.00,1.00,0.00,30.30,M,5.59,M,CLR,M,M,M,M,M,M,M,,M,M,M,M,M,M,M,KQFV 201330Z AUTO 28001KT 9000 // CLR 06/04 A3030 RMK A02 TSNO
RKSI,2020-10-20 13:30,126.4500,37.4667,57.20,51.80,82.12,30.00,3.00,0.00,30.21,M,4.35,M,NSC,M,M,M,M,M,M,M,M,M,M,M,M,M,M,M,RKSI 201330Z 03003KT 350V050 7000 NSC 14/11 Q1023 NOSIG
RKJK,2020-10-20 13:36,126.6220,35.8994,57.20,57.20,100.00,0.00,0.00,0.00,30.21,1023.40,2.25,M,CLR,M,M,M,M,M,M,M,BR,M,M,M,M,M,M,M,RKJK 201336Z AUTO 00000KT 2 1/4SM BR CLR 14/14 A3021 RMK AO2 SLP234 $
QFB,2020-10-20 13:40,128.7167,35.6500,51.80,44.60,76.34,0.00,0.00,0.00,30.30,M,6.21,M,CLR,M,M,M,M,M,M,M,M,M,M,M,M,M,M,M,KQFB 201340Z AUTO 00000KT 9999 CLR 11/07 A3030 RMK A02 TSNO
QEN,2020-10-20 13:40,128.7500,37.6667,41.00,44.60,M,260.00,5.00,0.00,M,M,6.21,M,CLR,M,M,M,M,M,M,M,M,M,M,M,M,M,M,M,KQEN 201340Z AUTO 26005KT 9999 CLR 05/07 / RMK A02 TSNO
QES,2020-10-20 13:40,126.4500,36.9667,64.40,50.00,59.50,M,M,0.00,M,M,2.98,M,CLR,M,M,M,M,M,M,M,M,M,M,M,M,M,M,M,KQES 201340Z AUTO 4800 CLR 18/10 / RMK A02 TSNO
QEJ,2020-10-20 13:40,127.9500,38.2000,44.60,42.80,93.35,110.00,1.00,0.00,30.26,M,6.21,M,CLR,M,M,M,M,M,M,M,M,M,M,M,M,M,M,M,KQEJ 201340Z AUTO 11001KT 9999 CLR 07/06 A3026 RMK A02 TSNO
QEI,2020-10-20 13:40,128.0667,37.9500,44.60,42.80,93.35,120.00,1.00,0.00,30.27,M,6.21,M,CLR,M,M,M,M,M,M,M,M,M,M,M,M,M,M,M,KQEI 201340Z AUTO 12001KT 9999 CLR 07/06 A3027 RMK A02 TSNO
QEQ,2020-10-20 13:40,127.5500,37.8500,46.40,46.40,100.00,60.00,2.00,0.00,30.27,M,4.97,M,CLR,M,M,M,M,M,M,M,M,M,M,M,M,M,M,M,KQEQ 201340Z AUTO 06002KT 8000 CLR 08/08 A3027 RMK A02 TSNO
QEW,2020-10-20 13:40,128.1500,36.4000,46.40,42.80,87.19,300.00,1.00,0.00,30.24,M,6.21,M,CLR,M,M,M,M,M,M,M,M,M,M,M,M,M,M,M,KQEW 201340Z AUTO 30001KT 9999 CLR 08/06 A3024 RMK A02 TSNO
QEP,2020-10-20 13:40,127.2667,37.4000,48.20,44.60,87.28,0.00,0.00,0.00,30.27,M,3.73,M,CLR,M,M,M,M,M,M,M,M,M,M,M,M,M,M,M,KQEP 201340Z AUTO 00000KT 6000 CLR 09/07 A3027 RMK A02 TSNO
QFT,2020-10-20 13:40,127.3500,37.6000,48.20,46.40,93.45,20.00,2.00,0.00,30.24,M,M,M,CLR,M,M,M,M,M,M,M,,M,M,M,M,M,M,M,KQFT 201340Z AUTO 02002KT / // CLR 09/08 A3024 RMK A02 TSNO
QFU,2020-10-20 13:40,126.9667,37.8000,48.20,41.00,76.01,170.00,1.00,0.00,30.28,M,1.99,M,CLR,M,M,M,M,M,M,M,HZ,M,M,M,M,M,M,M,KQFU 201340Z AUTO 17001KT 3200 HZ CLR 09/05 A3028 RMK A02 TSNO
QEX,2020-10-20 13:40,128.3000,36.1000,55.40,44.60,66.91,310.00,2.00,0.00,30.17,M,6.21,M,CLR,M,M,M,M,M,M,M,M,M,M,M,M,M,M,M,KQEX 201340Z AUTO 31002KT 9999 CLR 13/07 A3017 RMK A02 TSNO
QFW,2020-10-20 13:40,127.8833,37.6667,48.20,46.40,93.45,30.00,1.00,0.00,30.27,M,6.21,M,CLR,M,M,M,M,M,M,M,M,M,M,M,M,M,M,M,KQFW 201340Z AUTO 03001KT 9999 CLR 09/08 A3027 RMK A02 TSNO
QFV,2020-10-20 13:40,127.5000,38.0500,42.80,39.20,86.99,170.00,1.00,0.00,30.30,M,6.21,M,CLR,M,M,M,M,M,M,M,M,M,M,M,M,M,M,M,KQFV 201340Z AUTO 17001KT 9999 CLR 06/04 A3030 RMK A02 TSNO
RKJK,2020-10-20 13:46,126.6220,35.8994,57.20,57.20,100.00,170.00,3.00,0.00,30.21,1023.40,3.00,M,CLR,M,M,M,M,M,M,M,BR,M,M,M,M,M,M,M,RKJK 201346Z AUTO 17003KT 3SM BR CLR 14/14 A3021 RMK AO2 SLP234 $
RKJK,2020-10-20 13:49,126.6220,35.8994,57.20,55.40,93.69,160.00,3.00,0.00,30.21,1023.40,1.50,M,CLR,M,M,M,M,M,M,M,BR,M,M,M,M,M,M,M,RKJK 201349Z 16003KT 1 1/2SM BR CLR 14/13 A3021 RMK SLP234 $
QFB,2020-10-20 13:50,128.7167,35.6500,50.00,46.40,87.37,270.00,1.00,0.00,30.30,M,6.21,M,CLR,M,M,M,M,M,M,M,M,M,M,M,M,M,M,M,KQFB 201350Z AUTO 27001KT 9999 CLR 10/08 A3030 RMK A02 TSNO
QEN,2020-10-20 13:50,128.7500,37.6667,41.00,42.80,M,260.00,6.00,0.00,30.28,M,6.21,M,CLR,M,M,M,M,M,M,M,M,M,M,M,M,M,M,M,KQEN 201350Z AUTO 26006KT 9999 CLR 05/06 A3028 RMK A02 TSNO
QES,2020-10-20 13:50,126.4500,36.9667,64.40,50.00,59.50,M,M,0.00,M,M,2.98,M,CLR,M,M,M,M,M,M,M,M,M,M,M,M,M,M,M,KQES 201350Z AUTO 4800 CLR 18/10 / RMK A02 TSNO
QEJ,2020-10-20 13:50,127.9500,38.2000,44.60,42.80,93.35,270.00,1.00,0.00,30.26,M,6.21,M,CLR,M,M,M,M,M,M,M,M,M,M,M,M,M,M,M,KQEJ 201350Z AUTO 27001KT 9999 CLR 07/06 A3026 RMK A02 TSNO
QEI,2020-10-20 13:50,128.0667,37.9500,44.60,42.80,93.35,290.00,1.00,0.00,30.26,M,6.21,M,CLR,M,M,M,M,M,M,M,M,M,M,M,M,M,M,M,KQEI 201350Z AUTO 29001KT 9999 CLR 07/06 A3026 RMK A02 TSNO
QEQ,2020-10-20 13:50,127.5500,37.8500,46.40,46.40,100.00,80.00,1.00,0.00,30.27,M,5.59,M,CLR,M,M,M,M,M,M,M,M,M,M,M,M,M,M,M,KQEQ 201350Z AUTO 08001KT 9000 CLR 08/08 A3027 RMK A02 TSNO
QEW,2020-10-20 13:50,128.1500,36.4000,46.40,42.80,87.19,260.00,1.00,0.00,30.25,M,6.21,M,CLR,M,M,M,M,M,M,M,M,M,M,M,M,M,M,M,KQEW 201350Z AUTO 26001KT 9999 CLR 08/06 A3025 RMK A02 TSNO
QEP,2020-10-20 13:50,127.2667,37.4000,48.20,44.60,87.28,0.00,0.00,0.00,30.27,M,3.73,M,CLR,M,M,M,M,M,M,M,M,M,M,M,M,M,M,M,KQEP 201350Z AUTO 00000KT 6000 CLR 09/07 A3027 RMK A02 TSNO
QFT,2020-10-20 13:50,127.3500,37.6000,48.20,44.60,87.28,130.00,1.00,0.00,30.24,M,M,M,CLR,M,M,M,M,M,M,M,,M,M,M,M,M,M,M,KQFT 201350Z AUTO 13001KT / // CLR 09/07 A3024 RMK A02 TSNO
QFU,2020-10-20 13:50,126.9667,37.8000,48.20,41.00,76.01,140.00,1.00,0.00,30.28,M,3.73,M,CLR,M,M,M,M,M,M,M,HZ,M,M,M,M,M,M,M,KQFU 201350Z AUTO 14001KT 6000 HZ CLR 09/05 A3028 RMK A02 TSNO
QEX,2020-10-20 13:50,128.3000,36.1000,53.60,44.60,71.45,300.00,2.00,0.00,30.17,M,6.21,M,CLR,M,M,M,M,M,M,M,M,M,M,M,M,M,M,M,KQEX 201350Z AUTO 30002KT 9999 CLR 12/07 A3017 RMK A02 TSNO
QFW,2020-10-20 13:50,127.8833,37.6667,48.20,46.40,93.45,50.00,1.00,0.00,30.27,M,6.21,M,CLR,M,M,M,M,M,M,M,M,M,M,M,M,M,M,M,KQFW 201350Z AUTO 05001KT 9999 CLR 09/08 A3027 RMK A02 TSNO
QFV,2020-10-20 13:50,127.5000,38.0500,42.80,39.20,86.99,50.00,1.00,0.00,30.29,M,6.21,M,CLR,M,M,M,M,M,M,M,M,M,M,M,M,M,M,M,KQFV 201350Z AUTO 05001KT 9999 CLR 06/04 A3029 RMK A02 TSNO
RKJK,2020-10-20 13:56,126.6220,35.8994,55.90,54.50,95.04,150.00,3.00,0.00,30.21,1023.40,2.50,M,CLR,M,M,M,M,M,M,M,BR,M,M,M,M,M,M,M,RKJK 201356Z AUTO 15003KT 2 1/2SM BR CLR 13/13 A3021 RMK AO2 VIS 2 1/2V3 SLP234 T01330125 $
RKSG,2020-10-20 13:56,127.0311,36.9622,53.80,44.60,70.93,0.00,0.00,0.00,30.23,1024.00,3.00,M,CLR,M,M,M,M,M,M,M,HZ,M,M,M,M,M,M,M,RKSG 201356Z 00000KT 3SM HZ CLR 12/07 A3023 RMK AO2A SLP240 T01210070 402120078 55002 $
RKSY,2020-10-20 13:58,126.9753,37.5241,50.40,46.80,87.39,0.00,0.00,0.00,30.22,1023.70,6.21,M,CLR,M,M,M,M,M,M,M,M,M,M,M,M,M,M,M,RKSY 201358Z AUTO 00000KT 9999 CLR 10/08 A3022 RMK AO2 SLP237 T01020082 $
RKSO,2020-10-20 13:58,127.0296,37.0906,48.70,48.00,97.41,100.00,3.00,0.00,30.22,1023.70,5.00,M,FEW,M,M,M,20000.00,M,M,M,BR,M,M,M,M,M,M,47.78,RKSO 201358Z 10003KT 5SM BR FEW200 09/09 A3022 RMK AO2A SLP237 T00930089 $
RKJB,2020-10-20 14:00,126.3800,34.9800,53.60,48.20,81.87,140.00,3.00,0.00,30.24,M,4.35,M,NCD,M,M,M,M,M,M,M,M,M,M,M,M,M,M,M,RKJB 201400Z AUTO 14003KT 7000 NCD 12/09 Q1024
RKPC,2020-10-20 14:00,126.4930,33.5113,64.40,57.20,77.45,100.00,8.00,0.00,30.21,M,6.21,M,FEW,BKN,M,M,3000.00,23000.00,M,M,M,M,M,M,M,M,M,M,RKPC 201400Z 10008KT 9999 FEW030 BKN230 18/14 Q1023 NOSIG
RKNY,2020-10-20 14:00,128.6692,38.0613,51.80,44.60,76.34,220.00,2.00,0.00,30.21,M,6.21,M,NCD,M,M,M,M,M,M,M,M,M,M,M,M,M,M,M,RKNY 201400Z AUTO 22002KT 9999 NCD 11/07 Q1023
QFB,2020-10-20 14:00,128.7167,35.6500,50.00,46.40,87.37,340.00,2.00,0.00,30.31,M,6.21,M,CLR,M,M,M,M,M,M,M,M,M,M,M,M,M,M,M,KQFB 201400Z AUTO 34002KT 9999 CLR 10/08 A3031 RMK A02 TSNO
RKSS,2020-10-20 14:00,126.7906,37.5583,50.00,50.00,100.00,10.00,2.00,0.00,30.24,M,4.35,M,NSC,M,M,M,M,M,M,M,M,M,M,M,M,M,M,M,RKSS 201400Z 01002KT 7000 NSC 10/10 Q1024 NOSIG
RKTN,2020-10-20 14:00,128.6589,35.8941,53.60,46.40,76.50,120.00,4.00,0.00,30.24,M,6.21,M,M,M,M,M,M,M,M,M,M,M,M,M,M,M,M,M,RKTN 201400Z 12004KT CAVOK 12/08 Q1024
RKTU,2020-10-20 14:00,127.4991,36.7166,46.40,42.80,87.19,170.00,1.00,0.00,30.24,M,4.97,M,NSC,M,M,M,M,M,M,M,M,M,M,M,M,M,M,M,RKTU 201400Z 17001KT 8000 NSC 08/06 Q1024
QEN,2020-10-20 14:00,128.7500,37.6667,41.00,44.60,M,270.00,5.00,0.00,30.28,M,6.21,M,CLR,M,M,M,M,M,M,M,M,M,M,M,M,M,M,M,KQEN 201400Z AUTO 27005KT 9999 CLR 05/07 A3028 RMK A02 TSNO
QES,2020-10-20 14:00,126.4500,36.9667,64.40,50.00,59.50,M,M,0.00,M,M,2.98,M,CLR,M,M,M,M,M,M,M,M,M,M,M,M,M,M,M,KQES 201400Z AUTO 4800 CLR 18/10 / RMK A02 TSNO
QEJ,2020-10-20 14:00,127.9500,38.2000,42.80,41.00,93.30,120.00,1.00,0.00,30.26,M,6.21,M,CLR,M,M,M,M,M,M,M,M,M,M,M,M,M,M,M,KQEJ 201400Z AUTO 12001KT 9999 CLR 06/05 A3026 RMK A02 TSNO
QEI,2020-10-20 14:00,128.0667,37.9500,44.60,42.80,93.35,130.00,2.00,0.00,30.27,M,6.21,M,CLR,M,M,M,M,M,M,M,M,M,M,M,M,M,M,M,KQEI 201400Z AUTO 13002KT 9999 CLR 07/06 A3027 RMK A02 TSNO
QEQ,2020-10-20 14:00,127.5500,37.8500,46.40,46.40,100.00,0.00,0.00,0.00,30.27,M,5.59,M,CLR,M,M,M,M,M,M,M,M,M,M,M,M,M,M,M,KQEQ 201400Z AUTO 00000KT 9000 CLR 08/08 A3027 RMK A02 TSNO
QEW,2020-10-20 14:00,128.1500,36.4000,48.20,42.80,81.47,0.00,0.00,0.00,30.25,M,6.21,M,CLR,M,M,M,M,M,M,M,M,M,M,M,M,M,M,M,KQEW 201400Z AUTO 00000KT 9999 CLR 09/06 A3025 RMK A02 TSNO
QEP,2020-10-20 14:00,127.2667,37.4000,48.20,44.60,87.28,130.00,1.00,0.00,30.27,M,3.73,M,CLR,M,M,M,M,M,M,M,M,M,M,M,M,M,M,M,KQEP 201400Z AUTO 13001KT 6000 CLR 09/07 A3027 RMK A02 TSNO
RKPK,2020-10-20 14:00,128.9382,35.1795,53.60,46.40,76.50,340.00,3.00,0.00,30.24,M,6.21,M,M,M,M,M,M,M,M,M,M,M,M,M,M,M,M,M,RKPK 201400Z 34003KT CAVOK 12/08 Q1024
QFT,2020-10-20 14:00,127.3500,37.6000,48.20,44.60,87.28,140.00,1.00,0.00,30.24,M,M,M,CLR,M,M,M,M,M,M,M,,M,M,M,M,M,M,M,KQFT 201400Z AUTO 14001KT / // CLR 09/07 A3024 RMK A02 TSNO
QFU,2020-10-20 14:00,126.9667,37.8000,48.20,41.00,76.01,230.00,1.00,0.00,30.28,M,3.73,M,CLR,M,M,M,M,M,M,M,HZ,M,M,M,M,M,M,M,KQFU 201400Z AUTO 23001KT 6000 HZ CLR 09/05 A3028 RMK A02 TSNO
QEX,2020-10-20 14:00,128.3000,36.1000,53.60,44.60,71.45,290.00,1.00,0.00,30.17,M,6.21,M,CLR,M,M,M,M,M,M,M,M,M,M,M,M,M,M,M,KQEX 201400Z AUTO 29001KT 9999 CLR 12/07 A3017 RMK A02 TSNO
QFW,2020-10-20 14:00,127.8833,37.6667,46.40,46.40,100.00,80.00,1.00,0.00,30.27,M,6.21,M,CLR,M,M,M,M,M,M,M,M,M,M,M,M,M,M,M,KQFW 201400Z AUTO 08001KT 9999 CLR 08/08 A3027 RMK A02 TSNO
QFV,2020-10-20 14:00,127.5000,38.0500,42.80,39.20,86.99,270.00,1.00,0.00,30.29,M,5.59,M,CLR,M,M,M,M,M,M,M,,M,M,M,M,M,M,M,KQFV 201400Z AUTO 27001KT 9000 // CLR 06/04 A3029 RMK A02 TSNO
RKSI,2020-10-20 14:00,126.4500,37.4667,57.20,51.80,82.12,50.00,4.00,0.00,30.21,M,4.35,M,NSC,M,M,M,M,M,M,M,M,M,M,M,M,M,M,M,RKSI 201400Z 05004KT 7000 NSC 14/11 Q1023 NOSIG
RKJK,2020-10-20 14:00,126.6220,35.8994,54.50,53.10,95.01,0.00,0.00,0.00,30.21,1023.40,0.50,M,CLR,M,M,M,M,M,M,M,FG,M,M,M,M,M,M,M,RKJK 201400Z 00000KT 1/2SM FG CLR 13/12 A3021 RMK SLP234 T01250117 402210074 50004 $
RKSM,2020-10-20 14:00,127.1139,37.4458,51.80,44.60,76.34,220.00,1.00,0.00,30.25,M,6.21,M,SCT,M,M,M,20000.00,M,M,M,M,M,M,M,M,M,M,M,RKSM 201400Z 22001KT 9999 SCT200 11/07 A3025
RKJK,2020-10-20 14:01,126.6220,35.8994,55.40,53.60,93.65,0.00,0.00,0.00,30.21,1023.40,2.00,M,CLR,M,M,M,M,M,M,M,BR,M,M,M,M,M,M,M,RKJK 201401Z AUTO 00000KT 2SM BR CLR 13/12 A3021 RMK AO2 VIS 2V2 3/4 SLP234 $
QFB,2020-10-20 14:10,128.7167,35.6500,48.20,44.60,87.28,290.00,3.00,0.00,30.31,M,6.21,M,CLR,M,M,M,M,M,M,M,M,M,M,M,M,M,M,47.21,KQFB 201410Z AUTO 29003KT 9999 CLR 09/07 A3031 RMK A02 TSNO
QEN,2020-10-20 14:10,128.7500,37.6667,41.00,44.60,M,250.00,5.00,0.00,M,M,6.21,M,CLR,M,M,M,M,M,M,M,M,M,M,M,M,M,M,M,KQEN 201410Z AUTO 25005KT 9999 CLR 05/07 / RMK A02 TSNO
QES,2020-10-20 14:10,126.4500,36.9667,64.40,50.00,59.50,M,M,0.00,M,M,2.49,M,CLR,M,M,M,M,M,M,M,BR,M,M,M,M,M,M,M,KQES 201410Z AUTO 4000 BR CLR 18/10 / RMK A02 TSNO
QEJ,2020-10-20 14:10,127.9500,38.2000,42.80,41.00,93.30,0.00,0.00,0.00,30.25,M,5.59,M,CLR,M,M,M,M,M,M,M,M,M,M,M,M,M,M,M,KQEJ 201410Z AUTO 00000KT 9000 CLR 06/05 A3025 RMK A02 TSNO
QEI,2020-10-20 14:10,128.0667,37.9500,44.60,42.80,93.35,280.00,1.00,0.00,30.26,M,6.21,M,CLR,M,M,M,M,M,M,M,M,M,M,M,M,M,M,M,KQEI 201410Z AUTO 28001KT 9999 CLR 07/06 A3026 RMK A02 TSNO
QEQ,2020-10-20 14:10,127.5500,37.8500,44.60,44.60,100.00,50.00,1.00,0.00,30.28,M,3.73,M,CLR,M,M,M,M,M,M,M,M,M,M,M,M,M,M,M,KQEQ 201410Z AUTO 05001KT 6000 CLR 07/07 A3028 RMK A02 TSNO
QEW,2020-10-20 14:10,128.1500,36.4000,46.40,42.80,87.19,150.00,5.00,0.00,30.25,M,6.21,M,CLR,M,M,M,M,M,M,M,M,M,M,M,M,M,M,43.50,KQEW 201410Z AUTO 15005KT 9999 CLR 08/06 A3025 RMK A02 TSNO
QEP,2020-10-20 14:10,127.2667,37.4000,48.20,44.60,87.28,130.00,2.00,0.00,30.26,M,4.97,M,CLR,M,M,M,M,M,M,M,M,M,M,M,M,M,M,M,KQEP 201410Z AUTO 13002KT 8000 CLR 09/07 A3026 RMK A02 TSNO
QFT,2020-10-20 14:10,127.3500,37.6000,46.40,44.60,93.40,160.00,1.00,0.00,30.23,M,M,M,CLR,M,M,M,M,M,M,M,,M,M,M,M,M,M,M,KQFT 201410Z AUTO 16001KT / // CLR 08/07 A3023 RMK A02 TSNO
QFU,2020-10-20 14:10,126.9667,37.8000,48.20,41.00,76.01,250.00,2.00,0.00,30.28,M,3.73,M,CLR,M,M,M,M,M,M,M,HZ,M,M,M,M,M,M,M,KQFU 201410Z AUTO 25002KT 6000 HZ CLR 09/05 A3028 RMK A02 TSNO
QEX,2020-10-20 14:10,128.3000,36.1000,53.60,44.60,71.45,310.00,2.00,0.00,30.18,M,6.21,M,CLR,M,M,M,M,M,M,M,M,M,M,M,M,M,M,M,KQEX 201410Z AUTO 31002KT 9999 CLR 12/07 A3018 RMK A02 TSNO
QFW,2020-10-20 14:10,127.8833,37.6667,46.40,46.40,100.00,90.00,1.00,0.00,30.27,M,6.21,M,CLR,M,M,M,M,M,M,M,M,M,M,M,M,M,M,M,KQFW 201410Z AUTO 09001KT 9999 CLR 08/08 A3027 RMK A02 TSNO
QFV,2020-10-20 14:10,127.5000,38.0500,42.80,39.20,86.99,160.00,1.00,0.00,30.29,M,5.59,M,CLR,M,M,M,M,M,M,M,,M,M,M,M,M,M,M,KQFV 201410Z AUTO 16001KT 9000 // CLR 06/04 A3029 RMK A02 TSNO
RKJK,2020-10-20 14:11,126.6220,35.8994,53.60,51.80,93.60,170.00,3.00,0.00,30.21,1023.40,1.50,M,CLR,M,M,M,M,M,M,M,BR,M,M,M,M,M,M,M,RKJK 201411Z 17003KT 1 1/2SM BR CLR 12/11 A3021 RMK AO2A VIS 1 1/2V2 SLP234 $
QFB,2020-10-20 14:20,128.7167,35.6500,48.20,44.60,87.28,280.00,2.00,0.00,30.31,M,6.21,M,CLR,M,M,M,M,M,M,M,M,M,M,M,M,M,M,M,KQFB 201420Z AUTO 28002KT 9999 CLR 09/07 A3031 RMK A02 TSNO
QEN,2020-10-20 14:20,128.7500,37.6667,41.00,44.60,M,250.00,4.00,0.00,M,M,6.21,M,CLR,M,M,M,M,M,M,M,M,M,M,M,M,M,M,M,KQEN 201420Z AUTO 25004KT 9999 CLR 05/07 / RMK A02 TSNO
QES,2020-10-20 14:20,126.4500,36.9667,64.40,50.00,59.50,M,M,0.00,M,M,2.49,M,CLR,M,M,M,M,M,M,M,BR,M,M,M,M,M,M,M,KQES 201420Z AUTO 4000 BR CLR 18/10 / RMK A02 TSNO
QEJ,2020-10-20 14:20,127.9500,38.2000,42.80,41.00,93.30,0.00,0.00,0.00,30.25,M,6.21,M,CLR,M,M,M,M,M,M,M,M,M,M,M,M,M,M,M,KQEJ 201420Z AUTO 00000KT 9999 CLR 06/05 A3025 RMK A02 TSNO
QEI,2020-10-20 14:20,128.0667,37.9500,44.60,42.80,93.35,140.00,1.00,0.00,30.26,M,6.21,M,CLR,M,M,M,M,M,M,M,M,M,M,M,M,M,M,M,KQEI 201420Z AUTO 14001KT 9999 CLR 07/06 A3026 RMK A02 TSNO
QEQ,2020-10-20 14:20,127.5500,37.8500,46.40,46.40,100.00,120.00,1.00,0.00,30.28,M,4.97,M,CLR,M,M,M,M,M,M,M,M,M,M,M,M,M,M,M,KQEQ 201420Z AUTO 12001KT 8000 CLR 08/08 A3028 RMK A02 TSNO
QEW,2020-10-20 14:20,128.1500,36.4000,48.20,42.80,81.47,160.00,4.00,0.00,30.25,M,6.21,M,CLR,M,M,M,M,M,M,M,M,M,M,M,M,M,M,46.34,KQEW 201420Z AUTO 16004KT 9999 CLR 09/06 A3025 RMK A02 TSNO
QEP,2020-10-20 14:20,127.2667,37.4000,48.20,44.60,87.28,130.00,1.00,0.00,30.27,M,3.73,M,CLR,M,M,M,M,M,M,M,M,M,M,M,M,M,M,M,KQEP 201420Z AUTO 13001KT 6000 CLR 09/07 A3027 RMK A02 TSNO
QFT,2020-10-20 14:20,127.3500,37.6000,46.40,44.60,93.40,0.00,0.00,0.00,30.24,M,M,M,CLR,M,M,M,M,M,M,M,,M,M,M,M,M,M,M,KQFT 201420Z AUTO 00000KT / // CLR 08/07 A3024 RMK A02 TSNO
QFU,2020-10-20 14:20,126.9667,37.8000,48.20,41.00,76.01,90.00,1.00,0.00,30.28,M,3.73,M,CLR,M,M,M,M,M,M,M,HZ,M,M,M,M,M,M,M,KQFU 201420Z AUTO 09001KT 6000 HZ CLR 09/05 A3028 RMK A02 TSNO
QEX,2020-10-20 14:20,128.3000,36.1000,53.60,44.60,71.45,270.00,3.00,0.00,30.17,M,6.21,M,CLR,M,M,M,M,M,M,M,M,M,M,M,M,M,M,M,KQEX 201420Z AUTO 27003KT 9999 CLR 12/07 A3017 RMK A02 TSNO
QFW,2020-10-20 14:20,127.8833,37.6667,46.40,46.40,100.00,140.00,1.00,0.00,30.27,M,6.21,M,CLR,M,M,M,M,M,M,M,M,M,M,M,M,M,M,M,KQFW 201420Z AUTO 14001KT 9999 CLR 08/08 A3027 RMK A02 TSNO
QFV,2020-10-20 14:20,127.5000,38.0500,42.80,39.20,86.99,110.00,2.00,0.00,30.30,M,5.59,M,CLR,M,M,M,M,M,M,M,,M,M,M,M,M,M,M,KQFV 201420Z AUTO 11002KT 9000 // CLR 06/04 A3030 RMK A02 TSNO
QEN,2020-10-20 14:30,128.7500,37.6667,41.00,44.60,M,260.00,5.00,0.00,M,M,5.59,M,CLR,M,M,M,M,M,M,M,M,M,M,M,M,M,M,M,KQEN 201430Z AUTO 26005KT 9000 CLR 05/07 / RMK A02 TSNO
QES,2020-10-20 14:30,126.4500,36.9667,64.40,50.00,59.50,M,M,0.00,M,M,2.49,M,CLR,M,M,M,M,M,M,M,BR,M,M,M,M,M,M,M,KQES 201430Z AUTO 4000 BR CLR 18/10 / RMK A02 TSNO
QEJ,2020-10-20 14:30,127.9500,38.2000,42.80,41.00,93.30,0.00,0.00,0.00,30.25,M,5.59,M,CLR,M,M,M,M,M,M,M,M,M,M,M,M,M,M,M,KQEJ 201430Z AUTO 00000KT 9000 CLR 06/05 A3025 RMK A02 TSNO
QEI,2020-10-20 14:30,128.0667,37.9500,44.60,41.00,87.09,150.00,1.00,0.00,30.26,M,6.21,M,CLR,M,M,M,M,M,M,M,M,M,M,M,M,M,M,M,KQEI 201430Z AUTO 15001KT 9999 CLR 07/05 A3026 RMK A02 TSNO
QEQ,2020-10-20 14:30,127.5500,37.8500,46.40,46.40,100.00,150.00,1.00,0.00,30.27,M,3.73,M,CLR,M,M,M,M,M,M,M,M,M,M,M,M,M,M,M,KQEQ 201430Z AUTO 15001KT 6000 CLR 08/08 A3027 RMK A02 TSNO
QEW,2020-10-20 14:30,128.1500,36.4000,46.40,42.80,87.19,220.00,2.00,0.00,30.26,M,6.21,M,CLR,M,M,M,M,M,M,M,M,M,M,M,M,M,M,M,KQEW 201430Z AUTO 22002KT 9999 CLR 08/06 A3026 RMK A02 TSNO
QEP,2020-10-20 14:30,127.2667,37.4000,48.20,44.60,87.28,0.00,0.00,0.00,30.27,M,3.73,M,CLR,M,M,M,M,M,M,M,M,M,M,M,M,M,M,M,KQEP 201430Z AUTO 00000KT 6000 CLR 09/07 A3027 RMK A02 TSNO
QFT,2020-10-20 14:30,127.3500,37.6000,48.20,44.60,87.28,30.00,2.00,0.00,30.24,M,M,M,CLR,M,M,M,M,M,M,M,,M,M,M,M,M,M,M,KQFT 201430Z AUTO 03002KT / // CLR 09/07 A3024 RMK A02 TSNO
QFU,2020-10-20 14:30,126.9667,37.8000,48.20,41.00,76.01,180.00,1.00,0.00,30.28,M,3.73,M,CLR,M,M,M,M,M,M,M,HZ,M,M,M,M,M,M,M,KQFU 201430Z AUTO 18001KT 6000 HZ CLR 09/05 A3028 RMK A02 TSNO
QEX,2020-10-20 14:30,128.3000,36.1000,53.60,44.60,71.45,260.00,2.00,0.00,30.18,M,6.21,M,CLR,M,M,M,M,M,M,M,M,M,M,M,M,M,M,M,KQEX 201430Z AUTO 26002KT 9999 CLR 12/07 A3018 RMK A02 TSNO
QFW,2020-10-20 14:30,127.8833,37.6667,46.40,46.40,100.00,130.00,1.00,0.00,30.27,M,6.21,M,CLR,M,M,M,M,M,M,M,M,M,M,M,M,M,M,M,KQFW 201430Z AUTO 13001KT 9999 CLR 08/08 A3027 RMK A02 TSNO
RKSI,2020-10-20 14:30,126.4500,37.4667,55.40,50.00,81.99,50.00,5.00,0.00,30.21,M,4.35,M,NSC,M,M,M,M,M,M,M,M,M,M,M,M,M,M,M,RKSI 201430Z 05005KT 7000 NSC 13/10 Q1023 NOSIG
QFB,2020-10-20 14:30,128.7167,35.6500,48.20,44.60,87.28,290.00,3.00,0.00,30.31,M,6.21,M,CLR,M,M,M,M,M,M,M,M,M,M,M,M,M,M,47.21,KQFB 201430Z AUTO 29003KT 9999 CLR 09/07 A3031 RMK A02 TSNO
QFV,2020-10-20 14:30,127.5000,38.0500,41.00,39.20,93.24,100.00,2.00,0.00,30.30,M,5.59,M,CLR,M,M,M,M,M,M,M,,M,M,M,M,M,M,M,KQFV 201430Z AUTO 10002KT 9000 // CLR 05/04 A3030 RMK A02 TSNO
QEN,2020-10-20 14:40,128.7500,37.6667,41.00,44.60,M,260.00,5.00,0.00,M,M,6.21,M,CLR,M,M,M,M,M,M,M,M,M,M,M,M,M,M,M,KQEN 201440Z AUTO 26005KT 9999 CLR 05/07 / RMK A02 TSNO
QES,2020-10-20 14:40,126.4500,36.9667,64.40,50.00,59.50,M,M,0.00,M,M,2.98,M,CLR,M,M,M,M,M,M,M,M,M,M,M,M,M,M,M,KQES 201440Z AUTO 4800 CLR 18/10 / RMK A02 TSNO
QEJ,2020-10-20 14:40,127.9500,38.2000,42.80,41.00,93.30,110.00,1.00,0.00,30.25,M,4.97,M,CLR,M,M,M,M,M,M,M,M,M,M,M,M,M,M,M,KQEJ 201440Z AUTO 11001KT 8000 CLR 06/05 A3025 RMK A02 TSNO
QEI,2020-10-20 14:40,128.0667,37.9500,44.60,42.80,93.35,0.00,0.00,0.00,30.26,M,6.21,M,CLR,M,M,M,M,M,M,M,M,M,M,M,M,M,M,M,KQEI 201440Z AUTO 00000KT 9999 CLR 07/06 A3026 RMK A02 TSNO
QEQ,2020-10-20 14:40,127.5500,37.8500,44.60,46.40,M,90.00,1.00,0.00,30.26,M,3.73,M,CLR,M,M,M,M,M,M,M,M,M,M,M,M,M,M,M,KQEQ 201440Z AUTO 09001KT 6000 CLR 07/08 A3026 RMK A02 TSNO
QEW,2020-10-20 14:40,128.1500,36.4000,46.40,42.80,87.19,360.00,1.00,0.00,30.25,M,6.21,M,CLR,M,M,M,M,M,M,M,M,M,M,M,M,M,M,M,KQEW 201440Z AUTO 36001KT 9999 CLR 08/06 A3025 RMK A02 TSNO
QEP,2020-10-20 14:40,127.2667,37.4000,48.20,44.60,87.28,0.00,0.00,0.00,30.27,M,3.73,M,CLR,M,M,M,M,M,M,M,M,M,M,M,M,M,M,M,KQEP 201440Z AUTO 00000KT 6000 CLR 09/07 A3027 RMK A02 TSNO
QFT,2020-10-20 14:40,127.3500,37.6000,48.20,44.60,87.28,30.00,1.00,0.00,30.24,M,M,M,CLR,M,M,M,M,M,M,M,,M,M,M,M,M,M,M,KQFT 201440Z AUTO 03001KT / // CLR 09/07 A3024 RMK A02 TSNO
QFU,2020-10-20 14:40,126.9667,37.8000,48.20,41.00,76.01,0.00,0.00,0.00,30.28,M,3.73,M,CLR,M,M,M,M,M,M,M,HZ,M,M,M,M,M,M,M,KQFU 201440Z AUTO 00000KT 6000 HZ CLR 09/05 A3028 RMK A02 TSNO
QEX,2020-10-20 14:40,128.3000,36.1000,53.60,44.60,71.45,300.00,2.00,0.00,30.17,M,6.21,M,CLR,M,M,M,M,M,M,M,M,M,M,M,M,M,M,M,KQEX 201440Z AUTO 30002KT 9999 CLR 12/07 A3017 RMK A02 TSNO
QFW,2020-10-20 14:40,127.8833,37.6667,46.40,46.40,100.00,140.00,1.00,0.00,30.27,M,6.21,M,CLR,M,M,M,M,M,M,M,M,M,M,M,M,M,M,M,KQFW 201440Z AUTO 14001KT 9999 CLR 08/08 A3027 RMK A02 TSNO
QFB,2020-10-20 14:40,128.7167,35.6500,48.20,44.60,87.28,200.00,1.00,0.00,30.30,M,6.21,M,CLR,M,M,M,M,M,M,M,M,M,M,M,M,M,M,M,KQFB 201440Z AUTO 20001KT 9999 CLR 09/07 A3030 RMK A02 TSNO
QFV,2020-10-20 14:40,127.5000,38.0500,41.00,39.20,93.24,270.00,1.00,0.00,30.29,M,6.21,M,CLR,M,M,M,M,M,M,M,M,M,M,M,M,M,M,M,KQFV 201440Z AUTO 27001KT 9999 CLR 05/04 A3029 RMK A02 TSNO
RKJK,2020-10-20 14:41,126.6220,35.8994,55.40,53.60,93.65,100.00,3.00,0.00,30.20,1023.10,2.00,M,CLR,M,M,M,M,M,M,M,BR,M,M,M,M,M,M,M,RKJK 201441Z 10003KT 2SM BR CLR 13/12 A3020 RMK AO2A VIS 2V3 SLP231 $
QFB,2020-10-20 14:50,128.7167,35.6500,48.20,44.60,87.28,110.00,1.00,0.00,30.30,M,6.21,M,CLR,M,M,M,M,M,M,M,M,M,M,M,M,M,M,M,KQFB 201450Z AUTO 11001KT 9999 CLR 09/07 A3030 RMK A02 TSNO
QEN,2020-10-20 14:50,128.7500,37.6667,41.00,44.60,M,260.00,5.00,0.00,M,M,6.21,M,CLR,M,M,M,M,M,M,M,M,M,M,M,M,M,M,M,KQEN 201450Z AUTO 26005KT 9999 CLR 05/07 / RMK A02 TSNO
QES,2020-10-20 14:50,126.4500,36.9667,64.40,50.00,59.50,M,M,0.00,M,M,2.98,M,CLR,M,M,M,M,M,M,M,M,M,M,M,M,M,M,M,KQES 201450Z AUTO 4800 CLR 18/10 / RMK A02 TSNO
QEJ,2020-10-20 14:50,127.9500,38.2000,42.80,41.00,93.30,0.00,0.00,0.00,30.25,M,4.97,M,CLR,M,M,M,M,M,M,M,M,M,M,M,M,M,M,M,KQEJ 201450Z AUTO 00000KT 8000 CLR 06/05 A3025 RMK A02 TSNO
QEI,2020-10-20 14:50,128.0667,37.9500,42.80,41.00,93.30,120.00,1.00,0.00,30.26,M,6.21,M,CLR,M,M,M,M,M,M,M,M,M,M,M,M,M,M,M,KQEI 201450Z AUTO 12001KT 9999 CLR 06/05 A3026 RMK A02 TSNO
QEQ,2020-10-20 14:50,127.5500,37.8500,44.60,46.40,M,30.00,2.00,0.00,30.26,M,2.98,M,CLR,M,M,M,M,M,M,M,M,M,M,M,M,M,M,M,KQEQ 201450Z AUTO 03002KT 4800 CLR 07/08 A3026 RMK A02 TSNO
QEW,2020-10-20 14:50,128.1500,36.4000,46.40,42.80,87.19,300.00,1.00,0.00,30.24,M,6.21,M,CLR,M,M,M,M,M,M,M,M,M,M,M,M,M,M,M,KQEW 201450Z AUTO 30001KT 9999 CLR 08/06 A3024 RMK A02 TSNO
QEP,2020-10-20 14:50,127.2667,37.4000,48.20,44.60,87.28,110.00,1.00,0.00,30.27,M,3.73,M,CLR,M,M,M,M,M,M,M,M,M,M,M,M,M,M,M,KQEP 201450Z AUTO 11001KT 6000 CLR 09/07 A3027 RMK A02 TSNO
QFT,2020-10-20 14:50,127.3500,37.6000,46.40,42.80,87.19,150.00,1.00,0.00,30.25,M,M,M,CLR,M,M,M,M,M,M,M,,M,M,M,M,M,M,M,KQFT 201450Z AUTO 15001KT / // CLR 08/06 A3025 RMK A02 TSNO
QEX,2020-10-20 14:50,128.3000,36.1000,53.60,44.60,71.45,360.00,2.00,0.00,30.16,M,6.21,M,CLR,M,M,M,M,M,M,M,M,M,M,M,M,M,M,M,KQEX 201450Z AUTO 36002KT 9999 CLR 12/07 A3016 RMK A02 TSNO
QFW,2020-10-20 14:50,127.8833,37.6667,46.40,46.40,100.00,110.00,1.00,0.00,30.27,M,6.21,M,CLR,M,M,M,M,M,M,M,M,M,M,M,M,M,M,M,KQFW 201450Z AUTO 11001KT 9999 CLR 08/08 A3027 RMK A02 TSNO
QFV,2020-10-20 14:50,127.5000,38.0500,41.00,39.20,93.24,180.00,1.00,0.00,30.29,M,6.21,M,CLR,M,M,M,M,M,M,M,M,M,M,M,M,M,M,M,KQFV 201450Z AUTO 18001KT 9999 CLR 05/04 A3029 RMK A02 TSNO
RKJK,2020-10-20 14:51,126.6220,35.8994,55.40,53.60,93.65,100.00,4.00,0.00,30.20,1023.10,1.38,M,CLR,M,M,M,M,M,M,M,BR,M,M,M,M,M,M,M,RKJK 201451Z 10004KT 1 3/8SM BR CLR 13/12 A3020 RMK AO2A VIS 1 3/8V2 SLP231 $
RKJK,2020-10-20 14:56,126.6220,35.8994,54.00,52.90,96.05,0.00,0.00,0.00,30.20,1023.10,0.75,M,CLR,M,M,M,M,M,M,M,BR,M,M,M,M,M,M,M,RKJK 201456Z 00000KT 3/4SM R36/2000VP6000FT BR CLR 12/12 A3020 RMK AO2A VIS 3/4V1 7/8 SLP231 T01220116 402210074 50000 $
RKSG,2020-10-20 14:56,127.0311,36.9622,52.00,44.20,74.63,110.00,5.00,0.00,30.22,1023.70,3.00,M,CLR,M,M,M,M,M,M,M,HZ,M,M,M,M,M,M,M,RKSG 201456Z 11005KT 3SM HZ CLR 11/07 A3022 RMK AO2A SLP237 T01110068 402120078 55004 $
RKSO,2020-10-20 14:58,127.0296,37.0906,47.50,47.30,99.25,90.00,8.00,0.00,30.21,1023.30,4.00,M,FEW,M,M,M,25000.00,M,M,M,BR,M,M,M,M,M,M,43.21,RKSO 201458Z 09008KT 4SM BR FEW250 09/09 A3021 RMK AO2A SLP233 T00860085 402190075 55003 $
RKSY,2020-10-20 14:58,126.9753,37.5241,49.10,46.60,91.04,0.00,0.00,0.00,30.21,1023.30,6.21,M,CLR,M,M,M,M,M,M,M,M,M,M,M,M,M,M,M,RKSY 201458Z AUTO 00000KT 9999 CLR 10/08 A3021 RMK AO2 SLP233 T00950081 57006 $
QFB,2020-10-20 15:00,128.7167,35.6500,48.20,44.60,87.28,240.00,1.00,0.00,30.29,M,6.21,M,CLR,M,M,M,M,M,M,M,M,M,M,M,M,M,M,M,KQFB 201500Z AUTO 24001KT 9999 CLR 09/07 A3029 RMK A02 TSNO
QEN,2020-10-20 15:00,128.7500,37.6667,41.00,44.60,M,250.00,4.00,0.00,M,M,6.21,M,CLR,M,M,M,M,M,M,M,M,M,M,M,M,M,M,M,KQEN 201500Z AUTO 25004KT 9999 CLR 05/07 / RMK A02 TSNO
QES,2020-10-20 15:00,126.4500,36.9667,64.40,50.00,59.50,M,M,0.00,M,M,2.98,M,SCT,M,M,M,24000.00,M,M,M,M,M,M,M,M,M,M,M,KQES 201500Z AUTO 4800 SCT240 18/10 / RMK A02 TSNO
QEJ,2020-10-20 15:00,127.9500,38.2000,42.80,41.00,93.30,0.00,0.00,0.00,30.24,M,5.59,M,CLR,M,M,M,M,M,M,M,M,M,M,M,M,M,M,M,KQEJ 201500Z AUTO 00000KT 9000 CLR 06/05 A3024 RMK A02 TSNO
QEI,2020-10-20 15:00,128.0667,37.9500,42.80,41.00,93.30,120.00,1.00,0.00,30.26,M,6.21,M,CLR,M,M,M,M,M,M,M,M,M,M,M,M,M,M,M,KQEI 201500Z AUTO 12001KT 9999 CLR 06/05 A3026 RMK A02 TSNO
QEQ,2020-10-20 15:00,127.5500,37.8500,44.60,46.40,M,340.00,2.00,0.00,30.26,M,2.98,M,CLR,M,M,M,M,M,M,M,M,M,M,M,M,M,M,M,KQEQ 201500Z AUTO 34002KT 4800 CLR 07/08 A3026 RMK A02 TSNO
QEW,2020-10-20 15:00,128.1500,36.4000,46.40,42.80,87.19,270.00,2.00,0.00,30.24,M,6.21,M,CLR,M,M,M,M,M,M,M,M,M,M,M,M,M,M,M,KQEW 201500Z AUTO 27002KT 9999 CLR 08/06 A3024 RMK A02 TSNO
QEP,2020-10-20 15:00,127.2667,37.4000,46.40,44.60,93.40,130.00,2.00,0.00,30.26,M,3.73,M,CLR,M,M,M,M,M,M,M,M,M,M,M,M,M,M,M,KQEP 201500Z AUTO 13002KT 6000 CLR 08/07 A3026 RMK A02 TSNO
QFT,2020-10-20 15:00,127.3500,37.6000,46.40,42.80,87.19,110.00,1.00,0.00,30.23,M,M,M,CLR,M,M,M,M,M,M,M,,M,M,M,M,M,M,M,KQFT 201500Z AUTO 11001KT / // CLR 08/06 A3023 RMK A02 TSNO
QFU,2020-10-20 15:00,126.9667,37.8000,46.40,41.00,81.34,250.00,1.00,0.00,30.27,M,3.73,M,CLR,M,M,M,M,M,M,M,HZ,M,M,M,M,M,M,M,KQFU 201500Z AUTO 25001KT 6000 HZ CLR 08/05 A3027 RMK A02 TSNO
QEX,2020-10-20 15:00,128.3000,36.1000,51.80,44.60,76.34,330.00,2.00,0.00,30.17,M,6.21,M,CLR,M,M,M,M,M,M,M,M,M,M,M,M,M,M,M,KQEX 201500Z AUTO 33002KT 9999 CLR 11/07 A3017 RMK A02 TSNO
QFW,2020-10-20 15:00,127.8833,37.6667,46.40,46.40,100.00,140.00,1.00,0.00,30.27,M,6.21,M,CLR,M,M,M,M,M,M,M,M,M,M,M,M,M,M,M,KQFW 201500Z AUTO 14001KT 9999 CLR 08/08 A3027 RMK A02 TSNO
QFV,2020-10-20 15:00,127.5000,38.0500,41.00,39.20,93.24,260.00,2.00,0.00,30.29,M,6.21,M,CLR,M,M,M,M,M,M,M,M,M,M,M,M,M,M,M,KQFV 201500Z AUTO 26002KT 9999 CLR 05/04 A3029 RMK A02 TSNO
RKJB,2020-10-20 15:00,126.3800,34.9800,53.60,50.00,87.56,90.00,3.00,0.00,30.24,M,3.11,M,NCD,M,M,M,M,M,M,M,BR,M,M,M,M,M,M,M,RKJB 201500Z AUTO 09003KT 5000 BR NCD 12/10 Q1024
RKPC,2020-10-20 15:00,126.4930,33.5113,62.60,55.40,77.29,110.00,9.00,0.00,30.18,M,6.21,M,FEW,BKN,M,M,3000.00,23000.00,M,M,M,M,M,M,M,M,M,M,RKPC 201500Z 11009KT 9999 FEW030 BKN230 17/13 Q1022 NOSIG
RKNY,2020-10-20 15:00,128.6692,38.0613,50.00,44.60,81.61,220.00,1.00,0.00,30.21,M,6.21,M,NCD,M,M,M,M,M,M,M,M,M,M,M,M,M,M,M,RKNY 201500Z AUTO 22001KT 9999 NCD 10/07 Q1023
RKSS,2020-10-20 15:00,126.7906,37.5583,46.40,46.40,100.00,300.00,2.00,0.00,30.21,M,3.73,M,NSC,M,M,M,M,M,M,M,M,M,M,M,M,M,M,M,RKSS 201500Z 30002KT 6000 NSC 08/08 Q1023 NOSIG
RKTN,2020-10-20 15:00,128.6589,35.8941,53.60,46.40,76.50,100.00,6.00,0.00,30.24,M,6.21,M,M,M,M,M,M,M,M,M,M,M,M,M,M,M,M,M,RKTN 201500Z 10006KT CAVOK 12/08 Q1024
RKTU,2020-10-20 15:00,127.4991,36.7166,44.60,44.60,100.00,240.00,1.00,0.00,30.24,M,4.97,M,NSC,M,M,M,M,M,M,M,M,M,M,M,M,M,M,M,RKTU 201500Z 24001KT 8000 NSC 07/07 Q1024
RKPK,2020-10-20 15:00,128.9382,35.1795,53.60,46.40,76.50,310.00,1.00,0.00,30.21,M,6.21,M,FEW,M,M,M,3000.00,M,M,M,M,M,M,M,M,M,M,M,RKPK 201500Z 31001KT 9999 FEW030 12/08 Q1023
RKSI,2020-10-20 15:00,126.4500,37.4667,57.20,48.20,71.83,50.00,3.00,0.00,30.21,M,4.35,M,NSC,M,M,M,M,M,M,M,M,M,M,M,M,M,M,M,RKSI 201500Z 05003KT 7000 NSC 14/09 Q1023 NOSIG
RKSM,2020-10-20 15:00,127.1139,37.4458,50.00,44.60,81.61,230.00,1.00,0.00,30.24,M,6.21,M,SCT,M,M,M,20000.00,M,M,M,M,M,M,M,M,M,M,M,RKSM 201500Z 23001KT 9999 SCT200 10/07 A3024
RKJK,2020-10-20 15:06,126.6220,35.8994,53.60,53.60,100.00,0.00,0.00,0.00,30.20,1023.10,1.00,M,CLR,M,M,M,M,M,M,M,BR,M,M,M,M,M,M,M,RKJK 201506Z AUTO 00000KT 1SM R36/3500VP6000FT BR CLR 12/12 A3020 RMK AO2 VIS 1/2V1 SLP231 $
RKJK,2020-10-20 15:07,126.6220,35.8994,53.60,53.60,100.00,0.00,0.00,0.00,30.20,1023.10,1.12,M,CLR,M,M,M,M,M,M,M,BR,M,M,M,M,M,M,M,RKJK 201507Z AUTO 00000KT 1 1/8SM BR CLR 12/12 A3020 RMK AO2 VIS 1/2V1 1/8 SLP231 $
QFB,2020-10-20 15:10,128.7167,35.6500,48.20,44.60,87.28,300.00,3.00,0.00,30.30,M,6.21,M,CLR,M,M,M,M,M,M,M,M,M,M,M,M,M,M,47.21,KQFB 201510Z AUTO 30003KT 9999 CLR 09/07 A3030 RMK A02 TSNO
QEN,2020-10-20 15:10,128.7500,37.6667,41.00,44.60,M,260.00,4.00,0.00,M,M,6.21,M,CLR,M,M,M,M,M,M,M,M,M,M,M,M,M,M,M,KQEN 201510Z AUTO 26004KT 9999 CLR 05/07 / RMK A02 TSNO
QES,2020-10-20 15:10,126.4500,36.9667,64.40,50.00,59.50,M,M,0.00,M,M,2.98,M,BKN,M,M,M,23000.00,M,M,M,BR,M,M,M,M,M,M,M,KQES 201510Z AUTO 4800 BR BKN230 18/10 / RMK A02 TSNO
QEJ,2020-10-20 15:10,127.9500,38.2000,42.80,41.00,93.30,140.00,1.00,0.00,30.25,M,5.59,M,CLR,M,M,M,M,M,M,M,M,M,M,M,M,M,M,M,KQEJ 201510Z AUTO 14001KT 9000 CLR 06/05 A3025 RMK A02 TSNO
QEI,2020-10-20 15:10,128.0667,37.9500,42.80,41.00,93.30,150.00,1.00,0.00,30.25,M,6.21,M,CLR,M,M,M,M,M,M,M,M,M,M,M,M,M,M,M,KQEI 201510Z AUTO 15001KT 9999 CLR 06/05 A3025 RMK A02 TSNO
QEQ,2020-10-20 15:10,127.5500,37.8500,44.60,46.40,M,20.00,1.00,0.00,30.26,M,2.98,M,CLR,M,M,M,M,M,M,M,M,M,M,M,M,M,M,M,KQEQ 201510Z AUTO 02001KT 4800 CLR 07/08 A3026 RMK A02 TSNO
QEW,2020-10-20 15:10,128.1500,36.4000,46.40,42.80,87.19,250.00,2.00,0.00,30.25,M,6.21,M,CLR,M,M,M,M,M,M,M,M,M,M,M,M,M,M,M,KQEW 201510Z AUTO 25002KT 9999 CLR 08/06 A3025 RMK A02 TSNO
QEP,2020-10-20 15:10,127.2667,37.4000,46.40,44.60,93.40,40.00,1.00,0.00,30.26,M,3.73,M,CLR,M,M,M,M,M,M,M,M,M,M,M,M,M,M,M,KQEP 201510Z AUTO 04001KT 6000 CLR 08/07 A3026 RMK A02 TSNO
QFT,2020-10-20 15:10,127.3500,37.6000,46.40,42.80,87.19,0.00,0.00,0.00,30.23,M,M,M,CLR,M,M,M,M,M,M,M,,M,M,M,M,M,M,M,KQFT 201510Z AUTO 00000KT / // CLR 08/06 A3023 RMK A02 TSNO
QFU,2020-10-20 15:10,126.9667,37.8000,46.40,41.00,81.34,0.00,0.00,0.00,30.27,M,2.98,M,CLR,M,M,M,M,M,M,M,HZ,M,M,M,M,M,M,M,KQFU 201510Z AUTO 00000KT 4800 HZ CLR 08/05 A3027 RMK A02 TSNO
QEX,2020-10-20 15:10,128.3000,36.1000,51.80,46.40,81.74,350.00,3.00,0.00,30.17,M,6.21,M,CLR,M,M,M,M,M,M,M,M,M,M,M,M,M,M,M,KQEX 201510Z AUTO 35003KT 9999 CLR 11/08 A3017 RMK A02 TSNO
QFW,2020-10-20 15:10,127.8833,37.6667,46.40,46.40,100.00,100.00,1.00,0.00,30.27,M,6.21,M,CLR,M,M,M,M,M,M,M,M,M,M,M,M,M,M,M,KQFW 201510Z AUTO 10001KT 9999 CLR 08/08 A3027 RMK A02 TSNO
QFV,2020-10-20 15:10,127.5000,38.0500,41.00,39.20,93.24,270.00,1.00,0.00,30.29,M,6.21,M,CLR,M,M,M,M,M,M,M,M,M,M,M,M,M,M,M,KQFV 201510Z AUTO 27001KT 9999 CLR 05/04 A3029 RMK A02 TSNO
RKJK,2020-10-20 15:17,126.6220,35.8994,55.40,53.60,93.65,120.00,3.00,0.00,30.20,1023.10,2.00,M,CLR,M,M,M,M,M,M,M,BR,M,M,M,M,M,M,M,RKJK 201517Z AUTO 12003KT 2SM BR CLR 13/12 A3020 RMK AO2 VIS 1 1/4V2 SLP231 $
QFB,2020-10-20 15:20,128.7167,35.6500,46.40,44.60,93.40,260.00,1.00,0.00,30.31,M,6.21,M,CLR,M,M,M,M,M,M,M,M,M,M,M,M,M,M,M,KQFB 201520Z AUTO 26001KT 9999 CLR 08/07 A3031 RMK A02 TSNO
QEN,2020-10-20 15:20,128.7500,37.6667,41.00,44.60,M,260.00,4.00,0.00,M,M,4.97,M,CLR,M,M,M,M,M,M,M,M,M,M,M,M,M,M,M,KQEN 201520Z AUTO 26004KT 8000 CLR 05/07 / RMK A02 TSNO
QES,2020-10-20 15:20,126.4500,36.9667,64.40,50.00,59.50,M,M,0.00,M,M,2.98,M,BKN,M,M,M,23000.00,M,M,M,M,M,M,M,M,M,M,M,KQES 201520Z AUTO 4800 BKN230 18/10 / RMK A02 TSNO
QEJ,2020-10-20 15:20,127.9500,38.2000,41.00,41.00,100.00,0.00,0.00,0.00,30.24,M,4.97,M,CLR,M,M,M,M,M,M,M,M,M,M,M,M,M,M,M,KQEJ 201520Z AUTO 00000KT 8000 CLR 05/05 A3024 RMK A02 TSNO
QEI,2020-10-20 15:20,128.0667,37.9500,42.80,41.00,93.30,0.00,0.00,0.00,30.26,M,6.21,M,CLR,M,M,M,M,M,M,M,M,M,M,M,M,M,M,M,KQEI 201520Z AUTO 00000KT 9999 CLR 06/05 A3026 RMK A02 TSNO
QEQ,2020-10-20 15:20,127.5500,37.8500,44.60,46.40,M,60.00,1.00,0.00,30.25,M,2.49,M,CLR,M,M,M,M,M,M,M,BR,M,M,M,M,M,M,M,KQEQ 201520Z AUTO 06001KT 4000 BR CLR 07/08 A3025 RMK A02 TSNO
QEW,2020-10-20 15:20,128.1500,36.4000,46.40,42.80,87.19,160.00,5.00,0.00,30.25,M,6.21,M,CLR,M,M,M,M,M,M,M,M,M,M,M,M,M,M,43.50,KQEW 201520Z AUTO 16005KT 9999 CLR 08/06 A3025 RMK A02 TSNO
QEP,2020-10-20 15:20,127.2667,37.4000,46.40,44.60,93.40,110.00,1.00,0.00,30.26,M,3.73,M,CLR,M,M,M,M,M,M,M,M,M,M,M,M,M,M,M,KQEP 201520Z AUTO 11001KT 6000 CLR 08/07 A3026 RMK A02 TSNO
QFT,2020-10-20 15:20,127.3500,37.6000,46.40,44.60,93.40,30.00,1.00,0.00,30.22,M,M,M,CLR,M,M,M,M,M,M,M,,M,M,M,M,M,M,M,KQFT 201520Z AUTO 03001KT / // CLR 08/07 A3022 RMK A02 TSNO
QFU,2020-10-20 15:20,126.9667,37.8000,46.40,41.00,81.34,90.00,1.00,0.00,30.26,M,2.98,M,CLR,M,M,M,M,M,M,M,HZ,M,M,M,M,M,M,M,KQFU 201520Z AUTO 09001KT 4800 HZ CLR 08/05 A3026 RMK A02 TSNO
QEX,2020-10-20 15:20,128.3000,36.1000,50.00,46.40,87.37,40.00,2.00,0.00,30.17,M,6.21,M,CLR,M,M,M,M,M,M,M,M,M,M,M,M,M,M,M,KQEX 201520Z AUTO 04002KT 9999 CLR 10/08 A3017 RMK A02 TSNO
QFW,2020-10-20 15:20,127.8833,37.6667,46.40,46.40,100.00,150.00,1.00,0.00,30.27,M,6.21,M,CLR,M,M,M,M,M,M,M,M,M,M,M,M,M,M,M,KQFW 201520Z AUTO 15001KT 9999 CLR 08/08 A3027 RMK A02 TSNO
QFV,2020-10-20 15:20,127.5000,38.0500,41.00,39.20,93.24,140.00,2.00,0.00,30.28,M,6.21,M,FEW,M,M,M,25000.00,M,M,M,M,M,M,M,M,M,M,M,KQFV 201520Z AUTO 14002KT 9999 FEW250 05/04 A3028 RMK A02 TSNO
RKJK,2020-10-20 15:27,126.6220,35.8994,55.40,53.60,93.65,110.00,5.00,0.00,30.20,1023.10,1.38,M,CLR,M,M,M,M,M,M,M,BR,M,M,M,M,M,M,M,RKJK 201527Z AUTO 11005KT 1 3/8SM BR CLR 13/12 A3020 RMK AO2 VIS 1 3/8V2 SLP231 $
QFB,2020-10-20 15:30,128.7167,35.6500,48.20,44.60,87.28,280.00,1.00,0.00,30.31,M,6.21,M,CLR,M,M,M,M,M,M,M,M,M,M,M,M,M,M,M,KQFB 201530Z AUTO 28001KT 9999 CLR 09/07 A3031 RMK A02 TSNO
QEN,2020-10-20 15:30,128.7500,37.6667,41.00,44.60,M,260.00,5.00,0.00,M,M,6.21,M,CLR,M,M,M,M,M,M,M,M,M,M,M,M,M,M,M,KQEN 201530Z AUTO 26005KT 9999 CLR 05/07 / RMK A02 TSNO
QES,2020-10-20 15:30,126.4500,36.9667,64.40,50.00,59.50,M,M,0.00,M,M,2.98,M,BKN,M,M,M,23000.00,M,M,M,BR,M,M,M,M,M,M,M,KQES 201530Z AUTO 4800 BR BKN230 18/10 / RMK A02 TSNO
QEJ,2020-10-20 15:30,127.9500,38.2000,41.00,41.00,100.00,200.00,1.00,0.00,30.25,M,5.59,M,CLR,M,M,M,M,M,M,M,M,M,M,M,M,M,M,M,KQEJ 201530Z AUTO 20001KT 9000 CLR 05/05 A3025 RMK A02 TSNO
QEI,2020-10-20 15:30,128.0667,37.9500,42.80,41.00,93.30,0.00,0.00,0.00,30.25,M,6.21,M,CLR,M,M,M,M,M,M,M,M,M,M,M,M,M,M,M,KQEI 201530Z AUTO 00000KT 9999 CLR 06/05 A3025 RMK A02 TSNO
QEQ,2020-10-20 15:30,127.5500,37.8500,44.60,44.60,100.00,50.00,3.00,0.00,30.24,M,2.49,M,CLR,M,M,M,M,M,M,M,BR,M,M,M,M,M,M,43.09,KQEQ 201530Z AUTO 05003KT 4000 BR CLR 07/07 A3024 RMK A02 TSNO
QEW,2020-10-20 15:30,128.1500,36.4000,44.60,42.80,93.35,160.00,3.00,0.00,30.25,M,6.21,M,CLR,M,M,M,M,M,M,M,M,M,M,M,M,M,M,43.09,KQEW 201530Z AUTO 16003KT 9999 CLR 07/06 A3025 RMK A02 TSNO
QEP,2020-10-20 15:30,127.2667,37.4000,46.40,44.60,93.40,10.00,1.00,0.00,30.26,M,3.73,M,CLR,M,M,M,M,M,M,M,M,M,M,M,M,M,M,M,KQEP 201530Z AUTO 01001KT 6000 CLR 08/07 A3026 RMK A02 TSNO
QFT,2020-10-20 15:30,127.3500,37.6000,46.40,42.80,87.19,170.00,1.00,0.00,30.23,M,M,M,CLR,M,M,M,M,M,M,M,,M,M,M,M,M,M,M,KQFT 201530Z AUTO 17001KT / // CLR 08/06 A3023 RMK A02 TSNO
QFU,2020-10-20 15:30,126.9667,37.8000,46.40,41.00,81.34,20.00,1.00,0.00,30.26,M,3.73,M,CLR,M,M,M,M,M,M,M,HZ,M,M,M,M,M,M,M,KQFU 201530Z AUTO 02001KT 6000 HZ CLR 08/05 A3026 RMK A02 TSNO
QEX,2020-10-20 15:30,128.3000,36.1000,50.00,46.40,87.37,10.00,1.00,0.00,30.18,M,6.21,M,CLR,M,M,M,M,M,M,M,M,M,M,M,M,M,M,M,KQEX 201530Z AUTO 01001KT 9999 CLR 10/08 A3018 RMK A02 TSNO
QFW,2020-10-20 15:30,127.8833,37.6667,44.60,46.40,M,130.00,1.00,0.00,30.27,M,6.21,M,CLR,M,M,M,M,M,M,M,M,M,M,M,M,M,M,M,KQFW 201530Z AUTO 13001KT 9999 CLR 07/08 A3027 RMK A02 TSNO
QFV,2020-10-20 15:30,127.5000,38.0500,41.00,39.20,93.24,90.00,2.00,0.00,30.28,M,5.59,M,FEW,M,M,M,25000.00,M,M,M,,M,M,M,M,M,M,M,KQFV 201530Z AUTO 09002KT 9000 // FEW250 05/04 A3028 RMK A02 TSNO
RKSI,2020-10-20 15:30,126.4500,37.4667,55.40,48.20,76.66,90.00,1.00,0.00,30.18,M,5.59,M,NSC,M,M,M,M,M,M,M,M,M,M,M,M,M,M,M,RKSI 201530Z 09001KT 9000 NSC 13/09 Q1022 NOSIG
RKJK,2020-10-20 15:37,126.6220,35.8994,53.60,53.60,100.00,110.00,3.00,0.00,30.20,1023.10,1.62,M,CLR,M,M,M,M,M,M,M,BR,M,M,M,M,M,M,M,RKJK 201537Z AUTO 11003KT 1 5/8SM BR CLR 12/12 A3020 RMK AO2 SLP231 $
QFT,2020-10-20 15:40,127.3500,37.6000,46.40,42.80,87.19,170.00,1.00,0.00,30.23,M,M,M,CLR,M,M,M,M,M,M,M,,M,M,M,M,M,M,M,KQFT 201540Z AUTO 17001KT / // CLR 08/06 A3023 RMK A02 TSNO
QFU,2020-10-20 15:40,126.9667,37.8000,46.40,41.00,81.34,0.00,0.00,0.00,30.25,M,3.73,M,CLR,M,M,M,M,M,M,M,HZ,M,M,M,M,M,M,M,KQFU 201540Z AUTO 00000KT 6000 HZ CLR 08/05 A3025 RMK A02 TSNO
QEX,2020-10-20 15:40,128.3000,36.1000,51.80,44.60,76.34,320.00,1.00,0.00,30.18,M,6.21,M,FEW,M,M,M,24000.00,M,M,M,M,M,M,M,M,M,M,M,KQEX 201540Z AUTO 32001KT 9999 FEW240 11/07 A3018 RMK A02 TSNO
QFW,2020-10-20 15:40,127.8833,37.6667,44.60,46.40,M,20.00,2.00,0.00,30.26,M,6.21,M,CLR,M,M,M,M,M,M,M,M,M,M,M,M,M,M,M,KQFW 201540Z AUTO 02002KT 9999 CLR 07/08 A3026 RMK A02 TSNO
QFV,2020-10-20 15:40,127.5000,38.0500,41.00,39.20,93.24,100.00,1.00,0.00,30.27,M,5.59,M,FEW,M,M,M,25000.00,M,M,M,,M,M,M,M,M,M,M,KQFV 201540Z AUTO 10001KT 9000 // FEW250 05/04 A3027 RMK A02 TSNO
QFB,2020-10-20 15:40,128.7167,35.6500,46.40,44.60,93.40,290.00,3.00,0.00,30.32,M,6.21,M,SCT,M,M,M,24000.00,M,M,M,M,M,M,M,M,M,M,45.15,KQFB 201540Z AUTO 29003KT 9999 SCT240 08/07 A3032 RMK A02 TSNO
QEN,2020-10-20 15:40,128.7500,37.6667,41.00,44.60,M,260.00,5.00,0.00,M,M,6.21,M,CLR,M,M,M,M,M,M,M,M,M,M,M,M,M,M,M,KQEN 201540Z AUTO 26005KT 9999 CLR 05/07 / RMK A02 TSNO
QES,2020-10-20 15:40,126.4500,36.9667,64.40,50.00,59.50,M,M,0.00,M,M,2.98,M,BKN,M,M,M,23000.00,M,M,M,BR,M,M,M,M,M,M,M,KQES 201540Z AUTO 4800 BR BKN230 18/10 / RMK A02 TSNO
QEJ,2020-10-20 15:40,127.9500,38.2000,41.00,39.20,93.24,0.00,0.00,0.00,30.25,M,4.97,M,CLR,M,M,M,M,M,M,M,M,M,M,M,M,M,M,M,KQEJ 201540Z AUTO 00000KT 8000 CLR 05/04 A3025 RMK A02 TSNO
QEI,2020-10-20 15:40,128.0667,37.9500,42.80,41.00,93.30,140.00,1.00,0.00,30.26,M,6.21,M,CLR,M,M,M,M,M,M,M,M,M,M,M,M,M,M,M,KQEI 201540Z AUTO 14001KT 9999 CLR 06/05 A3026 RMK A02 TSNO
QEQ,2020-10-20 15:40,127.5500,37.8500,44.60,46.40,M,60.00,1.00,0.00,30.24,M,2.98,M,FEW,M,M,M,23000.00,M,M,M,M,M,M,M,M,M,M,M,KQEQ 201540Z AUTO 06001KT 4800 FEW230 07/08 A3024 RMK A02 TSNO
QEW,2020-10-20 15:40,128.1500,36.4000,44.60,42.80,93.35,220.00,2.00,0.00,30.26,M,6.21,M,FEW,M,M,M,24000.00,M,M,M,M,M,M,M,M,M,M,M,KQEW 201540Z AUTO 22002KT 9999 FEW240 07/06 A3026 RMK A02 TSNO
QEP,2020-10-20 15:40,127.2667,37.4000,46.40,44.60,93.40,190.00,1.00,0.00,30.25,M,3.73,M,CLR,M,M,M,M,M,M,M,M,M,M,M,M,M,M,M,KQEP 201540Z AUTO 19001KT 6000 CLR 08/07 A3025 RMK A02 TSNO
RKJK,2020-10-20 15:47,126.6220,35.8994,53.60,51.80,93.60,100.00,3.00,0.00,30.19,1022.80,2.00,M,CLR,M,M,M,M,M,M,M,BR,M,M,M,M,M,M,M,RKJK 201547Z AUTO 10003KT 2SM BR CLR 12/11 A3019 RMK AO2 SLP228 $
QFT,2020-10-20 15:50,127.3500,37.6000,46.40,42.80,87.19,180.00,1.00,0.00,30.22,M,M,M,CLR,M,M,M,M,M,M,M,,M,M,M,M,M,M,M,KQFT 201550Z AUTO 18001KT / // CLR 08/06 A3022 RMK A02 TSNO
QFU,2020-10-20 15:50,126.9667,37.8000,46.40,41.00,81.34,90.00,1.00,0.00,30.25,M,3.73,M,FEW,M,M,M,23000.00,M,M,M,HZ,M,M,M,M,M,M,M,KQFU 201550Z AUTO 09001KT 6000 HZ FEW230 08/05 A3025 RMK A02 TSNO
QEX,2020-10-20 15:50,128.3000,36.1000,51.80,44.60,76.34,340.00,1.00,0.00,30.19,M,6.21,M,SCT,M,M,M,24000.00,M,M,M,M,M,M,M,M,M,M,M,KQEX 201550Z AUTO 34001KT 9999 SCT240 11/07 A3019 RMK A02 TSNO
QFW,2020-10-20 15:50,127.8833,37.6667,44.60,44.60,100.00,20.00,2.00,0.00,30.25,M,6.21,M,CLR,M,M,M,M,M,M,M,M,M,M,M,M,M,M,M,KQFW 201550Z AUTO 02002KT 9999 CLR 07/07 A3025 RMK A02 TSNO
QFV,2020-10-20 15:50,127.5000,38.0500,41.00,39.20,93.24,130.00,1.00,0.00,30.27,M,6.21,M,CLR,M,M,M,M,M,M,M,M,M,M,M,M,M,M,M,KQFV 201550Z AUTO 13001KT 9999 CLR 05/04 A3027 RMK A02 TSNO
QFB,2020-10-20 15:50,128.7167,35.6500,46.40,44.60,93.40,290.00,2.00,0.00,30.33,M,6.21,M,BKN,M,M,M,24000.00,M,M,M,M,M,M,M,M,M,M,M,KQFB 201550Z AUTO 29002KT 9999 BKN240 08/07 A3033 RMK A02 TSNO
QEN,2020-10-20 15:50,128.7500,37.6667,41.00,44.60,M,260.00,5.00,0.00,M,M,5.59,M,CLR,M,M,M,M,M,M,M,M,M,M,M,M,M,M,M,KQEN 201550Z AUTO 26005KT 9000 CLR 05/07 / RMK A02 TSNO
QES,2020-10-20 15:50,126.4500,36.9667,64.40,50.00,59.50,M,M,0.00,M,M,2.98,M,BKN,M,M,M,23000.00,M,M,M,M,M,M,M,M,M,M,M,KQES 201550Z AUTO 4800 BKN230 18/10 / RMK A02 TSNO
QEJ,2020-10-20 15:50,127.9500,38.2000,41.00,41.00,100.00,0.00,0.00,0.00,30.24,M,3.73,M,CLR,M,M,M,M,M,M,M,M,M,M,M,M,M,M,M,KQEJ 201550Z AUTO 00000KT 6000 CLR 05/05 A3024 RMK A02 TSNO
QEI,2020-10-20 15:50,128.0667,37.9500,42.80,41.00,93.30,0.00,0.00,0.00,30.25,M,6.21,M,CLR,M,M,M,M,M,M,M,M,M,M,M,M,M,M,M,KQEI 201550Z AUTO 00000KT 9999 CLR 06/05 A3025 RMK A02 TSNO
QEQ,2020-10-20 15:50,127.5500,37.8500,44.60,46.40,M,30.00,1.00,0.00,30.24,M,3.73,M,SCT,M,M,M,22000.00,M,M,M,M,M,M,M,M,M,M,M,KQEQ 201550Z AUTO 03001KT 6000 SCT220 07/08 A3024 RMK A02 TSNO
QEW,2020-10-20 15:50,128.1500,36.4000,44.60,42.80,93.35,270.00,2.00,0.00,30.26,M,6.21,M,SCT,M,M,M,24000.00,M,M,M,M,M,M,M,M,M,M,M,KQEW 201550Z AUTO 27002KT 9999 SCT240 07/06 A3026 RMK A02 TSNO
QEP,2020-10-20 15:50,127.2667,37.4000,46.40,44.60,93.40,210.00,1.00,0.00,30.25,M,3.73,M,CLR,M,M,M,M,M,M,M,M,M,M,M,M,M,M,M,KQEP 201550Z AUTO 21001KT 6000 CLR 08/07 A3025 RMK A02 TSNO
RKJK,2020-10-20 15:56,126.6220,35.8994,52.90,51.40,94.62,100.00,5.00,0.00,30.19,1022.80,1.88,M,CLR,M,M,M,M,M,M,M,BR,M,M,M,M,M,M,M,RKJK 201556Z AUTO 10005KT 1 7/8SM BR CLR 12/11 A3019 RMK AO2 SLP228 T01160108 $
RKSG,2020-10-20 15:56,127.0311,36.9622,51.60,43.90,74.88,0.00,0.00,0.00,30.20,1023.00,3.00,M,CLR,M,M,M,M,M,M,M,HZ,M,M,M,M,M,M,M,RKSG 201556Z 00000KT 3SM HZ CLR 11/07 A3020 RMK AO2A SLP230 T01090066 $
RKSY,2020-10-20 15:58,126.9753,37.5241,50.50,48.20,91.78,0.00,0.00,0.00,30.19,1022.60,6.21,M,BKN,M,M,M,24000.00,M,M,M,M,M,M,M,M,M,M,M,RKSY 201558Z AUTO 00000KT 9999 BKN240 10/09 A3019 RMK AO2 SLP226 T01030090 $
RKSO,2020-10-20 15:58,127.0296,37.0906,47.70,47.30,98.51,90.00,7.00,0.00,30.20,1023.00,4.00,M,FEW,M,M,M,25000.00,M,M,M,BR,M,M,M,M,M,M,43.92,RKSO 201558Z 09007KT 4SM BR FEW250 09/09 A3020 RMK AO2A SLP230 T00870085 $
QFB,2020-10-20 16:00,128.7167,35.6500,46.40,44.60,93.40,270.00,1.00,0.00,30.32,M,6.21,M,BKN,M,M,M,24000.00,M,M,M,M,M,M,M,M,M,M,M,KQFB 201600Z AUTO 27001KT 9999 BKN240 08/07 A3032 RMK A02 TSNO
QEN,2020-10-20 16:00,128.7500,37.6667,41.00,44.60,M,260.00,5.00,0.00,M,M,4.97,M,CLR,M,M,M,M,M,M,M,M,M,M,M,M,M,M,M,KQEN 201600Z AUTO 26005KT 8000 CLR 05/07 / RMK A02 TSNO
QES,2020-10-20 16:00,126.4500,36.9667,64.40,50.00,59.50,M,M,0.00,M,M,3.73,M,BKN,M,M,M,23000.00,M,M,M,M,M,M,M,M,M,M,M,KQES 201600Z AUTO 6000 BKN230 18/10 / RMK A02 TSNO
QEJ,2020-10-20 16:00,127.9500,38.2000,41.00,41.00,100.00,0.00,0.00,0.00,30.23,M,5.59,M,FEW,M,M,M,25000.00,M,M,M,M,M,M,M,M,M,M,M,KQEJ 201600Z AUTO 00000KT 9000 FEW250 05/05 A3023 RMK A02 TSNO
QEI,2020-10-20 16:00,128.0667,37.9500,42.80,41.00,93.30,0.00,0.00,0.00,30.24,M,6.21,M,CLR,M,M,M,M,M,M,M,M,M,M,M,M,M,M,M,KQEI 201600Z AUTO 00000KT 9999 CLR 06/05 A3024 RMK A02 TSNO
QEQ,2020-10-20 16:00,127.5500,37.8500,44.60,46.40,M,20.00,1.00,0.00,30.24,M,3.73,M,FEW,M,M,M,22000.00,M,M,M,M,M,M,M,M,M,M,M,KQEQ 201600Z AUTO 02001KT 6000 FEW220 07/08 A3024 RMK A02 TSNO
QEW,2020-10-20 16:00,128.1500,36.4000,46.40,42.80,87.19,0.00,0.00,0.00,30.26,M,6.21,M,BKN,M,M,M,24000.00,M,M,M,M,M,M,M,M,M,M,M,KQEW 201600Z AUTO 00000KT 9999 BKN240 08/06 A3026 RMK A02 TSNO
QEP,2020-10-20 16:00,127.2667,37.4000,46.40,44.60,93.40,50.00,1.00,0.00,30.24,M,3.73,M,CLR,M,M,M,M,M,M,M,M,M,M,M,M,M,M,M,KQEP 201600Z AUTO 05001KT 6000 CLR 08/07 A3024 RMK A02 TSNO
QFU,2020-10-20 16:00,126.9667,37.8000,46.40,41.00,81.34,240.00,1.00,0.00,30.25,M,3.73,M,BKN,M,M,M,23000.00,M,M,M,HZ,M,M,M,M,M,M,M,KQFU 201600Z AUTO 24001KT 6000 HZ BKN230 08/05 A3025 RMK A02 TSNO
QEX,2020-10-20 16:00,128.3000,36.1000,51.80,44.60,76.34,30.00,1.00,0.00,30.19,M,6.21,M,BKN,M,M,M,24000.00,M,M,M,M,M,M,M,M,M,M,M,KQEX 201600Z AUTO 03001KT 9999 BKN240 11/07 A3019 RMK A02 TSNO
QFV,2020-10-20 16:00,127.5000,38.0500,41.00,39.20,93.24,60.00,1.00,0.00,30.27,M,5.59,M,CLR,M,M,M,M,M,M,M,,M,M,M,M,M,M,M,KQFV 201600Z AUTO 06001KT 9000 // CLR 05/04 A3027 RMK A02 TSNO
RKJB,2020-10-20 16:00,126.3800,34.9800,51.80,50.00,93.55,90.00,5.00,0.00,30.21,M,3.11,M,NCD,M,M,M,M,M,M,M,BR,M,M,M,M,M,M,M,RKJB 201600Z AUTO 09005KT 5000 BR NCD 11/10 Q1023
RKPC,2020-10-20 16:00,126.4930,33.5113,62.60,55.40,77.29,110.00,9.00,0.00,30.15,M,6.21,M,FEW,BKN,M,M,3000.00,20000.00,M,M,M,M,M,M,M,M,M,M,RKPC 201600Z 11009KT 9999 FEW030 BKN200 17/13 Q1021 NOSIG
RKNY,2020-10-20 16:00,128.6692,38.0613,51.80,44.60,76.34,260.00,2.00,0.00,30.18,M,6.21,M,NCD,M,M,M,M,M,M,M,M,M,M,M,M,M,M,M,RKNY 201600Z AUTO 26002KT 9999 NCD 11/07 Q1022
RKSS,2020-10-20 16:00,126.7906,37.5583,48.20,48.20,100.00,260.00,1.00,0.00,30.18,M,4.35,M,NSC,M,M,M,M,M,M,M,M,M,M,M,M,M,M,M,RKSS 201600Z 26001KT 7000 NSC 09/09 Q1022 NOSIG
RKTN,2020-10-20 16:00,128.6589,35.8941,50.00,44.60,81.61,50.00,2.00,0.00,30.27,M,5.59,M,NSC,M,M,M,M,M,M,M,M,M,M,M,M,M,M,M,RKTN 201600Z 05002KT 9000 NSC 10/07 Q1025
RKTU,2020-10-20 16:00,127.4991,36.7166,42.80,42.80,100.00,80.00,4.00,0.00,30.24,M,3.73,M,NSC,M,M,M,M,M,M,M,M,M,M,M,M,M,M,40.03,RKTU 201600Z 08004KT 6000 NSC 06/06 Q1024
RKPK,2020-10-20 16:00,128.9382,35.1795,57.20,48.20,71.83,20.00,2.00,0.00,30.24,M,6.21,M,SCT,M,M,M,3000.00,M,M,M,M,M,M,M,M,M,M,M,RKPK 201600Z 02002KT 9999 SCT030 14/09 Q1024
QFT,2020-10-20 16:00,127.3500,37.6000,46.40,42.80,87.19,190.00,1.00,0.00,30.22,M,M,M,CLR,M,M,M,M,M,M,M,,M,M,M,M,M,M,M,KQFT 201600Z AUTO 19001KT / // CLR 08/06 A3022 RMK A02 TSNO
QFW,2020-10-20 16:00,127.8833,37.6667,44.60,44.60,100.00,10.00,2.00,0.00,30.25,M,5.59,M,CLR,M,M,M,M,M,M,M,,M,M,M,M,M,M,M,KQFW 201600Z AUTO 01002KT 9000 // CLR 07/07 A3025 RMK A02 TSNO
RKSI,2020-10-20 16:00,126.4500,37.4667,55.40,48.20,76.66,330.00,1.00,0.00,30.18,M,5.59,M,NSC,M,M,M,M,M,M,M,M,M,M,M,M,M,M,M,RKSI 201600Z 33001KT 9000 NSC 13/09 Q1022 NOSIG
RKSM,2020-10-20 16:00,127.1139,37.4458,50.00,44.60,81.61,200.00,2.00,0.00,30.21,M,6.21,M,BKN,M,M,M,20000.00,M,M,M,M,M,M,M,M,M,M,M,RKSM 201600Z 20002KT 9999 BKN200 10/07 A3021
RKJK,2020-10-20 16:06,126.6220,35.8994,53.60,51.80,93.60,100.00,5.00,0.00,30.19,1022.80,2.00,M,CLR,M,M,M,M,M,M,M,BR,M,M,M,M,M,M,M,RKJK 201606Z AUTO 10005KT 2SM BR CLR 12/11 A3019 RMK AO2 SLP228 $
QFB,2020-10-20 16:10,128.7167,35.6500,46.40,44.60,93.40,100.00,1.00,0.00,30.32,M,6.21,M,BKN,M,M,M,23000.00,M,M,M,M,M,M,M,M,M,M,M,KQFB 201610Z AUTO 10001KT 9999 BKN230 08/07 A3032 RMK A02 TSNO
QEN,2020-10-20 16:10,128.7500,37.6667,41.00,44.60,M,250.00,5.00,0.00,M,M,3.73,M,FEW,M,M,M,24000.00,M,M,M,M,M,M,M,M,M,M,M,KQEN 201610Z AUTO 25005KT 6000 FEW240 05/07 / RMK A02 TSNO
QES,2020-10-20 16:10,126.4500,36.9667,64.40,50.00,59.50,M,M,0.00,M,M,3.73,M,BKN,M,M,M,23000.00,M,M,M,M,M,M,M,M,M,M,M,KQES 201610Z AUTO 6000 BKN230 18/10 / RMK A02 TSNO
QEI,2020-10-20 16:10,128.0667,37.9500,42.80,41.00,93.30,0.00,0.00,0.00,30.24,M,6.21,M,FEW,M,M,M,24000.00,M,M,M,M,M,M,M,M,M,M,M,KQEI 201610Z AUTO 00000KT 9999 FEW240 06/05 A3024 RMK A02 TSNO
QEW,2020-10-20 16:10,128.1500,36.4000,46.40,42.80,87.19,330.00,1.00,0.00,30.25,M,6.21,M,BKN,M,M,M,24000.00,M,M,M,M,M,M,M,M,M,M,M,KQEW 201610Z AUTO 33001KT 9999 BKN240 08/06 A3025 RMK A02 TSNO
QEX,2020-10-20 16:10,128.3000,36.1000,51.80,44.60,76.34,40.00,2.00,0.00,30.18,M,6.21,M,BKN,M,M,M,24000.00,M,M,M,M,M,M,M,M,M,M,M,KQEX 201610Z AUTO 04002KT 9999 BKN240 11/07 A3018 RMK A02 TSNO
QFV,2020-10-20 16:10,127.5000,38.0500,41.00,39.20,93.24,340.00,1.00,0.00,30.28,M,6.21,M,CLR,M,M,M,M,M,M,M,M,M,M,M,M,M,M,M,KQFV 201610Z AUTO 34001KT 9999 CLR 05/04 A3028 RMK A02 TSNO
QEJ,2020-10-20 16:10,127.9500,38.2000,41.00,41.00,100.00,0.00,0.00,0.00,30.23,M,5.59,M,CLR,M,M,M,M,M,M,M,M,M,M,M,M,M,M,M,KQEJ 201610Z AUTO 00000KT 9000 CLR 05/05 A3023 RMK A02 TSNO
QEQ,2020-10-20 16:10,127.5500,37.8500,44.60,46.40,M,0.00,0.00,0.00,30.25,M,3.73,M,SCT,M,M,M,23000.00,M,M,M,M,M,M,M,M,M,M,M,KQEQ 201610Z AUTO 00000KT 6000 SCT230 07/08 A3025 RMK A02 TSNO
QEP,2020-10-20 16:10,127.2667,37.4000,46.40,44.60,93.40,0.00,0.00,0.00,30.24,M,3.73,M,SCT,M,M,M,24000.00,M,M,M,M,M,M,M,M,M,M,M,KQEP 201610Z AUTO 00000KT 6000 SCT240 08/07 A3024 RMK A02 TSNO
QFT,2020-10-20 16:10,127.3500,37.6000,46.40,42.80,87.19,160.00,1.00,0.00,30.22,M,M,M,CLR,M,M,M,M,M,M,M,,M,M,M,M,M,M,M,KQFT 201610Z AUTO 16001KT / // CLR 08/06 A3022 RMK A02 TSNO
QFU,2020-10-20 16:10,126.9667,37.8000,46.40,41.00,81.34,0.00,0.00,0.00,30.25,M,2.98,M,BKN,M,M,M,23000.00,M,M,M,HZ,M,M,M,M,M,M,M,KQFU 201610Z AUTO 00000KT 4800 HZ BKN230 08/05 A3025 RMK A02 TSNO
QFW,2020-10-20 16:10,127.8833,37.6667,44.60,44.60,100.00,40.00,1.00,0.00,30.26,M,6.21,M,CLR,M,M,M,M,M,M,M,M,M,M,M,M,M,M,M,KQFW 201610Z AUTO 04001KT 9999 CLR 07/07 A3026 RMK A02 TSNO
QFB,2020-10-20 16:20,128.7167,35.6500,46.40,44.60,93.40,120.00,2.00,0.00,30.31,M,6.21,M,BKN,M,M,M,23000.00,M,M,M,M,M,M,M,M,M,M,M,KQFB 201620Z AUTO 12002KT 9999 BKN230 08/07 A3031 RMK A02 TSNO
QEN,2020-10-20 16:20,128.7500,37.6667,41.00,44.60,M,260.00,5.00,0.00,M,M,3.73,M,SCT,M,M,M,24000.00,M,M,M,M,M,M,M,M,M,M,M,KQEN 201620Z AUTO 26005KT 6000 SCT240 05/07 / RMK A02 TSNO
QES,2020-10-20 16:20,126.4500,36.9667,64.40,50.00,59.50,M,M,0.00,M,M,3.73,M,BKN,M,M,M,23000.00,M,M,M,M,M,M,M,M,M,M,M,KQES 201620Z AUTO 6000 BKN230 18/10 / RMK A02 TSNO
QEJ,2020-10-20 16:20,127.9500,38.2000,41.00,39.20,93.24,0.00,0.00,0.00,30.23,M,4.97,M,CLR,M,M,M,M,M,M,M,M,M,M,M,M,M,M,M,KQEJ 201620Z AUTO 00000KT 8000 CLR 05/04 A3023 RMK A02 TSNO
QEI,2020-10-20 16:20,128.0667,37.9500,42.80,41.00,93.30,130.00,1.00,0.00,30.24,M,6.21,M,FEW,M,M,M,24000.00,M,M,M,M,M,M,M,M,M,M,M,KQEI 201620Z AUTO 13001KT 9999 FEW240 06/05 A3024 RMK A02 TSNO
QEQ,2020-10-20 16:20,127.5500,37.8500,44.60,46.40,M,300.00,1.00,0.00,30.25,M,3.73,M,SCT,M,M,M,23000.00,M,M,M,M,M,M,M,M,M,M,M,KQEQ 201620Z AUTO 30001KT 6000 SCT230 07/08 A3025 RMK A02 TSNO
QEW,2020-10-20 16:20,128.1500,36.4000,44.60,42.80,93.35,280.00,2.00,0.00,30.25,M,6.21,M,BKN,M,M,M,24000.00,M,M,M,M,M,M,M,M,M,M,M,KQEW 201620Z AUTO 28002KT 9999 BKN240 07/06 A3025 RMK A02 TSNO
QEP,2020-10-20 16:20,127.2667,37.4000,46.40,44.60,93.40,360.00,1.00,0.00,30.24,M,3.73,M,BKN,M,M,M,24000.00,M,M,M,M,M,M,M,M,M,M,M,KQEP 201620Z AUTO 36001KT 6000 BKN240 08/07 A3024 RMK A02 TSNO
QFU,2020-10-20 16:20,126.9667,37.8000,46.40,41.00,81.34,0.00,0.00,0.00,30.25,M,2.98,M,BKN,M,M,M,23000.00,M,M,M,HZ,M,M,M,M,M,M,M,KQFU 201620Z AUTO 00000KT 4800 HZ BKN230 08/05 A3025 RMK A02 TSNO
QEX,2020-10-20 16:20,128.3000,36.1000,51.80,44.60,76.34,0.00,0.00,0.00,30.18,M,6.21,M,BKN,M,M,M,24000.00,M,M,M,M,M,M,M,M,M,M,M,KQEX 201620Z AUTO 00000KT 9999 BKN240 11/07 A3018 RMK A02 TSNO
QFV,2020-10-20 16:20,127.5000,38.0500,41.00,37.40,86.89,80.00,1.00,0.00,30.27,M,6.21,M,FEW,M,M,M,24000.00,M,M,M,M,M,M,M,M,M,M,M,KQFV 201620Z AUTO 08001KT 9999 FEW240 05/03 A3027 RMK A02 TSNO
QFT,2020-10-20 16:20,127.3500,37.6000,46.40,44.60,93.40,70.00,1.00,0.00,30.22,M,M,M,SCT,M,M,M,23000.00,M,M,M,,M,M,M,M,M,M,M,KQFT 201620Z AUTO 07001KT / // SCT230 08/07 A3022 RMK A02 TSNO
QFW,2020-10-20 16:20,127.8833,37.6667,44.60,44.60,100.00,140.00,1.00,0.00,30.26,M,6.21,M,CLR,M,M,M,M,M,M,M,M,M,M,M,M,M,M,M,KQFW 201620Z AUTO 14001KT 9999 CLR 07/07 A3026 RMK A02 TSNO
QFB,2020-10-20 16:30,128.7167,35.6500,48.20,44.60,87.28,160.00,1.00,0.00,30.32,M,6.21,M,BKN,M,M,M,23000.00,M,M,M,M,M,M,M,M,M,M,M,KQFB 201630Z AUTO 16001KT 9999 BKN230 09/07 A3032 RMK A02 TSNO
QEN,2020-10-20 16:30,128.7500,37.6667,41.00,44.60,M,260.00,5.00,0.00,M,M,5.59,M,FEW,M,M,M,24000.00,M,M,M,M,M,M,M,M,M,M,M,KQEN 201630Z AUTO 26005KT 9000 FEW240 05/07 / RMK A02 TSNO
QES,2020-10-20 16:30,126.4500,36.9667,64.40,50.00,59.50,M,M,0.00,M,M,2.49,M,BKN,M,M,M,21000.00,M,M,M,BR,M,M,M,M,M,M,M,KQES 201630Z AUTO 4000 BR BKN210 18/10 / RMK A02 TSNO
QEJ,2020-10-20 16:30,127.9500,38.2000,41.00,39.20,93.24,170.00,1.00,0.00,30.23,M,5.59,M,CLR,M,M,M,M,M,M,M,M,M,M,M,M,M,M,M,KQEJ 201630Z AUTO 17001KT 9000 CLR 05/04 A3023 RMK A02 TSNO
QEI,2020-10-20 16:30,128.0667,37.9500,42.80,41.00,93.30,130.00,1.00,0.00,30.24,M,6.21,M,FEW,M,M,M,24000.00,M,M,M,M,M,M,M,M,M,M,M,KQEI 201630Z AUTO 13001KT 9999 FEW240 06/05 A3024 RMK A02 TSNO
QEW,2020-10-20 16:30,128.1500,36.4000,44.60,42.80,93.35,270.00,1.00,0.00,30.25,M,6.21,M,BKN,M,M,M,23000.00,M,M,M,M,M,M,M,M,M,M,M,KQEW 201630Z AUTO 27001KT 9999 BKN230 07/06 A3025 RMK A02 TSNO
QEP,2020-10-20 16:30,127.2667,37.4000,46.40,44.60,93.40,30.00,1.00,0.00,30.25,M,3.73,M,BKN,M,M,M,24000.00,M,M,M,M,M,M,M,M,M,M,M,KQEP 201630Z AUTO 03001KT 6000 BKN240 08/07 A3025 RMK A02 TSNO
QFU,2020-10-20 16:30,126.9667,37.8000,46.40,41.00,81.34,200.00,1.00,0.00,30.25,M,3.73,M,BKN,M,M,M,23000.00,M,M,M,HZ,M,M,M,M,M,M,M,KQFU 201630Z AUTO 20001KT 6000 HZ BKN230 08/05 A3025 RMK A02 TSNO
QEX,2020-10-20 16:30,128.3000,36.1000,51.80,46.40,81.74,0.00,0.00,0.00,30.18,M,6.21,M,SCT,M,M,M,24000.00,M,M,M,M,M,M,M,M,M,M,M,KQEX 201630Z AUTO 00000KT 9999 SCT240 11/08 A3018 RMK A02 TSNO
QFV,2020-10-20 16:30,127.5000,38.0500,41.00,39.20,93.24,0.00,0.00,0.00,30.26,M,6.21,M,SCT,M,M,M,22000.00,M,M,M,M,M,M,M,M,M,M,M,KQFV 201630Z AUTO 00000KT 9999 SCT220 05/04 A3026 RMK A02 TSNO
QEQ,2020-10-20 16:30,127.5500,37.8500,44.60,46.40,M,0.00,0.00,0.00,30.24,M,2.98,M,BKN,M,M,M,24000.00,M,M,M,M,M,M,M,M,M,M,M,KQEQ 201630Z AUTO 00000KT 4800 BKN240 07/08 A3024 RMK A02 TSNO
QFT,2020-10-20 16:30,127.3500,37.6000,46.40,42.80,87.19,130.00,1.00,0.00,30.22,M,M,M,BKN,M,M,M,23000.00,M,M,M,,M,M,M,M,M,M,M,KQFT 201630Z AUTO 13001KT / // BKN230 08/06 A3022 RMK A02 TSNO
QFW,2020-10-20 16:30,127.8833,37.6667,44.60,44.60,100.00,110.00,1.00,0.00,30.25,M,6.21,M,CLR,M,M,M,M,M,M,M,M,M,M,M,M,M,M,M,KQFW 201630Z AUTO 11001KT 9999 CLR 07/07 A3025 RMK A02 TSNO
RKSI,2020-10-20 16:30,126.4500,37.4667,53.60,46.40,76.50,70.00,1.00,0.00,30.18,M,4.97,M,NSC,M,M,M,M,M,M,M,M,M,M,M,M,M,M,M,RKSI 201630Z 07001KT 8000 NSC 12/08 Q1022 NOSIG
RKJK,2020-10-20 16:36,126.6220,35.8994,51.80,51.80,100.00,100.00,6.00,0.00,30.19,1022.80,2.50,M,CLR,M,M,M,M,M,M,M,BR,M,M,M,M,M,M,M,RKJK 201636Z AUTO 10006KT 2 1/2SM BR CLR 11/11 A3019 RMK AO2 SLP228 $
QFB,2020-10-20 16:40,128.7167,35.6500,46.40,42.80,87.19,50.00,1.00,0.00,30.32,M,6.21,M,BKN,M,M,M,23000.00,M,M,M,M,M,M,M,M,M,M,M,KQFB 201640Z AUTO 05001KT 9999 BKN230 08/06 A3032 RMK A02 TSNO
QEN,2020-10-20 16:40,128.7500,37.6667,41.00,44.60,M,260.00,5.00,0.00,M,M,5.59,M,FEW,M,M,M,24000.00,M,M,M,M,M,M,M,M,M,M,M,KQEN 201640Z AUTO 26005KT 9000 FEW240 05/07 / RMK A02 TSNO
QES,2020-10-20 16:40,126.4500,36.9667,64.40,50.00,59.50,M,M,0.00,M,M,1.99,M,BKN,M,M,M,21000.00,M,M,M,BR,M,M,M,M,M,M,M,KQES 201640Z AUTO 3200 BR BKN210 18/10 / RMK A02 TSNO
QEJ,2020-10-20 16:40,127.9500,38.2000,41.00,39.20,93.24,200.00,1.00,0.00,30.24,M,5.59,M,CLR,M,M,M,M,M,M,M,M,M,M,M,M,M,M,M,KQEJ 201640Z AUTO 20001KT 9000 CLR 05/04 A3024 RMK A02 TSNO
QEI,2020-10-20 16:40,128.0667,37.9500,42.80,41.00,93.30,160.00,1.00,0.00,30.25,M,6.21,M,FEW,M,M,M,23000.00,M,M,M,M,M,M,M,M,M,M,M,KQEI 201640Z AUTO 16001KT 9999 FEW230 06/05 A3025 RMK A02 TSNO
QEQ,2020-10-20 16:40,127.5500,37.8500,44.60,46.40,M,70.00,2.00,0.00,30.24,M,3.73,M,BKN,M,M,M,24000.00,M,M,M,M,M,M,M,M,M,M,M,KQEQ 201640Z AUTO 07002KT 6000 BKN240 07/08 A3024 RMK A02 TSNO
QEW,2020-10-20 16:40,128.1500,36.4000,44.60,42.80,93.35,280.00,1.00,0.00,30.25,M,6.21,M,BKN,M,M,M,23000.00,M,M,M,M,M,M,M,M,M,M,M,KQEW 201640Z AUTO 28001KT 9999 BKN230 07/06 A3025 RMK A02 TSNO
QEP,2020-10-20 16:40,127.2667,37.4000,46.40,44.60,93.40,220.00,1.00,0.00,30.25,M,3.73,M,BKN,M,M,M,23000.00,M,M,M,M,M,M,M,M,M,M,M,KQEP 201640Z AUTO 22001KT 6000 BKN230 08/07 A3025 RMK A02 TSNO
QFT,2020-10-20 16:40,127.3500,37.6000,46.40,42.80,87.19,150.00,1.00,0.00,30.22,M,M,M,BKN,M,M,M,24000.00,M,M,M,,M,M,M,M,M,M,M,KQFT 201640Z AUTO 15001KT / // BKN240 08/06 A3022 RMK A02 TSNO
QFU,2020-10-20 16:40,126.9667,37.8000,46.40,41.00,81.34,170.00,1.00,0.00,30.25,M,3.73,M,BKN,M,M,M,23000.00,M,M,M,HZ,M,M,M,M,M,M,M,KQFU 201640Z AUTO 17001KT 6000 HZ BKN230 08/05 A3025 RMK A02 TSNO
QEX,2020-10-20 16:40,128.3000,36.1000,51.80,44.60,76.34,360.00,2.00,0.00,30.18,M,6.21,M,SCT,M,M,M,24000.00,M,M,M,M,M,M,M,M,M,M,M,KQEX 201640Z AUTO 36002KT 9999 SCT240 11/07 A3018 RMK A02 TSNO
QFW,2020-10-20 16:40,127.8833,37.6667,44.60,44.60,100.00,70.00,1.00,0.00,30.26,M,6.21,M,CLR,M,M,M,M,M,M,M,M,M,M,M,M,M,M,M,KQFW 201640Z AUTO 07001KT 9999 CLR 07/07 A3026 RMK A02 TSNO
QFV,2020-10-20 16:40,127.5000,38.0500,41.00,37.40,86.89,70.00,1.00,0.00,30.26,M,4.97,M,BKN,M,M,M,22000.00,M,M,M,,M,M,M,M,M,M,M,KQFV 201640Z AUTO 07001KT 8000 // BKN220 05/03 A3026 RMK A02 TSNO
QFB,2020-10-20 16:50,128.7167,35.6500,46.40,44.60,93.40,110.00,2.00,0.00,30.30,M,6.21,M,BKN,M,M,M,22000.00,M,M,M,M,M,M,M,M,M,M,M,KQFB 201650Z AUTO 11002KT 9999 BKN220 08/07 A3030 RMK A02 TSNO
QEN,2020-10-20 16:50,128.7500,37.6667,41.00,44.60,M,260.00,5.00,0.00,M,M,5.59,M,CLR,M,M,M,M,M,M,M,M,M,M,M,M,M,M,M,KQEN 201650Z AUTO 26005KT 9000 CLR 05/07 / RMK A02 TSNO
QES,2020-10-20 16:50,126.4500,36.9667,64.40,50.00,59.50,M,M,0.00,M,M,2.49,M,BKN,M,M,M,21000.00,M,M,M,BR,M,M,M,M,M,M,M,KQES 201650Z AUTO 4000 BR BKN210 18/10 / RMK A02 TSNO
QEJ,2020-10-20 16:50,127.9500,38.2000,41.00,39.20,93.24,90.00,1.00,0.00,30.23,M,3.73,M,FEW,M,M,M,24000.00,M,M,M,M,M,M,M,M,M,M,M,KQEJ 201650Z AUTO 09001KT 6000 FEW240 05/04 A3023 RMK A02 TSNO
QEI,2020-10-20 16:50,128.0667,37.9500,42.80,41.00,93.30,140.00,1.00,0.00,30.24,M,6.21,M,FEW,M,M,M,24000.00,M,M,M,M,M,M,M,M,M,M,M,KQEI 201650Z AUTO 14001KT 9999 FEW240 06/05 A3024 RMK A02 TSNO
QEQ,2020-10-20 16:50,127.5500,37.8500,44.60,46.40,M,50.00,1.00,0.00,30.24,M,3.73,M,BKN,M,M,M,23000.00,M,M,M,M,M,M,M,M,M,M,M,KQEQ 201650Z AUTO 05001KT 6000 BKN230 07/08 A3024 RMK A02 TSNO
QEW,2020-10-20 16:50,128.1500,36.4000,44.60,41.00,87.09,60.00,1.00,0.00,30.24,M,6.21,M,BKN,M,M,M,23000.00,M,M,M,M,M,M,M,M,M,M,M,KQEW 201650Z AUTO 06001KT 9999 BKN230 07/05 A3024 RMK A02 TSNO
QEP,2020-10-20 16:50,127.2667,37.4000,46.40,44.60,93.40,0.00,0.00,0.00,30.25,M,3.73,M,BKN,M,M,M,23000.00,M,M,M,M,M,M,M,M,M,M,M,KQEP 201650Z AUTO 00000KT 6000 BKN230 08/07 A3025 RMK A02 TSNO
QFT,2020-10-20 16:50,127.3500,37.6000,46.40,42.80,87.19,110.00,1.00,0.00,30.22,M,M,M,BKN,M,M,M,24000.00,M,M,M,,M,M,M,M,M,M,M,KQFT 201650Z AUTO 11001KT / // BKN240 08/06 A3022 RMK A02 TSNO
QFU,2020-10-20 16:50,126.9667,37.8000,46.40,41.00,81.34,200.00,1.00,0.00,30.25,M,3.73,M,BKN,M,M,M,23000.00,M,M,M,HZ,M,M,M,M,M,M,M,KQFU 201650Z AUTO 20001KT 6000 HZ BKN230 08/05 A3025 RMK A02 TSNO
QEX,2020-10-20 16:50,128.3000,36.1000,50.00,46.40,87.37,30.00,2.00,0.00,30.17,M,6.21,M,SCT,M,M,M,23000.00,M,M,M,M,M,M,M,M,M,M,M,KQEX 201650Z AUTO 03002KT 9999 SCT230 10/08 A3017 RMK A02 TSNO
QFW,2020-10-20 16:50,127.8833,37.6667,44.60,44.60,100.00,100.00,1.00,0.00,30.25,M,6.21,M,CLR,M,M,M,M,M,M,M,M,M,M,M,M,M,M,M,KQFW 201650Z AUTO 10001KT 9999 CLR 07/07 A3025 RMK A02 TSNO
QFV,2020-10-20 16:50,127.5000,38.0500,41.00,39.20,93.24,240.00,1.00,0.00,30.27,M,6.21,M,BKN,M,M,M,22000.00,M,M,M,M,M,M,M,M,M,M,M,KQFV 201650Z AUTO 24001KT 9999 BKN220 05/04 A3027 RMK A02 TSNO
RKSG,2020-10-20 16:56,127.0311,36.9622,51.80,44.20,75.19,0.00,0.00,0.00,30.20,1023.00,3.00,M,CLR,M,M,M,M,M,M,M,HZ,M,M,M,M,M,M,M,RKSG 201656Z 00000KT 3SM HZ CLR 11/07 A3020 RMK AO2A SLP230 T01100068 $
RKJK,2020-10-20 16:56,126.6220,35.8994,52.70,50.70,92.88,100.00,7.00,0.00,30.18,1022.40,3.00,M,FEW,M,M,M,23000.00,M,M,M,BR,M,M,M,M,M,M,M,RKJK 201656Z AUTO 10007KT 3SM BR FEW230 12/10 A3018 RMK AO2 SLP224 T01150104 $
RKSY,2020-10-20 16:58,126.9753,37.5241,50.50,47.80,90.41,0.00,0.00,0.00,30.19,1022.60,6.21,M,BKN,M,M,M,23000.00,M,M,M,M,M,M,M,M,M,M,M,RKSY 201658Z AUTO 00000KT 9999 BKN230 10/09 A3019 RMK AO2 SLP226 T01030088 $
RKSO,2020-10-20 16:58,127.0296,37.0906,48.70,47.80,96.68,60.00,3.00,0.00,30.20,1023.00,3.00,M,SCT,M,M,M,22000.00,M,M,M,BR,M,M,M,M,M,M,47.78,RKSO 201658Z 06003KT 3SM BR SCT220 09/09 A3020 RMK AO2A SLP230 T00930088 $
QFB,2020-10-20 17:00,128.7167,35.6500,46.40,44.60,93.40,210.00,1.00,0.00,30.31,M,6.21,M,BKN,M,M,M,22000.00,M,M,M,M,M,M,M,M,M,M,M,KQFB 201700Z AUTO 21001KT 9999 BKN220 08/07 A3031 RMK A02 TSNO
QEN,2020-10-20 17:00,128.7500,37.6667,41.00,44.60,M,260.00,5.00,0.00,M,M,4.97,M,FEW,M,M,M,24000.00,M,M,M,M,M,M,M,M,M,M,M,KQEN 201700Z AUTO 26005KT 8000 FEW240 05/07 / RMK A02 TSNO
QES,2020-10-20 17:00,126.4500,36.9667,64.40,50.00,59.50,M,M,0.00,M,M,2.49,M,BKN,M,M,M,20000.00,M,M,M,BR,M,M,M,M,M,M,M,KQES 201700Z AUTO 4000 BR BKN200 18/10 / RMK A02 TSNO
QEJ,2020-10-20 17:00,127.9500,38.2000,41.00,39.20,93.24,0.00,0.00,0.00,30.23,M,3.73,M,SCT,M,M,M,23000.00,M,M,M,M,M,M,M,M,M,M,M,KQEJ 201700Z AUTO 00000KT 6000 SCT230 05/04 A3023 RMK A02 TSNO
QEI,2020-10-20 17:00,128.0667,37.9500,42.80,41.00,93.30,330.00,1.00,0.00,30.24,M,6.21,M,FEW,M,M,M,24000.00,M,M,M,M,M,M,M,M,M,M,M,KQEI 201700Z AUTO 33001KT 9999 FEW240 06/05 A3024 RMK A02 TSNO
QEQ,2020-10-20 17:00,127.5500,37.8500,44.60,46.40,M,60.00,1.00,0.00,30.24,M,2.49,M,BKN,M,M,M,23000.00,M,M,M,BR,M,M,M,M,M,M,M,KQEQ 201700Z AUTO 06001KT 4000 BR BKN230 07/08 A3024 RMK A02 TSNO
QEW,2020-10-20 17:00,128.1500,36.4000,44.60,42.80,93.35,150.00,1.00,0.00,30.24,M,6.21,M,SCT,M,M,M,24000.00,M,M,M,M,M,M,M,M,M,M,M,KQEW 201700Z AUTO 15001KT 9999 SCT240 07/06 A3024 RMK A02 TSNO
QEP,2020-10-20 17:00,127.2667,37.4000,46.40,44.60,93.40,0.00,0.00,0.00,30.24,M,3.73,M,BKN,M,M,M,23000.00,M,M,M,M,M,M,M,M,M,M,M,KQEP 201700Z AUTO 00000KT 6000 BKN230 08/07 A3024 RMK A02 TSNO
QFT,2020-10-20 17:00,127.3500,37.6000,44.60,42.80,93.35,160.00,1.00,0.00,30.22,M,M,M,BKN,M,M,M,23000.00,M,M,M,,M,M,M,M,M,M,M,KQFT 201700Z AUTO 16001KT / // BKN230 07/06 A3022 RMK A02 TSNO
QFU,2020-10-20 17:00,126.9667,37.8000,46.40,41.00,81.34,0.00,0.00,0.00,30.24,M,3.73,M,BKN,M,M,M,23000.00,M,M,M,HZ,M,M,M,M,M,M,M,KQFU 201700Z AUTO 00000KT 6000 HZ BKN230 08/05 A3024 RMK A02 TSNO
QEX,2020-10-20 17:00,128.3000,36.1000,50.00,46.40,87.37,350.00,2.00,0.00,30.17,M,6.21,M,SCT,M,M,M,23000.00,M,M,M,M,M,M,M,M,M,M,M,KQEX 201700Z AUTO 35002KT 9999 SCT230 10/08 A3017 RMK A02 TSNO
QFW,2020-10-20 17:00,127.8833,37.6667,44.60,44.60,100.00,110.00,1.00,0.00,30.25,M,5.59,M,FEW,M,M,M,24000.00,M,M,M,,M,M,M,M,M,M,M,KQFW 201700Z AUTO 11001KT 9000 // FEW240 07/07 A3025 RMK A02 TSNO
QFV,2020-10-20 17:00,127.5000,38.0500,41.00,37.40,86.89,110.00,1.00,0.00,30.27,M,6.21,M,BKN,M,M,M,22000.00,M,M,M,M,M,M,M,M,M,M,M,KQFV 201700Z AUTO 11001KT 9999 BKN220 05/03 A3027 RMK A02 TSNO
RKJB,2020-10-20 17:00,126.3800,34.9800,51.80,50.00,93.55,90.00,6.00,0.00,30.18,M,3.11,M,NCD,M,M,M,M,M,M,M,BR,M,M,M,M,M,M,M,RKJB 201700Z AUTO 09006KT 5000 BR NCD 11/10 Q1022
RKPC,2020-10-20 17:00,126.4930,33.5113,64.40,55.40,72.56,100.00,10.00,0.00,30.15,M,6.21,M,FEW,BKN,M,M,3000.00,20000.00,M,M,M,M,M,M,M,M,M,M,RKPC 201700Z 10010KT 9999 FEW030 BKN200 18/13 Q1021 NOSIG
RKNY,2020-10-20 17:00,128.6692,38.0613,51.80,44.60,76.34,200.00,3.00,0.00,30.18,M,6.21,M,NCD,M,M,M,M,M,M,M,M,M,M,M,M,M,M,M,RKNY 201700Z AUTO 20003KT 9999 NCD 11/07 Q1022
RKSS,2020-10-20 17:00,126.7906,37.5583,48.20,48.20,100.00,320.00,2.00,0.00,30.18,M,3.73,M,NSC,M,M,M,M,M,M,M,M,M,M,M,M,M,M,M,RKSS 201700Z 32002KT 6000 NSC 09/09 Q1022 NOSIG
RKTN,2020-10-20 17:00,128.6589,35.8941,51.80,46.40,81.74,270.00,1.00,0.00,30.24,M,6.21,M,M,M,M,M,M,M,M,M,M,M,M,M,M,M,M,M,RKTN 201700Z 27001KT CAVOK 11/08 Q1024
RKTU,2020-10-20 17:00,127.4991,36.7166,44.60,44.60,100.00,350.00,1.00,0.00,30.21,M,3.73,M,NSC,M,M,M,M,M,M,M,M,M,M,M,M,M,M,M,RKTU 201700Z 35001KT 6000 NSC 07/07 Q1023
RKPK,2020-10-20 17:00,128.9382,35.1795,55.40,48.20,76.66,350.00,4.00,0.00,30.24,M,6.21,M,FEW,SCT,M,M,3000.00,20000.00,M,M,M,M,M,M,M,M,M,M,RKPK 201700Z 35004KT 9999 FEW030 SCT200 13/09 Q1024
RKSI,2020-10-20 17:00,126.4500,37.4667,53.60,46.40,76.50,90.00,2.00,0.00,30.18,M,4.97,M,NSC,M,M,M,M,M,M,M,M,M,M,M,M,M,M,M,RKSI 201700Z 09002KT 8000 NSC 12/08 Q1022 NOSIG
RKSM,2020-10-20 17:00,127.1139,37.4458,50.00,42.80,76.18,190.00,2.00,0.00,30.21,M,5.59,M,BKN,M,M,M,20000.00,M,M,M,BR,M,M,M,M,M,M,M,RKSM 201700Z 19002KT 9000 BR BKN200 10/06 A3021
RKJK,2020-10-20 17:06,126.6220,35.8994,53.60,50.00,87.56,100.00,7.00,0.00,30.18,1022.40,2.75,M,SCT,M,M,M,22000.00,M,M,M,BR,M,M,M,M,M,M,M,RKJK 201706Z AUTO 10007KT 2 3/4SM BR SCT220 12/10 A3018 RMK AO2 SLP224 $
QFB,2020-10-20 17:10,128.7167,35.6500,46.40,42.80,87.19,20.00,3.00,0.00,30.31,M,6.21,M,BKN,M,M,M,22000.00,M,M,M,M,M,M,M,M,M,M,45.15,KQFB 201710Z AUTO 02003KT 9999 BKN220 08/06 A3031 RMK A02 TSNO
QEN,2020-10-20 17:10,128.7500,37.6667,41.00,44.60,M,260.00,5.00,0.00,M,M,4.97,M,BKN,M,M,M,23000.00,M,M,M,M,M,M,M,M,M,M,M,KQEN 201710Z AUTO 26005KT 8000 BKN230 05/07 / RMK A02 TSNO
QES,2020-10-20 17:10,126.4500,36.9667,64.40,50.00,59.50,M,M,0.00,M,M,2.49,M,BKN,M,M,M,20000.00,M,M,M,BR,M,M,M,M,M,M,M,KQES 201710Z AUTO 4000 BR BKN200 18/10 / RMK A02 TSNO
QEJ,2020-10-20 17:10,127.9500,38.2000,41.00,39.20,93.24,80.00,1.00,0.00,30.23,M,3.73,M,BKN,M,M,M,22000.00,M,M,M,M,M,M,M,M,M,M,M,KQEJ 201710Z AUTO 08001KT 6000 BKN220 05/04 A3023 RMK A02 TSNO
QEI,2020-10-20 17:10,128.0667,37.9500,42.80,41.00,93.30,130.00,2.00,0.00,30.24,M,6.21,M,SCT,M,M,M,24000.00,M,M,M,M,M,M,M,M,M,M,M,KQEI 201710Z AUTO 13002KT 9999 SCT240 06/05 A3024 RMK A02 TSNO
QEW,2020-10-20 17:10,128.1500,36.4000,44.60,42.80,93.35,0.00,0.00,0.00,30.24,M,6.21,M,BKN,M,M,M,23000.00,M,M,M,M,M,M,M,M,M,M,M,KQEW 201710Z AUTO 00000KT 9999 BKN230 07/06 A3024 RMK A02 TSNO
QEP,2020-10-20 17:10,127.2667,37.4000,46.40,44.60,93.40,170.00,1.00,0.00,30.24,M,3.73,M,BKN,M,M,M,23000.00,M,M,M,M,M,M,M,M,M,M,M,KQEP 201710Z AUTO 17001KT 6000 BKN230 08/07 A3024 RMK A02 TSNO
QFT,2020-10-20 17:10,127.3500,37.6000,46.40,42.80,87.19,0.00,0.00,0.00,30.21,M,M,M,BKN,M,M,M,23000.00,M,M,M,,M,M,M,M,M,M,M,KQFT 201710Z AUTO 00000KT / // BKN230 08/06 A3021 RMK A02 TSNO
QEX,2020-10-20 17:10,128.3000,36.1000,50.00,44.60,81.61,310.00,2.00,0.00,30.18,M,6.21,M,BKN,M,M,M,23000.00,M,M,M,M,M,M,M,M,M,M,M,KQEX 201710Z AUTO 31002KT 9999 BKN230 10/07 A3018 RMK A02 TSNO
QFV,2020-10-20 17:10,127.5000,38.0500,39.20,37.40,93.19,120.00,2.00,0.00,30.27,M,6.21,M,BKN,M,M,M,23000.00,M,M,M,M,M,M,M,M,M,M,M,KQFV 201710Z AUTO 12002KT 9999 BKN230 04/03 A3027 RMK A02 TSNO
QEQ,2020-10-20 17:10,127.5500,37.8500,44.60,46.40,M,270.00,1.00,0.00,30.25,M,3.73,M,BKN,M,M,M,23000.00,M,M,M,M,M,M,M,M,M,M,M,KQEQ 201710Z AUTO 27001KT 6000 BKN230 07/08 A3025 RMK A02 TSNO
QFU,2020-10-20 17:10,126.9667,37.8000,46.40,41.00,81.34,160.00,1.00,0.00,30.25,M,3.73,M,BKN,M,M,M,23000.00,M,M,M,HZ,M,M,M,M,M,M,M,KQFU 201710Z AUTO 16001KT 6000 HZ BKN230 08/05 A3025 RMK A02 TSNO
QFW,2020-10-20 17:10,127.8833,37.6667,44.60,44.60,100.00,0.00,0.00,0.00,30.26,M,6.21,M,BKN,M,M,M,23000.00,M,M,M,M,M,M,M,M,M,M,M,KQFW 201710Z AUTO 00000KT 9999 BKN230 07/07 A3026 RMK A02 TSNO
RKSO,2020-10-20 17:18,127.0296,37.0906,48.20,48.20,100.00,70.00,3.00,0.00,30.19,1022.60,7.00,M,SCT,M,M,M,23000.00,M,M,M,M,M,M,M,M,M,M,47.21,RKSO 201718Z AUTO 07003KT 7SM SCT230 09/09 A3019 RMK AO2 LTG DSNT N SLP226
QFB,2020-10-20 17:20,128.7167,35.6500,46.40,42.80,87.19,310.00,2.00,0.00,30.31,M,6.21,M,BKN,M,M,M,22000.00,M,M,M,M,M,M,M,M,M,M,M,KQFB 201720Z AUTO 31002KT 9999 BKN220 08/06 A3031 RMK A02 TSNO
QEN,2020-10-20 17:20,128.7500,37.6667,41.00,44.60,M,260.00,5.00,0.00,M,M,5.59,M,BKN,M,M,M,23000.00,M,M,M,M,M,M,M,M,M,M,M,KQEN 201720Z AUTO 26005KT 9000 BKN230 05/07 / RMK A02 TSNO
QES,2020-10-20 17:20,126.4500,36.9667,64.40,50.00,59.50,M,M,0.00,M,M,2.49,M,FEW,BKN,M,M,110000.00,22000.00,M,M,BR,M,M,M,M,M,M,M,KQES 201720Z AUTO 4000 BR FEW1100 BKN220 18/10 / RMK A02 TSNO
QEJ,2020-10-20 17:20,127.9500,38.2000,41.00,39.20,93.24,110.00,1.00,0.00,30.23,M,3.73,M,BKN,M,M,M,22000.00,M,M,M,M,M,M,M,M,M,M,M,KQEJ 201720Z AUTO 11001KT 6000 BKN220 05/04 A3023 RMK A02 TSNO
QEI,2020-10-20 17:20,128.0667,37.9500,42.80,41.00,93.30,0.00,0.00,0.00,30.24,M,6.21,M,BKN,M,M,M,24000.00,M,M,M,M,M,M,M,M,M,M,M,KQEI 201720Z AUTO 00000KT 9999 BKN240 06/05 A3024 RMK A02 TSNO
QEQ,2020-10-20 17:20,127.5500,37.8500,44.60,46.40,M,120.00,1.00,0.00,30.24,M,2.98,M,BKN,M,M,M,23000.00,M,M,M,M,M,M,M,M,M,M,M,KQEQ 201720Z AUTO 12001KT 4800 BKN230 07/08 A3024 RMK A02 TSNO
QEW,2020-10-20 17:20,128.1500,36.4000,44.60,42.80,93.35,150.00,3.00,0.00,30.25,M,6.21,M,BKN,M,M,M,23000.00,M,M,M,M,M,M,M,M,M,M,43.09,KQEW 201720Z AUTO 15003KT 9999 BKN230 07/06 A3025 RMK A02 TSNO
QEP,2020-10-20 17:20,127.2667,37.4000,46.40,44.60,93.40,60.00,1.00,0.00,30.25,M,3.73,M,BKN,M,M,M,23000.00,M,M,M,M,M,M,M,M,M,M,M,KQEP 201720Z AUTO 06001KT 6000 BKN230 08/07 A3025 RMK A02 TSNO
QFT,2020-10-20 17:20,127.3500,37.6000,46.40,42.80,87.19,140.00,1.00,0.00,30.22,M,M,M,BKN,M,M,M,23000.00,M,M,M,,M,M,M,M,M,M,M,KQFT 201720Z AUTO 14001KT / // BKN230 08/06 A3022 RMK A02 TSNO
QFU,2020-10-20 17:20,126.9667,37.8000,46.40,41.00,81.34,0.00,0.00,0.00,30.25,M,3.73,M,BKN,M,M,M,23000.00,M,M,M,HZ,M,M,M,M,M,M,M,KQFU 201720Z AUTO 00000KT 6000 HZ BKN230 08/05 A3025 RMK A02 TSNO
QEX,2020-10-20 17:20,128.3000,36.1000,48.20,44.60,87.28,350.00,1.00,0.00,30.18,M,6.21,M,SCT,M,M,M,23000.00,M,M,M,M,M,M,M,M,M,M,M,KQEX 201720Z AUTO 35001KT 9999 SCT230 09/07 A3018 RMK A02 TSNO
QFW,2020-10-20 17:20,127.8833,37.6667,44.60,44.60,100.00,0.00,0.00,0.00,30.26,M,6.21,M,BKN,M,M,M,23000.00,M,M,M,M,M,M,M,M,M,M,M,KQFW 201720Z AUTO 00000KT 9999 BKN230 07/07 A3026 RMK A02 TSNO
QFV,2020-10-20 17:20,127.5000,38.0500,41.00,39.20,93.24,70.00,1.00,0.00,30.26,M,6.21,M,BKN,M,M,M,22000.00,M,M,M,M,M,M,M,M,M,M,M,KQFV 201720Z AUTO 07001KT 9999 BKN220 05/04 A3026 RMK A02 TSNO
QFB,2020-10-20 17:30,128.7167,35.6500,44.60,42.80,93.35,310.00,4.00,0.00,30.31,M,6.21,M,BKN,M,M,M,23000.00,M,M,M,M,M,M,M,M,M,M,42.13,KQFB 201730Z AUTO 31004KT 9999 BKN230 07/06 A3031 RMK A02 TSNO
QEN,2020-10-20 17:30,128.7500,37.6667,41.00,44.60,M,260.00,5.00,0.00,M,M,2.98,M,BKN,M,M,M,22000.00,M,M,M,M,M,M,M,M,M,M,M,KQEN 201730Z AUTO 26005KT 4800 BKN220 05/07 / RMK A02 TSNO
QES,2020-10-20 17:30,126.4500,36.9667,64.40,50.00,59.50,M,M,0.00,M,M,2.49,M,FEW,BKN,M,M,110000.00,22000.00,M,M,BR,M,M,M,M,M,M,M,KQES 201730Z AUTO 4000 BR FEW1100 BKN220 18/10 / RMK A02 TSNO
QEJ,2020-10-20 17:30,127.9500,38.2000,41.00,39.20,93.24,0.00,0.00,0.00,30.23,M,4.97,M,BKN,M,M,M,22000.00,M,M,M,M,M,M,M,M,M,M,M,KQEJ 201730Z AUTO 00000KT 8000 BKN220 05/04 A3023 RMK A02 TSNO
QEI,2020-10-20 17:30,128.0667,37.9500,42.80,41.00,93.30,0.00,0.00,0.00,30.24,M,6.21,M,BKN,M,M,M,23000.00,M,M,M,M,M,M,M,M,M,M,M,KQEI 201730Z AUTO 00000KT 9999 BKN230 06/05 A3024 RMK A02 TSNO
QEQ,2020-10-20 17:30,127.5500,37.8500,44.60,46.40,M,60.00,1.00,0.00,30.23,M,2.98,M,SCT,M,M,M,23000.00,M,M,M,M,M,M,M,M,M,M,M,KQEQ 201730Z AUTO 06001KT 4800 SCT230 07/08 A3023 RMK A02 TSNO
QEW,2020-10-20 17:30,128.1500,36.4000,44.60,42.80,93.35,220.00,1.00,0.00,30.25,M,5.59,M,BKN,M,M,M,23000.00,M,M,M,,M,M,M,M,M,M,M,KQEW 201730Z AUTO 22001KT 9000 // BKN230 07/06 A3025 RMK A02 TSNO
QEP,2020-10-20 17:30,127.2667,37.4000,46.40,44.60,93.40,0.00,0.00,0.00,30.24,M,2.98,M,BKN,M,M,M,23000.00,M,M,M,M,M,M,M,M,M,M,M,KQEP 201730Z AUTO 00000KT 4800 BKN230 08/07 A3024 RMK A02 TSNO
QFU,2020-10-20 17:30,126.9667,37.8000,46.40,41.00,81.34,20.00,1.00,0.00,30.25,M,3.73,M,BKN,M,M,M,23000.00,M,M,M,HZ,M,M,M,M,M,M,M,KQFU 201730Z AUTO 02001KT 6000 HZ BKN230 08/05 A3025 RMK A02 TSNO
QEX,2020-10-20 17:30,128.3000,36.1000,50.00,44.60,81.61,40.00,3.00,0.00,30.17,M,6.21,M,BKN,M,M,M,24000.00,M,M,M,M,M,M,M,M,M,M,M,KQEX 201730Z AUTO 04003KT 9999 BKN240 10/07 A3017 RMK A02 TSNO
QFW,2020-10-20 17:30,127.8833,37.6667,44.60,44.60,100.00,90.00,1.00,0.00,30.25,M,6.21,M,BKN,M,M,M,23000.00,M,M,M,M,M,M,M,M,M,M,M,KQFW 201730Z AUTO 09001KT 9999 BKN230 07/07 A3025 RMK A02 TSNO
QFV,2020-10-20 17:30,127.5000,38.0500,41.00,37.40,86.89,80.00,1.00,0.00,30.26,M,6.21,M,BKN,M,M,M,22000.00,M,M,M,M,M,M,M,M,M,M,M,KQFV 201730Z AUTO 08001KT 9999 BKN220 05/03 A3026 RMK A02 TSNO
QFT,2020-10-20 17:30,127.3500,37.6000,46.40,44.60,93.40,140.00,1.00,0.00,30.22,M,M,M,BKN,M,M,M,23000.00,M,M,M,,M,M,M,M,M,M,M,KQFT 201730Z AUTO 14001KT / // BKN230 08/07 A3022 RMK A02 TSNO
RKSI,2020-10-20 17:30,126.4500,37.4667,51.80,46.40,81.74,70.00,3.00,0.00,30.18,M,4.35,M,NSC,M,M,M,M,M,M,M,M,M,M,M,M,M,M,M,RKSI 201730Z 07003KT 7000 NSC 11/08 Q1022 NOSIG
RKJK,2020-10-20 17:36,126.6220,35.8994,53.60,50.00,87.56,100.00,5.00,0.00,30.17,1022.10,3.00,M,FEW,M,M,M,22000.00,M,M,M,BR,M,M,M,M,M,M,M,RKJK 201736Z AUTO 10005KT 3SM BR FEW220 12/10 A3017 RMK AO2 SLP221 $
QFB,2020-10-20 17:40,128.7167,35.6500,44.60,42.80,93.35,270.00,1.00,0.00,30.30,M,6.21,M,BKN,M,M,M,23000.00,M,M,M,M,M,M,M,M,M,M,M,KQFB 201740Z AUTO 27001KT 9999 BKN230 07/06 A3030 RMK A02 TSNO
QEN,2020-10-20 17:40,128.7500,37.6667,41.00,44.60,M,260.00,6.00,0.00,M,M,3.73,M,BKN,M,M,M,22000.00,M,M,M,M,M,M,M,M,M,M,M,KQEN 201740Z AUTO 26006KT 6000 BKN220 05/07 / RMK A02 TSNO
QEI,2020-10-20 17:40,128.0667,37.9500,42.80,41.00,93.30,0.00,0.00,0.00,30.24,M,6.21,M,BKN,M,M,M,23000.00,M,M,M,M,M,M,M,M,M,M,M,KQEI 201740Z AUTO 00000KT 9999 BKN230 06/05 A3024 RMK A02 TSNO
QEW,2020-10-20 17:40,128.1500,36.4000,44.60,42.80,93.35,50.00,1.00,0.00,30.24,M,6.21,M,BKN,M,M,M,23000.00,M,M,M,M,M,M,M,M,M,M,M,KQEW 201740Z AUTO 05001KT 9999 BKN230 07/06 A3024 RMK A02 TSNO
QFT,2020-10-20 17:40,127.3500,37.6000,44.60,42.80,93.35,190.00,2.00,0.00,30.22,M,M,M,BKN,M,M,M,23000.00,M,M,M,,M,M,M,M,M,M,M,KQFT 201740Z AUTO 19002KT / // BKN230 07/06 A3022 RMK A02 TSNO
QEX,2020-10-20 17:40,128.3000,36.1000,48.20,46.40,93.45,30.00,2.00,0.00,30.17,M,6.21,M,BKN,M,M,M,21000.00,M,M,M,M,M,M,M,M,M,M,M,KQEX 201740Z AUTO 03002KT 9999 BKN210 09/08 A3017 RMK A02 TSNO
QFV,2020-10-20 17:40,127.5000,38.0500,41.00,39.20,93.24,310.00,1.00,0.00,30.26,M,6.21,M,BKN,M,M,M,22000.00,M,M,M,M,M,M,M,M,M,M,M,KQFV 201740Z AUTO 31001KT 9999 BKN220 05/04 A3026 RMK A02 TSNO
QES,2020-10-20 17:40,126.4500,36.9667,64.40,50.00,59.50,M,M,0.00,M,M,2.98,M,BKN,M,M,M,23000.00,M,M,M,BR,M,M,M,M,M,M,M,KQES 201740Z AUTO 4800 BR BKN230 18/10 / RMK A02 TSNO
QEJ,2020-10-20 17:40,127.9500,38.2000,41.00,39.20,93.24,310.00,1.00,0.00,30.23,M,4.97,M,BKN,M,M,M,23000.00,M,M,M,M,M,M,M,M,M,M,M,KQEJ 201740Z AUTO 31001KT 8000 BKN230 05/04 A3023 RMK A02 TSNO
QEQ,2020-10-20 17:40,127.5500,37.8500,44.60,44.60,100.00,30.00,1.00,0.00,30.23,M,2.49,M,FEW,M,M,M,23000.00,M,M,M,BR,M,M,M,M,M,M,M,KQEQ 201740Z AUTO 03001KT 4000 BR FEW230 07/07 A3023 RMK A02 TSNO
QEP,2020-10-20 17:40,127.2667,37.4000,46.40,44.60,93.40,180.00,1.00,0.00,30.24,M,3.73,M,BKN,M,M,M,22000.00,M,M,M,M,M,M,M,M,M,M,M,KQEP 201740Z AUTO 18001KT 6000 BKN220 08/07 A3024 RMK A02 TSNO
QFU,2020-10-20 17:40,126.9667,37.8000,46.40,41.00,81.34,80.00,1.00,0.00,30.24,M,3.73,M,BKN,M,M,M,23000.00,M,M,M,HZ,M,M,M,M,M,M,M,KQFU 201740Z AUTO 08001KT 6000 HZ BKN230 08/05 A3024 RMK A02 TSNO
QFW,2020-10-20 17:40,127.8833,37.6667,44.60,44.60,100.00,340.00,1.00,0.00,30.25,M,6.21,M,BKN,M,M,M,23000.00,M,M,M,M,M,M,M,M,M,M,M,KQFW 201740Z AUTO 34001KT 9999 BKN230 07/07 A3025 RMK A02 TSNO
QFB,2020-10-20 17:50,128.7167,35.6500,46.40,44.60,93.40,230.00,1.00,0.00,30.29,M,6.21,M,BKN,M,M,M,23000.00,M,M,M,M,M,M,M,M,M,M,M,KQFB 201750Z AUTO 23001KT 9999 BKN230 08/07 A3029 RMK A02 TSNO
QEN,2020-10-20 17:50,128.7500,37.6667,41.00,44.60,M,260.00,5.00,0.00,M,M,3.73,M,BKN,M,M,M,22000.00,M,M,M,M,M,M,M,M,M,M,M,KQEN 201750Z AUTO 26005KT 6000 BKN220 05/07 / RMK A02 TSNO
QES,2020-10-20 17:50,126.4500,36.9667,64.40,50.00,59.50,M,M,0.00,M,M,2.98,M,BKN,M,M,M,23000.00,M,M,M,M,M,M,M,M,M,M,M,KQES 201750Z AUTO 4800 BKN230 18/10 / RMK A02 TSNO
QEJ,2020-10-20 17:50,127.9500,38.2000,41.00,39.20,93.24,50.00,1.00,0.00,30.22,M,3.73,M,BKN,M,M,M,23000.00,M,M,M,M,M,M,M,M,M,M,M,KQEJ 201750Z AUTO 05001KT 6000 BKN230 05/04 A3022 RMK A02 TSNO
QEI,2020-10-20 17:50,128.0667,37.9500,42.80,41.00,93.30,130.00,1.00,0.00,30.23,M,6.21,M,BKN,M,M,M,23000.00,M,M,M,M,M,M,M,M,M,M,M,KQEI 201750Z AUTO 13001KT 9999 BKN230 06/05 A3023 RMK A02 TSNO
QEQ,2020-10-20 17:50,127.5500,37.8500,44.60,46.40,M,70.00,1.00,0.00,30.23,M,2.98,M,CLR,M,M,M,M,M,M,M,M,M,M,M,M,M,M,M,KQEQ 201750Z AUTO 07001KT 4800 CLR 07/08 A3023 RMK A02 TSNO
QEW,2020-10-20 17:50,128.1500,36.4000,44.60,42.80,93.35,300.00,1.00,0.00,30.23,M,6.21,M,BKN,M,M,M,21000.00,M,M,M,M,M,M,M,M,M,M,M,KQEW 201750Z AUTO 30001KT 9999 BKN210 07/06 A3023 RMK A02 TSNO
QEP,2020-10-20 17:50,127.2667,37.4000,46.40,44.60,93.40,100.00,1.00,0.00,30.24,M,3.73,M,BKN,M,M,M,21000.00,M,M,M,M,M,M,M,M,M,M,M,KQEP 201750Z AUTO 10001KT 6000 BKN210 08/07 A3024 RMK A02 TSNO
QFT,2020-10-20 17:50,127.3500,37.6000,44.60,42.80,93.35,180.00,1.00,0.00,30.22,M,M,M,BKN,M,M,M,22000.00,M,M,M,,M,M,M,M,M,M,M,KQFT 201750Z AUTO 18001KT / // BKN220 07/06 A3022 RMK A02 TSNO
QFU,2020-10-20 17:50,126.9667,37.8000,44.60,41.00,87.09,190.00,1.00,0.00,30.24,M,3.73,M,FEW,M,M,M,23000.00,M,M,M,HZ,M,M,M,M,M,M,M,KQFU 201750Z AUTO 19001KT 6000 HZ FEW230 07/05 A3024 RMK A02 TSNO
QEX,2020-10-20 17:50,128.3000,36.1000,50.00,46.40,87.37,30.00,1.00,0.00,30.16,M,6.21,M,BKN,M,M,M,21000.00,M,M,M,M,M,M,M,M,M,M,M,KQEX 201750Z AUTO 03001KT 9999 BKN210 10/08 A3016 RMK A02 TSNO
QFW,2020-10-20 17:50,127.8833,37.6667,44.60,44.60,100.00,30.00,1.00,0.00,30.24,M,6.21,M,BKN,M,M,M,23000.00,M,M,M,M,M,M,M,M,M,M,M,KQFW 201750Z AUTO 03001KT 9999 BKN230 07/07 A3024 RMK A02 TSNO
QFV,2020-10-20 17:50,127.5000,38.0500,41.00,39.20,93.24,10.00,1.00,0.00,30.26,M,6.21,M,BKN,M,M,M,22000.00,M,M,M,M,M,M,M,M,M,M,M,KQFV 201750Z AUTO 01001KT 9999 BKN220 05/04 A3026 RMK A02 TSNO
RKJK,2020-10-20 17:56,126.6220,35.8994,52.70,49.50,88.83,100.00,5.00,0.00,30.16,1021.70,4.00,M,BKN,M,M,M,21000.00,M,M,M,BR,M,M,M,M,M,M,M,RKJK 201756Z AUTO 10005KT 4SM BR BKN210 12/10 A3016 RMK AO2 SLP217 T01150097 10144 20113 57013 $
RKSO,2020-10-20 17:58,127.0296,37.0906,47.50,47.10,98.51,60.00,3.00,0.00,30.18,1022.30,3.00,M,SCT,BKN,M,M,22000.00,27000.00,M,M,BR,M,M,M,M,M,M,46.41,RKSO 201758Z 06003KT 3SM BR SCT220 BKN270 09/08 A3018 RMK AO2A SLP223 T00860084 10104 20080 56011 $
RKSG,2020-10-20 17:58,127.0311,36.9622,51.60,43.70,74.31,90.00,6.00,0.00,30.17,1022.00,3.00,M,FEW,M,M,M,21000.00,M,M,M,HZ,M,M,M,M,M,M,M,RKSG 201758Z 09006KT 3SM HZ FEW210 11/07 A3017 RMK AO2A SLP220 T01090065 10128 20095 57013 $
RKSY,2020-10-20 17:58,126.9753,37.5241,50.40,47.10,88.39,0.00,0.00,0.00,30.18,1022.30,6.21,M,BKN,BKN,M,M,22000.00,24000.00,M,M,M,M,M,M,M,M,M,M,RKSY 201758Z AUTO 00000KT 9999 BKN220 BKN240 10/08 A3018 RMK AO2 SLP223 T01020084 10122 20095 56010 $
QEN,2020-10-20 18:00,128.7500,37.6667,41.00,44.60,M,260.00,5.00,0.00,M,M,3.73,M,BKN,M,M,M,21000.00,M,M,M,M,M,M,M,M,M,M,M,KQEN 201800Z AUTO 26005KT 6000 BKN210 05/07 / RMK A02 TSNO
QES,2020-10-20 18:00,126.4500,36.9667,64.40,50.00,59.50,M,M,0.00,M,M,2.98,M,BKN,M,M,M,23000.00,M,M,M,BR,M,M,M,M,M,M,M,KQES 201800Z AUTO 4800 BR BKN230 18/10 / RMK A02 TSNO
QEJ,2020-10-20 18:00,127.9500,38.2000,41.00,39.20,93.24,60.00,1.00,0.00,30.22,M,2.98,M,BKN,M,M,M,23000.00,M,M,M,M,M,M,M,M,M,M,M,KQEJ 201800Z AUTO 06001KT 4800 BKN230 05/04 A3022 RMK A02 TSNO
QEI,2020-10-20 18:00,128.0667,37.9500,42.80,41.00,93.30,330.00,1.00,0.00,30.23,M,6.21,M,BKN,M,M,M,22000.00,M,M,M,M,M,M,M,M,M,M,M,KQEI 201800Z AUTO 33001KT 9999 BKN220 06/05 A3023 RMK A02 TSNO
QEQ,2020-10-20 18:00,127.5500,37.8500,44.60,46.40,M,70.00,1.00,0.00,30.23,M,2.98,M,SCT,M,M,M,24000.00,M,M,M,M,M,M,M,M,M,M,M,KQEQ 201800Z AUTO 07001KT 4800 SCT240 07/08 A3023 RMK A02 TSNO
QEW,2020-10-20 18:00,128.1500,36.4000,44.60,41.00,87.09,280.00,2.00,0.00,30.24,M,6.21,M,BKN,M,M,M,21000.00,M,M,M,M,M,M,M,M,M,M,M,KQEW 201800Z AUTO 28002KT 9999 BKN210 07/05 A3024 RMK A02 TSNO
QFU,2020-10-20 18:00,126.9667,37.8000,44.60,41.00,87.09,100.00,1.00,0.00,30.24,M,3.73,M,FEW,M,M,M,24000.00,M,M,M,M,M,M,M,M,M,M,M,KQFU 201800Z AUTO 10001KT 6000 FEW240 07/05 A3024 RMK A02 TSNO
QEX,2020-10-20 18:00,128.3000,36.1000,50.00,44.60,81.61,340.00,2.00,0.00,30.16,M,6.21,M,BKN,M,M,M,21000.00,M,M,M,M,M,M,M,M,M,M,M,KQEX 201800Z AUTO 34002KT 9999 BKN210 10/07 A3016 RMK A02 TSNO
QFV,2020-10-20 18:00,127.5000,38.0500,39.20,37.40,93.19,60.00,1.00,0.00,30.26,M,6.21,M,BKN,M,M,M,22000.00,M,M,M,M,M,M,M,M,M,M,M,KQFV 201800Z AUTO 06001KT 9999 BKN220 04/03 A3026 RMK A02 TSNO
RKJB,2020-10-20 18:00,126.3800,34.9800,53.60,48.20,81.87,90.00,5.00,0.00,30.18,M,3.73,M,NCD,M,M,M,M,M,M,M,M,M,M,M,M,M,M,M,RKJB 201800Z AUTO 09005KT 6000 NCD 12/09 Q1022
RKPC,2020-10-20 18:00,126.4930,33.5113,64.40,55.40,72.56,100.00,11.00,0.00,30.12,M,6.21,M,FEW,BKN,M,M,3000.00,20000.00,M,M,M,M,M,M,M,M,M,M,RKPC 201800Z 10011KT 9999 FEW030 BKN200 18/13 Q1020 NOSIG
RKNY,2020-10-20 18:00,128.6692,38.0613,50.00,44.60,81.61,230.00,2.00,0.00,30.18,M,6.21,M,NCD,M,M,M,M,M,M,M,M,M,M,M,M,M,M,M,RKNY 201800Z AUTO 23002KT 9999 NCD 10/07 Q1022
RKSS,2020-10-20 18:00,126.7906,37.5583,48.20,48.20,100.00,360.00,2.00,0.00,30.18,M,3.73,M,NSC,M,M,M,M,M,M,M,M,M,M,M,M,M,M,M,RKSS 201800Z 36002KT 6000 NSC 09/09 Q1022 NOSIG
RKTN,2020-10-20 18:00,128.6589,35.8941,50.00,44.60,81.61,130.00,3.00,0.00,30.24,M,6.21,M,M,M,M,M,M,M,M,M,M,M,M,M,M,M,M,M,RKTN 201800Z 13003KT CAVOK 10/07 Q1024
RKTU,2020-10-20 18:00,127.4991,36.7166,44.60,44.60,100.00,70.00,1.00,0.00,30.21,M,3.73,M,NSC,M,M,M,M,M,M,M,M,M,M,M,M,M,M,M,RKTU 201800Z 07001KT 6000 NSC 07/07 Q1023
QEP,2020-10-20 18:00,127.2667,37.4000,46.40,44.60,93.40,120.00,1.00,0.00,30.24,M,2.98,M,BKN,M,M,M,21000.00,M,M,M,M,M,M,M,M,M,M,M,KQEP 201800Z AUTO 12001KT 4800 BKN210 08/07 A3024 RMK A02 TSNO
RKPK,2020-10-20 18:00,128.9382,35.1795,55.40,48.20,76.66,20.00,1.00,0.00,30.21,M,6.21,M,FEW,BKN,M,M,4000.00,23000.00,M,M,M,M,M,M,M,M,M,M,RKPK 201800Z 02001KT 9999 FEW040 BKN230 13/09 Q1023
QFT,2020-10-20 18:00,127.3500,37.6000,46.40,44.60,93.40,40.00,1.00,0.00,30.21,M,M,M,BKN,M,M,M,23000.00,M,M,M,,M,M,M,M,M,M,M,KQFT 201800Z AUTO 04001KT / // BKN230 08/07 A3021 RMK A02 TSNO
QFW,2020-10-20 18:00,127.8833,37.6667,42.80,44.60,M,100.00,1.00,0.00,30.24,M,6.21,M,BKN,M,M,M,23000.00,M,M,M,M,M,M,M,M,M,M,M,KQFW 201800Z AUTO 10001KT 9999 BKN230 06/07 A3024 RMK A02 TSNO
RKSI,2020-10-20 18:00,126.4500,37.4667,53.60,48.20,81.87,50.00,5.00,0.00,30.18,M,4.35,M,NSC,M,M,M,M,M,M,M,M,M,M,M,M,M,M,M,RKSI 201800Z 05005KT 7000 NSC 12/09 Q1022 NOSIG
RKSM,2020-10-20 18:00,127.1139,37.4458,48.20,44.60,87.28,250.00,1.00,0.00,30.21,M,5.59,M,BKN,M,M,M,20000.00,M,M,M,BR,M,M,M,M,M,M,M,RKSM 201800Z 25001KT 9000 BR BKN200 09/07 A3021
QFB,2020-10-20 18:00,128.7167,35.6500,46.40,44.60,93.40,280.00,1.00,0.00,30.29,M,6.21,M,OVC,M,M,M,23000.00,M,M,M,M,M,M,M,M,M,M,M,KQFB 201800Z AUTO 28001KT 9999 OVC230 08/07 A3029 RMK A02 TSNO
QFB,2020-10-20 18:10,128.7167,35.6500,46.40,44.60,93.40,350.00,1.00,0.00,30.28,M,6.21,M,OVC,M,M,M,23000.00,M,M,M,M,M,M,M,M,M,M,M,KQFB 201810Z AUTO 35001KT 9999 OVC230 08/07 A3028 RMK A02 TSNO
QEN,2020-10-20 18:10,128.7500,37.6667,41.00,44.60,M,260.00,5.00,0.00,M,M,3.73,M,BKN,M,M,M,22000.00,M,M,M,M,M,M,M,M,M,M,M,KQEN 201810Z AUTO 26005KT 6000 BKN220 05/07 / RMK A02 TSNO
QES,2020-10-20 18:10,126.4500,36.9667,64.40,50.00,59.50,M,M,0.00,M,M,2.98,M,BKN,M,M,M,23000.00,M,M,M,BR,M,M,M,M,M,M,M,KQES 201810Z AUTO 4800 BR BKN230 18/10 / RMK A02 TSNO
QEJ,2020-10-20 18:10,127.9500,38.2000,41.00,39.20,93.24,70.00,1.00,0.00,30.22,M,2.49,M,BKN,M,M,M,23000.00,M,M,M,BR,M,M,M,M,M,M,M,KQEJ 201810Z AUTO 07001KT 4000 BR BKN230 05/04 A3022 RMK A02 TSNO
QEI,2020-10-20 18:10,128.0667,37.9500,42.80,41.00,93.30,130.00,1.00,0.00,30.23,M,6.21,M,BKN,M,M,M,23000.00,M,M,M,M,M,M,M,M,M,M,M,KQEI 201810Z AUTO 13001KT 9999 BKN230 06/05 A3023 RMK A02 TSNO
QEQ,2020-10-20 18:10,127.5500,37.8500,44.60,46.40,M,80.00,2.00,0.00,30.23,M,1.99,M,BKN,M,M,M,23000.00,M,M,M,BR,M,M,M,M,M,M,M,KQEQ 201810Z AUTO 08002KT 3200 BR BKN230 07/08 A3023 RMK A02 TSNO
QEW,2020-10-20 18:10,128.1500,36.4000,44.60,41.00,87.09,20.00,3.00,0.00,30.23,M,6.21,M,BKN,M,M,M,21000.00,M,M,M,M,M,M,M,M,M,M,43.09,KQEW 201810Z AUTO 02003KT 9999 BKN210 07/05 A3023 RMK A02 TSNO
QEP,2020-10-20 18:10,127.2667,37.4000,46.40,44.60,93.40,90.00,1.00,0.00,30.23,M,2.98,M,BKN,M,M,M,22000.00,M,M,M,M,M,M,M,M,M,M,M,KQEP 201810Z AUTO 09001KT 4800 BKN220 08/07 A3023 RMK A02 TSNO
QFT,2020-10-20 18:10,127.3500,37.6000,46.40,42.80,87.19,90.00,1.00,0.00,30.21,M,M,M,BKN,M,M,M,24000.00,M,M,M,,M,M,M,M,M,M,M,KQFT 201810Z AUTO 09001KT / // BKN240 08/06 A3021 RMK A02 TSNO
QFU,2020-10-20 18:10,126.9667,37.8000,44.60,41.00,87.09,40.00,2.00,0.00,30.24,M,2.98,M,BKN,M,M,M,23000.00,M,M,M,M,M,M,M,M,M,M,M,KQFU 201810Z AUTO 04002KT 4800 BKN230 07/05 A3024 RMK A02 TSNO
QEX,2020-10-20 18:10,128.3000,36.1000,50.00,44.60,81.61,20.00,3.00,0.00,30.16,M,6.21,M,BKN,M,M,M,23000.00,M,M,M,M,M,M,M,M,M,M,M,KQEX 201810Z AUTO 02003KT 9999 BKN230 10/07 A3016 RMK A02 TSNO
QFW,2020-10-20 18:10,127.8833,37.6667,44.60,44.60,100.00,20.00,1.00,0.00,30.25,M,6.21,M,BKN,M,M,M,23000.00,M,M,M,M,M,M,M,M,M,M,M,KQFW 201810Z AUTO 02001KT 9999 BKN230 07/07 A3025 RMK A02 TSNO
QFV,2020-10-20 18:10,127.5000,38.0500,39.20,37.40,93.19,120.00,1.00,0.00,30.26,M,6.21,M,BKN,M,M,M,22000.00,M,M,M,M,M,M,M,M,M,M,M,KQFV 201810Z AUTO 12001KT 9999 BKN220 04/03 A3026 RMK A02 TSNO
QFB,2020-10-20 18:20,128.7167,35.6500,44.60,42.80,93.35,330.00,3.00,0.00,30.28,M,6.21,M,OVC,M,M,M,23000.00,M,M,M,M,M,M,M,M,M,M,43.09,KQFB 201820Z AUTO 33003KT 9999 OVC230 07/06 A3028 RMK A02 TSNO
QEN,2020-10-20 18:20,128.7500,37.6667,41.00,44.60,M,260.00,6.00,0.00,M,M,3.73,M,BKN,M,M,M,22000.00,M,M,M,M,M,M,M,M,M,M,M,KQEN 201820Z AUTO 26006KT 6000 BKN220 05/07 / RMK A02 TSNO
QES,2020-10-20 18:20,126.4500,36.9667,64.40,50.00,59.50,M,M,0.00,M,M,2.49,M,BKN,M,M,M,22000.00,M,M,M,BR,M,M,M,M,M,M,M,KQES 201820Z AUTO 4000 BR BKN220 18/10 / RMK A02 TSNO
QEJ,2020-10-20 18:20,127.9500,38.2000,41.00,39.20,93.24,170.00,1.00,0.00,30.22,M,3.73,M,BKN,M,M,M,22000.00,M,M,M,M,M,M,M,M,M,M,M,KQEJ 201820Z AUTO 17001KT 6000 BKN220 05/04 A3022 RMK A02 TSNO
QEI,2020-10-20 18:20,128.0667,37.9500,42.80,41.00,93.30,290.00,1.00,0.00,30.23,M,6.21,M,BKN,M,M,M,22000.00,M,M,M,M,M,M,M,M,M,M,M,KQEI 201820Z AUTO 29001KT 9999 BKN220 06/05 A3023 RMK A02 TSNO
QEQ,2020-10-20 18:20,127.5500,37.8500,44.60,44.60,100.00,60.00,4.00,0.00,30.22,M,2.98,M,BKN,M,M,M,23000.00,M,M,M,M,M,M,M,M,M,M,42.13,KQEQ 201820Z AUTO 06004KT 4800 BKN230 07/07 A3022 RMK A02 TSNO
QEW,2020-10-20 18:20,128.1500,36.4000,44.60,41.00,87.09,150.00,2.00,0.00,30.24,M,6.21,M,BKN,M,M,M,21000.00,M,M,M,M,M,M,M,M,M,M,M,KQEW 201820Z AUTO 15002KT 9999 BKN210 07/05 A3024 RMK A02 TSNO
QEP,2020-10-20 18:20,127.2667,37.4000,46.40,44.60,93.40,100.00,1.00,0.00,30.23,M,3.73,M,BKN,M,M,M,22000.00,M,M,M,M,M,M,M,M,M,M,M,KQEP 201820Z AUTO 10001KT 6000 BKN220 08/07 A3023 RMK A02 TSNO
QFT,2020-10-20 18:20,127.3500,37.6000,46.40,44.60,93.40,40.00,3.00,0.00,30.21,M,M,M,BKN,M,M,M,23000.00,M,M,M,,M,M,M,M,M,M,45.15,KQFT 201820Z AUTO 04003KT / // BKN230 08/07 A3021 RMK A02 TSNO
QFU,2020-10-20 18:20,126.9667,37.8000,44.60,41.00,87.09,340.00,3.00,0.00,30.23,M,2.98,M,BKN,M,M,M,23000.00,M,M,M,BR,M,M,M,M,M,M,43.09,KQFU 201820Z AUTO 34003KT 4800 BR BKN230 07/05 A3023 RMK A02 TSNO
QEX,2020-10-20 18:20,128.3000,36.1000,48.20,44.60,87.28,360.00,2.00,0.00,30.15,M,6.21,M,BKN,M,M,M,23000.00,M,M,M,M,M,M,M,M,M,M,M,KQEX 201820Z AUTO 36002KT 9999 BKN230 09/07 A3015 RMK A02 TSNO
QFW,2020-10-20 18:20,127.8833,37.6667,42.80,44.60,M,160.00,1.00,0.00,30.24,M,6.21,M,BKN,M,M,M,20000.00,M,M,M,M,M,M,M,M,M,M,M,KQFW 201820Z AUTO 16001KT 9999 BKN200 06/07 A3024 RMK A02 TSNO
QFV,2020-10-20 18:20,127.5000,38.0500,39.20,37.40,93.19,60.00,1.00,0.00,30.25,M,6.21,M,SCT,M,M,M,22000.00,M,M,M,M,M,M,M,M,M,M,M,KQFV 201820Z AUTO 06001KT 9999 SCT220 04/03 A3025 RMK A02 TSNO
RKTI,2020-10-20 18:20,127.8853,37.0300,42.80,42.80,100.00,130.00,1.00,0.00,30.22,M,0.99,M,SCT,BKN,M,M,500.00,20000.00,M,M,BR,M,M,M,M,M,M,M,RKTI 201820Z 13001KT 1600 BR SCT005 BKN200 06/06 A3022 RMK CIG200
QFB,2020-10-20 18:30,128.7167,35.6500,44.60,42.80,93.35,300.00,3.00,0.00,30.28,M,5.59,M,BKN,M,M,M,22000.00,M,M,M,M,M,M,M,M,M,M,43.09,KQFB 201830Z AUTO 30003KT 9000 BKN220 07/06 A3028 RMK A02 TSNO
QEN,2020-10-20 18:30,128.7500,37.6667,41.00,44.60,M,260.00,5.00,0.00,M,M,3.73,M,BKN,M,M,M,22000.00,M,M,M,M,M,M,M,M,M,M,M,KQEN 201830Z AUTO 26005KT 6000 BKN220 05/07 / RMK A02 TSNO
QES,2020-10-20 18:30,126.4500,36.9667,64.40,50.00,59.50,M,M,0.00,M,M,2.49,M,BKN,M,M,M,21000.00,M,M,M,BR,M,M,M,M,M,M,M,KQES 201830Z AUTO 4000 BR BKN210 18/10 / RMK A02 TSNO
QEJ,2020-10-20 18:30,127.9500,38.2000,41.00,39.20,93.24,170.00,1.00,0.00,30.22,M,3.73,M,BKN,M,M,M,22000.00,M,M,M,M,M,M,M,M,M,M,M,KQEJ 201830Z AUTO 17001KT 6000 BKN220 05/04 A3022 RMK A02 TSNO
QEI,2020-10-20 18:30,128.0667,37.9500,42.80,41.00,93.30,110.00,2.00,0.00,30.23,M,6.21,M,BKN,M,M,M,22000.00,M,M,M,M,M,M,M,M,M,M,M,KQEI 201830Z AUTO 11002KT 9999 BKN220 06/05 A3023 RMK A02 TSNO
QEQ,2020-10-20 18:30,127.5500,37.8500,44.60,44.60,100.00,40.00,1.00,0.00,30.22,M,2.98,M,BKN,M,M,M,23000.00,M,M,M,M,M,M,M,M,M,M,M,KQEQ 201830Z AUTO 04001KT 4800 BKN230 07/07 A3022 RMK A02 TSNO
QEW,2020-10-20 18:30,128.1500,36.4000,42.80,41.00,93.30,90.00,1.00,0.00,30.23,M,6.21,M,BKN,M,M,M,21000.00,M,M,M,M,M,M,M,M,M,M,M,KQEW 201830Z AUTO 09001KT 9999 BKN210 06/05 A3023 RMK A02 TSNO
QEP,2020-10-20 18:30,127.2667,37.4000,46.40,44.60,93.40,120.00,1.00,0.00,30.23,M,2.98,M,BKN,M,M,M,22000.00,M,M,M,M,M,M,M,M,M,M,M,KQEP 201830Z AUTO 12001KT 4800 BKN220 08/07 A3023 RMK A02 TSNO
QFT,2020-10-20 18:30,127.3500,37.6000,46.40,42.80,87.19,10.00,1.00,0.00,30.21,M,M,M,BKN,M,M,M,22000.00,M,M,M,,M,M,M,M,M,M,M,KQFT 201830Z AUTO 01001KT / // BKN220 08/06 A3021 RMK A02 TSNO
QFU,2020-10-20 18:30,126.9667,37.8000,46.40,41.00,81.34,360.00,1.00,0.00,30.23,M,2.98,M,BKN,M,M,M,22000.00,M,M,M,HZ,M,M,M,M,M,M,M,KQFU 201830Z AUTO 36001KT 4800 HZ BKN220 08/05 A3023 RMK A02 TSNO
QEX,2020-10-20 18:30,128.3000,36.1000,48.20,44.60,87.28,360.00,2.00,0.00,30.15,M,6.21,M,BKN,M,M,M,23000.00,M,M,M,M,M,M,M,M,M,M,M,KQEX 201830Z AUTO 36002KT 9999 BKN230 09/07 A3015 RMK A02 TSNO
QFW,2020-10-20 18:30,127.8833,37.6667,42.80,44.60,M,110.00,2.00,0.00,30.24,M,6.21,M,BKN,M,M,M,21000.00,M,M,M,M,M,M,M,M,M,M,M,KQFW 201830Z AUTO 11002KT 9999 BKN210 06/07 A3024 RMK A02 TSNO
QFV,2020-10-20 18:30,127.5000,38.0500,39.20,37.40,93.19,40.00,1.00,0.00,30.25,M,6.21,M,FEW,SCT,M,M,22000.00,24000.00,M,M,M,M,M,M,M,M,M,M,KQFV 201830Z AUTO 04001KT 9999 FEW220 SCT240 04/03 A3025 RMK A02 TSNO
RKSI,2020-10-20 18:30,126.4500,37.4667,55.40,48.20,76.66,90.00,4.00,0.00,30.15,M,4.35,M,NSC,M,M,M,M,M,M,M,M,M,M,M,M,M,M,M,RKSI 201830Z 09004KT 7000 NSC 13/09 Q1021 NOSIG
QFB,2020-10-20 18:40,128.7167,35.6500,44.60,42.80,93.35,280.00,3.00,0.00,30.27,M,4.97,M,BKN,M,M,M,21000.00,M,M,M,M,M,M,M,M,M,M,43.09,KQFB 201840Z AUTO 28003KT 8000 BKN210 07/06 A3027 RMK A02 TSNO
QEN,2020-10-20 18:40,128.7500,37.6667,41.00,44.60,M,250.00,5.00,0.00,M,M,2.49,M,FEW,BKN,M,M,100.00,22000.00,M,M,BR,M,M,M,M,M,M,M,KQEN 201840Z AUTO 25005KT 4000 BR FEW001 BKN220 05/07 / RMK A02 TSNO
QES,2020-10-20 18:40,126.4500,36.9667,64.40,50.00,59.50,M,M,0.00,M,M,2.49,M,BKN,M,M,M,21000.00,M,M,M,BR,M,M,M,M,M,M,M,KQES 201840Z AUTO 4000 BR BKN210 18/10 / RMK A02 TSNO
QEJ,2020-10-20 18:40,127.9500,38.2000,41.00,39.20,93.24,290.00,1.00,0.00,30.22,M,3.73,M,BKN,M,M,M,22000.00,M,M,M,M,M,M,M,M,M,M,M,KQEJ 201840Z AUTO 29001KT 6000 BKN220 05/04 A3022 RMK A02 TSNO
QEI,2020-10-20 18:40,128.0667,37.9500,42.80,41.00,93.30,330.00,1.00,0.00,30.22,M,6.21,M,BKN,M,M,M,22000.00,M,M,M,M,M,M,M,M,M,M,M,KQEI 201840Z AUTO 33001KT 9999 BKN220 06/05 A3022 RMK A02 TSNO
QEQ,2020-10-20 18:40,127.5500,37.8500,44.60,44.60,100.00,0.00,0.00,0.00,30.22,M,2.49,M,BKN,BKN,M,M,21000.00,23000.00,M,M,BR,M,M,M,M,M,M,M,KQEQ 201840Z AUTO 00000KT 4000 BR BKN210 BKN230 07/07 A3022 RMK A02 TSNO
QEW,2020-10-20 18:40,128.1500,36.4000,44.60,41.00,87.09,300.00,1.00,0.00,30.23,M,6.21,M,BKN,M,M,M,23000.00,M,M,M,M,M,M,M,M,M,M,M,KQEW 201840Z AUTO 30001KT 9999 BKN230 07/05 A3023 RMK A02 TSNO
QEP,2020-10-20 18:40,127.2667,37.4000,46.40,44.60,93.40,0.00,0.00,0.00,30.22,M,3.73,M,BKN,M,M,M,20000.00,M,M,M,M,M,M,M,M,M,M,M,KQEP 201840Z AUTO 00000KT 6000 BKN200 08/07 A3022 RMK A02 TSNO
QFT,2020-10-20 18:40,127.3500,37.6000,46.40,44.60,93.40,40.00,3.00,0.00,30.20,M,M,M,BKN,M,M,M,21000.00,M,M,M,,M,M,M,M,M,M,45.15,KQFT 201840Z AUTO 04003KT / // BKN210 08/07 A3020 RMK A02 TSNO
QFU,2020-10-20 18:40,126.9667,37.8000,46.40,41.00,81.34,160.00,1.00,0.00,30.23,M,3.73,M,BKN,M,M,M,20000.00,M,M,M,HZ,M,M,M,M,M,M,M,KQFU 201840Z AUTO 16001KT 6000 HZ BKN200 08/05 A3023 RMK A02 TSNO
QEX,2020-10-20 18:40,128.3000,36.1000,48.20,44.60,87.28,280.00,3.00,0.00,30.16,M,6.21,M,BKN,M,M,M,22000.00,M,M,M,M,M,M,M,M,M,M,47.21,KQEX 201840Z AUTO 28003KT 9999 BKN220 09/07 A3016 RMK A02 TSNO
QFW,2020-10-20 18:40,127.8833,37.6667,42.80,44.60,M,200.00,1.00,0.00,30.24,M,6.21,M,BKN,M,M,M,21000.00,M,M,M,M,M,M,M,M,M,M,M,KQFW 201840Z AUTO 20001KT 9999 BKN210 06/07 A3024 RMK A02 TSNO
QFV,2020-10-20 18:40,127.5000,38.0500,39.20,37.40,93.19,120.00,1.00,0.00,30.25,M,6.21,M,BKN,M,M,M,21000.00,M,M,M,M,M,M,M,M,M,M,M,KQFV 201840Z AUTO 12001KT 9999 BKN210 04/03 A3025 RMK A02 TSNO
QFB,2020-10-20 18:50,128.7167,35.6500,46.40,44.60,93.40,260.00,2.00,0.00,30.28,M,6.21,M,BKN,M,M,M,110000.00,M,M,M,M,M,M,M,M,M,M,M,KQFB 201850Z AUTO 26002KT 9999 BKN1100 08/07 A3028 RMK A02 TSNO
QEN,2020-10-20 18:50,128.7500,37.6667,41.00,44.60,M,240.00,4.00,0.00,M,M,1.49,M,SCT,BKN,M,M,100.00,22000.00,M,M,BR,M,M,M,M,M,M,M,KQEN 201850Z AUTO 24004KT 2400 BR SCT001 BKN220 05/07 / RMK A02 TSNO
QEI,2020-10-20 18:50,128.0667,37.9500,42.80,41.00,93.30,110.00,1.00,0.00,30.22,M,6.21,M,BKN,M,M,M,22000.00,M,M,M,M,M,M,M,M,M,M,M,KQEI 201850Z AUTO 11001KT 9999 BKN220 06/05 A3022 RMK A02 TSNO
QEW,2020-10-20 18:50,128.1500,36.4000,44.60,41.00,87.09,300.00,1.00,0.00,30.23,M,6.21,M,BKN,M,M,M,23000.00,M,M,M,M,M,M,M,M,M,M,M,KQEW 201850Z AUTO 30001KT 9999 BKN230 07/05 A3023 RMK A02 TSNO
QEX,2020-10-20 18:50,128.3000,36.1000,50.00,44.60,81.61,290.00,2.00,0.00,30.16,M,6.21,M,BKN,M,M,M,22000.00,M,M,M,M,M,M,M,M,M,M,M,KQEX 201850Z AUTO 29002KT 9999 BKN220 10/07 A3016 RMK A02 TSNO
QFV,2020-10-20 18:50,127.5000,38.0500,39.20,37.40,93.19,110.00,1.00,0.00,30.25,M,5.59,M,BKN,M,M,M,21000.00,M,M,M,,M,M,M,M,M,M,M,KQFV 201850Z AUTO 11001KT 9000 // BKN210 04/03 A3025 RMK A02 TSNO
QES,2020-10-20 18:50,126.4500,36.9667,64.40,50.00,59.50,M,M,0.00,M,M,2.49,M,BKN,M,M,M,21000.00,M,M,M,BR,M,M,M,M,M,M,M,KQES 201850Z AUTO 4000 BR BKN210 18/10 / RMK A02 TSNO
QEJ,2020-10-20 18:50,127.9500,38.2000,41.00,39.20,93.24,320.00,1.00,0.00,30.22,M,3.73,M,BKN,M,M,M,22000.00,M,M,M,M,M,M,M,M,M,M,M,KQEJ 201850Z AUTO 32001KT 6000 BKN220 05/04 A3022 RMK A02 TSNO
QEQ,2020-10-20 18:50,127.5500,37.8500,44.60,46.40,M,70.00,2.00,0.00,30.21,M,2.49,M,BKN,M,M,M,21000.00,M,M,M,BR,M,M,M,M,M,M,M,KQEQ 201850Z AUTO 07002KT 4000 BR BKN210 07/08 A3021 RMK A02 TSNO
QEP,2020-10-20 18:50,127.2667,37.4000,46.40,44.60,93.40,100.00,1.00,0.00,30.22,M,3.73,M,BKN,M,M,M,110000.00,M,M,M,M,M,M,M,M,M,M,M,KQEP 201850Z AUTO 10001KT 6000 BKN1100 08/07 A3022 RMK A02 TSNO
QFT,2020-10-20 18:50,127.3500,37.6000,48.20,44.60,87.28,20.00,2.00,0.00,30.20,M,M,M,BKN,M,M,M,20000.00,M,M,M,,M,M,M,M,M,M,M,KQFT 201850Z AUTO 02002KT / // BKN200 09/07 A3020 RMK A02 TSNO
QFU,2020-10-20 18:50,126.9667,37.8000,44.60,41.00,87.09,30.00,1.00,0.00,30.22,M,2.98,M,BKN,M,M,M,110000.00,M,M,M,M,M,M,M,M,M,M,M,KQFU 201850Z AUTO 03001KT 4800 BKN1100 07/05 A3022 RMK A02 TSNO
QFW,2020-10-20 18:50,127.8833,37.6667,44.60,44.60,100.00,90.00,1.00,0.00,30.24,M,6.21,M,BKN,M,M,M,21000.00,M,M,M,M,M,M,M,M,M,M,M,KQFW 201850Z AUTO 09001KT 9999 BKN210 07/07 A3024 RMK A02 TSNO
RKSG,2020-10-20 18:56,127.0311,36.9622,52.20,43.20,71.30,100.00,4.00,0.00,30.16,1021.60,5.00,M,FEW,M,M,M,22000.00,M,M,M,HZ,M,M,M,M,M,M,M,RKSG 201856Z 10004KT 5SM HZ FEW220 11/06 A3016 RMK AO2A SLP216 T01120062 $
RKJK,2020-10-20 18:56,126.6220,35.8994,52.50,47.80,83.97,100.00,7.00,0.00,30.15,1021.40,7.00,M,SCT,M,M,M,20000.00,M,M,M,M,M,M,M,M,M,M,M,RKJK 201856Z AUTO 10007KT 7SM SCT200 11/09 A3015 RMK AO2 SLP214 T01140088 $
RKSO,2020-10-20 18:58,127.0296,37.0906,48.00,47.80,99.25,80.00,5.00,0.00,30.16,1021.60,3.00,M,OVC,M,M,M,21000.00,M,M,M,BR,M,M,M,M,M,M,45.40,RKSO 201858Z 08005KT 3SM BR OVC210 09/09 A3016 RMK AO2A SLP216 T00890088 $
RKSY,2020-10-20 18:58,126.9753,37.5241,55.00,46.20,72.14,0.00,0.00,0.00,30.15,1021.30,6.21,M,BKN,OVC,M,M,20000.00,22000.00,M,M,M,M,M,M,M,M,M,M,RKSY 201858Z AUTO 00000KT 9999 BKN200 OVC220 13/08 A3015 RMK AO2 SLP213 T01280079 $
QFB,2020-10-20 19:00,128.7167,35.6500,44.60,42.80,93.35,280.00,4.00,0.00,30.28,M,6.21,M,BKN,M,M,M,110000.00,M,M,M,M,M,M,M,M,M,M,42.13,KQFB 201900Z AUTO 28004KT 9999 BKN1100 07/06 A3028 RMK A02 TSNO
QEN,2020-10-20 19:00,128.7500,37.6667,41.00,44.60,M,260.00,7.00,0.00,M,M,1.49,M,SCT,BKN,M,M,100.00,21000.00,M,M,BR,M,M,M,M,M,M,M,KQEN 201900Z AUTO 26007KT 2400 BR SCT001 BKN210 05/07 / RMK A02 TSNO
QES,2020-10-20 19:00,126.4500,36.9667,64.40,50.00,59.50,M,M,0.00,M,M,1.99,M,BKN,M,M,M,21000.00,M,M,M,BR,M,M,M,M,M,M,M,KQES 201900Z AUTO 3200 BR BKN210 18/10 / RMK A02 TSNO
QEI,2020-10-20 19:00,128.0667,37.9500,42.80,41.00,93.30,130.00,1.00,0.00,30.22,M,6.21,M,FEW,BKN,M,M,600.00,22000.00,M,M,M,M,M,M,M,M,M,M,KQEI 201900Z AUTO 13001KT 9999 FEW006 BKN220 06/05 A3022 RMK A02 TSNO
QEW,2020-10-20 19:00,128.1500,36.4000,42.80,41.00,93.30,280.00,1.00,0.00,30.22,M,6.21,M,BKN,M,M,M,22000.00,M,M,M,M,M,M,M,M,M,M,M,KQEW 201900Z AUTO 28001KT 9999 BKN220 06/05 A3022 RMK A02 TSNO
QEX,2020-10-20 19:00,128.3000,36.1000,50.00,44.60,81.61,360.00,1.00,0.00,30.15,M,6.21,M,BKN,M,M,M,21000.00,M,M,M,M,M,M,M,M,M,M,M,KQEX 201900Z AUTO 36001KT 9999 BKN210 10/07 A3015 RMK A02 TSNO
QFV,2020-10-20 19:00,127.5000,38.0500,39.20,37.40,93.19,0.00,0.00,0.00,30.24,M,5.59,M,BKN,M,M,M,21000.00,M,M,M,,M,M,M,M,M,M,M,KQFV 201900Z AUTO 00000KT 9000 // BKN210 04/03 A3024 RMK A02 TSNO
RKJB,2020-10-20 19:00,126.3800,34.9800,53.60,50.00,87.56,90.00,4.00,0.00,30.15,M,3.73,M,NCD,M,M,M,M,M,M,M,M,M,M,M,M,M,M,M,RKJB 201900Z AUTO 09004KT 6000 NCD 12/10 Q1021
RKPC,2020-10-20 19:00,126.4930,33.5113,64.40,55.40,72.56,110.00,9.00,0.00,30.12,M,6.21,M,FEW,BKN,M,M,3000.00,20000.00,M,M,M,M,M,M,M,M,M,M,RKPC 201900Z 11009KT 9999 FEW030 BKN200 18/13 Q1020 NOSIG
RKNY,2020-10-20 19:00,128.6692,38.0613,51.80,44.60,76.34,230.00,3.00,0.00,30.15,M,6.21,M,NCD,M,M,M,M,M,M,M,M,M,M,M,M,M,M,M,RKNY 201900Z AUTO 23003KT 9999 NCD 11/07 Q1021
RKSS,2020-10-20 19:00,126.7906,37.5583,50.00,48.20,93.50,60.00,2.00,0.00,30.15,M,4.35,M,NSC,M,M,M,M,M,M,M,M,M,M,M,M,M,M,M,RKSS 201900Z 06002KT 7000 NSC 10/09 Q1021 NOSIG
RKTN,2020-10-20 19:00,128.6589,35.8941,51.80,46.40,81.74,30.00,2.00,0.00,30.21,M,6.21,M,M,M,M,M,M,M,M,M,M,M,M,M,M,M,M,M,RKTN 201900Z 03002KT CAVOK 11/08 Q1023
RKTU,2020-10-20 19:00,127.4991,36.7166,46.40,44.60,93.40,150.00,1.00,0.00,30.21,M,3.73,M,NSC,M,M,M,M,M,M,M,M,M,M,M,M,M,M,M,RKTU 201900Z 15001KT 6000 NSC 08/07 Q1023
QEJ,2020-10-20 19:00,127.9500,38.2000,41.00,39.20,93.24,100.00,1.00,0.00,30.21,M,3.73,M,BKN,M,M,M,23000.00,M,M,M,M,M,M,M,M,M,M,M,KQEJ 201900Z AUTO 10001KT 6000 BKN230 05/04 A3021 RMK A02 TSNO
QEQ,2020-10-20 19:00,127.5500,37.8500,44.60,44.60,100.00,40.00,2.00,0.00,30.20,M,2.98,M,BKN,M,M,M,19000.00,M,M,M,M,M,M,M,M,M,M,M,KQEQ 201900Z AUTO 04002KT 4800 BKN190 07/07 A3020 RMK A02 TSNO
QEP,2020-10-20 19:00,127.2667,37.4000,46.40,44.60,93.40,0.00,0.00,0.00,30.22,M,3.73,M,BKN,BKN,M,M,110000.00,23000.00,M,M,M,M,M,M,M,M,M,M,KQEP 201900Z AUTO 00000KT 6000 BKN1100 BKN230 08/07 A3022 RMK A02 TSNO
RKPK,2020-10-20 19:00,128.9382,35.1795,55.40,48.20,76.66,350.00,1.00,0.00,30.18,M,6.21,M,FEW,BKN,M,M,4000.00,23000.00,M,M,M,M,M,M,M,M,M,M,RKPK 201900Z 35001KT 9999 FEW040 BKN230 13/09 Q1022
QFT,2020-10-20 19:00,127.3500,37.6000,48.20,44.60,87.28,40.00,1.00,0.00,30.20,M,M,M,BKN,M,M,M,110000.00,M,M,M,,M,M,M,M,M,M,M,KQFT 201900Z AUTO 04001KT / // BKN1100 09/07 A3020 RMK A02 TSNO
QFU,2020-10-20 19:00,126.9667,37.8000,46.40,41.00,81.34,0.00,0.00,0.00,30.22,M,2.98,M,BKN,BKN,M,M,19000.00,23000.00,M,M,HZ,M,M,M,M,M,M,M,KQFU 201900Z AUTO 00000KT 4800 HZ BKN190 BKN230 08/05 A3022 RMK A02 TSNO
QFW,2020-10-20 19:00,127.8833,37.6667,44.60,44.60,100.00,0.00,0.00,0.00,30.24,M,6.21,M,BKN,M,M,M,21000.00,M,M,M,M,M,M,M,M,M,M,M,KQFW 201900Z AUTO 00000KT 9999 BKN210 07/07 A3024 RMK A02 TSNO
RKSI,2020-10-20 19:00,126.4500,37.4667,55.40,50.00,81.99,100.00,3.00,0.00,30.15,M,3.73,M,NSC,M,M,M,M,M,M,M,M,M,M,M,M,M,M,M,RKSI 201900Z 10003KT 6000 NSC 13/10 Q1021 NOSIG
RKSM,2020-10-20 19:00,127.1139,37.4458,51.80,46.40,81.74,160.00,3.00,0.00,30.19,M,5.59,M,BKN,M,M,M,20000.00,M,M,M,BR,M,M,M,M,M,M,M,RKSM 201900Z 16003KT 9000 BR BKN200 11/08 A3019
QFB,2020-10-20 19:10,128.7167,35.6500,46.40,42.80,87.19,290.00,2.00,0.00,30.27,M,6.21,M,BKN,M,M,M,110000.00,M,M,M,M,M,M,M,M,M,M,M,KQFB 201910Z AUTO 29002KT 9999 BKN1100 08/06 A3027 RMK A02 TSNO
QEN,2020-10-20 19:10,128.7500,37.6667,41.00,44.60,M,270.00,7.00,0.00,M,M,1.99,M,SCT,BKN,M,M,100.00,110000.00,M,M,BR,M,M,M,M,M,M,M,KQEN 201910Z AUTO 27007KT 3200 BR SCT001 BKN1100 05/07 / RMK A02 TSNO
QES,2020-10-20 19:10,126.4500,36.9667,64.40,50.00,59.50,M,M,0.00,M,M,1.99,M,BKN,M,M,M,20000.00,M,M,M,BR,M,M,M,M,M,M,M,KQES 201910Z AUTO 3200 BR BKN200 18/10 / RMK A02 TSNO
QEJ,2020-10-20 19:10,127.9500,38.2000,41.00,39.20,93.24,0.00,0.00,0.00,30.22,M,2.98,M,BKN,M,M,M,22000.00,M,M,M,M,M,M,M,M,M,M,M,KQEJ 201910Z AUTO 00000KT 4800 BKN220 05/04 A3022 RMK A02 TSNO
QEI,2020-10-20 19:10,128.0667,37.9500,42.80,41.00,93.30,250.00,1.00,0.00,30.23,M,6.21,M,FEW,BKN,M,M,600.00,21000.00,M,M,M,M,M,M,M,M,M,M,KQEI 201910Z AUTO 25001KT 9999 FEW006 BKN210 06/05 A3023 RMK A02 TSNO
QEW,2020-10-20 19:10,128.1500,36.4000,44.60,41.00,87.09,270.00,2.00,0.00,30.23,M,6.21,M,BKN,M,M,M,22000.00,M,M,M,M,M,M,M,M,M,M,M,KQEW 201910Z AUTO 27002KT 9999 BKN220 07/05 A3023 RMK A02 TSNO
QEP,2020-10-20 19:10,127.2667,37.4000,46.40,44.60,93.40,160.00,1.00,0.00,30.21,M,3.73,M,FEW,BKN,M,M,110000.00,22000.00,M,M,M,M,M,M,M,M,M,M,KQEP 201910Z AUTO 16001KT 6000 FEW1100 BKN220 08/07 A3021 RMK A02 TSNO
QFT,2020-10-20 19:10,127.3500,37.6000,46.40,44.60,93.40,50.00,2.00,0.00,30.19,M,M,M,BKN,M,M,M,110000.00,M,M,M,,M,M,M,M,M,M,M,KQFT 201910Z AUTO 05002KT / // BKN1100 08/07 A3019 RMK A02 TSNO
QFU,2020-10-20 19:10,126.9667,37.8000,46.40,42.80,87.19,320.00,3.00,0.00,30.21,M,2.98,M,SCT,BKN,M,M,19000.00,21000.00,M,M,M,M,M,M,M,M,M,45.15,KQFU 201910Z AUTO 32003KT 4800 SCT190 BKN210 08/06 A3021 RMK A02 TSNO
QEX,2020-10-20 19:10,128.3000,36.1000,50.00,44.60,81.61,300.00,2.00,0.00,30.15,M,6.21,M,BKN,M,M,M,21000.00,M,M,M,M,M,M,M,M,M,M,M,KQEX 201910Z AUTO 30002KT 9999 BKN210 10/07 A3015 RMK A02 TSNO
QFV,2020-10-20 19:10,127.5000,38.0500,39.20,37.40,93.19,300.00,1.00,0.00,30.24,M,6.21,M,BKN,M,M,M,20000.00,M,M,M,M,M,M,M,M,M,M,M,KQFV 201910Z AUTO 30001KT 9999 BKN200 04/03 A3024 RMK A02 TSNO
QFB,2020-10-20 19:20,128.7167,35.6500,46.40,42.80,87.19,30.00,1.00,0.00,30.26,M,6.21,M,BKN,M,M,M,22000.00,M,M,M,M,M,M,M,M,M,M,M,KQFB 201920Z AUTO 03001KT 9999 BKN220 08/06 A3026 RMK A02 TSNO
QEN,2020-10-20 19:20,128.7500,37.6667,41.00,44.60,M,260.00,7.00,0.00,M,M,3.73,M,FEW,BKN,BKN,M,100.00,19000.00,22000.00,M,M,M,M,M,M,M,M,M,KQEN 201920Z AUTO 26007KT 6000 FEW001 BKN190 BKN220 05/07 / RMK A02 TSNO
QES,2020-10-20 19:20,126.4500,36.9667,64.40,50.00,59.50,M,M,0.00,M,M,1.74,M,BKN,M,M,M,20000.00,M,M,M,BR,M,M,M,M,M,M,M,KQES 201920Z AUTO 2800 BR BKN200 18/10 / RMK A02 TSNO
QEJ,2020-10-20 19:20,127.9500,38.2000,41.00,39.20,93.24,0.00,0.00,0.00,30.21,M,2.98,M,BKN,M,M,M,21000.00,M,M,M,M,M,M,M,M,M,M,M,KQEJ 201920Z AUTO 00000KT 4800 BKN210 05/04 A3021 RMK A02 TSNO
QEI,2020-10-20 19:20,128.0667,37.9500,42.80,41.00,93.30,0.00,0.00,0.00,30.22,M,6.21,M,FEW,BKN,M,M,600.00,21000.00,M,M,M,M,M,M,M,M,M,M,KQEI 201920Z AUTO 00000KT 9999 FEW006 BKN210 06/05 A3022 RMK A02 TSNO
QEW,2020-10-20 19:20,128.1500,36.4000,44.60,41.00,87.09,340.00,2.00,0.00,30.22,M,6.21,M,BKN,M,M,M,22000.00,M,M,M,M,M,M,M,M,M,M,M,KQEW 201920Z AUTO 34002KT 9999 BKN220 07/05 A3022 RMK A02 TSNO
QFU,2020-10-20 19:20,126.9667,37.8000,46.40,42.80,87.19,100.00,2.00,0.00,30.21,M,2.98,M,BKN,BKN,M,M,18000.00,22000.00,M,M,HZ,M,M,M,M,M,M,M,KQFU 201920Z AUTO 10002KT 4800 HZ BKN180 BKN220 08/06 A3021 RMK A02 TSNO
QEX,2020-10-20 19:20,128.3000,36.1000,48.20,44.60,87.28,260.00,1.00,0.00,30.15,M,6.21,M,BKN,M,M,M,21000.00,M,M,M,M,M,M,M,M,M,M,M,KQEX 201920Z AUTO 26001KT 9999 BKN210 09/07 A3015 RMK A02 TSNO
QFV,2020-10-20 19:20,127.5000,38.0500,41.00,37.40,86.89,110.00,1.00,0.00,30.25,M,6.21,M,BKN,M,M,M,110000.00,M,M,M,M,M,M,M,M,M,M,M,KQFV 201920Z AUTO 11001KT 9999 BKN1100 05/03 A3025 RMK A02 TSNO
QEQ,2020-10-20 19:20,127.5500,37.8500,46.40,46.40,100.00,320.00,1.00,0.00,30.21,M,2.98,M,BKN,M,M,M,18000.00,M,M,M,M,M,M,M,M,M,M,M,KQEQ 201920Z AUTO 32001KT 4800 BKN180 08/08 A3021 RMK A02 TSNO
QEP,2020-10-20 19:20,127.2667,37.4000,46.40,44.60,93.40,130.00,1.00,0.00,30.21,M,2.98,M,BKN,M,M,M,22000.00,M,M,M,M,M,M,M,M,M,M,M,KQEP 201920Z AUTO 13001KT 4800 BKN220 08/07 A3021 RMK A02 TSNO
QFT,2020-10-20 19:20,127.3500,37.6000,48.20,44.60,87.28,30.00,2.00,0.00,30.18,M,M,M,BKN,M,M,M,110000.00,M,M,M,,M,M,M,M,M,M,M,KQFT 201920Z AUTO 03002KT / // BKN1100 09/07 A3018 RMK A02 TSNO
QFW,2020-10-20 19:20,127.8833,37.6667,44.60,44.60,100.00,0.00,0.00,0.00,30.23,M,6.21,M,BKN,M,M,M,21000.00,M,M,M,M,M,M,M,M,M,M,M,KQFW 201920Z AUTO 00000KT 9999 BKN210 07/07 A3023 RMK A02 TSNO
RKSI,2020-10-20 19:30,126.4500,37.4667,55.40,50.00,81.99,110.00,3.00,0.00,30.15,M,3.11,M,NSC,M,M,M,M,M,M,M,BR,M,M,M,M,M,M,M,RKSI 201930Z 11003KT 5000 BR NSC 13/10 Q1021 NOSIG
QFB,2020-10-20 19:30,128.7167,35.6500,46.40,44.60,93.40,250.00,1.00,0.00,30.26,M,6.21,M,BKN,M,M,M,22000.00,M,M,M,M,M,M,M,M,M,M,M,KQFB 201930Z AUTO 25001KT 9999 BKN220 08/07 A3026 RMK A02 TSNO
QEN,2020-10-20 19:30,128.7500,37.6667,41.00,44.60,M,250.00,5.00,0.00,M,M,3.73,M,BKN,M,M,M,110000.00,M,M,M,M,M,M,M,M,M,M,M,KQEN 201930Z AUTO 25005KT 6000 BKN1100 05/07 / RMK A02 TSNO
QES,2020-10-20 19:30,126.4500,36.9667,64.40,50.00,59.50,M,M,0.00,M,M,1.74,M,BKN,M,M,M,21000.00,M,M,M,BR,M,M,M,M,M,M,M,KQES 201930Z AUTO 2800 BR BKN210 18/10 / RMK A02 TSNO
QEJ,2020-10-20 19:30,127.9500,38.2000,41.00,39.20,93.24,180.00,1.00,0.00,30.21,M,3.73,M,BKN,M,M,M,21000.00,M,M,M,M,M,M,M,M,M,M,M,KQEJ 201930Z AUTO 18001KT 6000 BKN210 05/04 A3021 RMK A02 TSNO
QEI,2020-10-20 19:30,128.0667,37.9500,42.80,41.00,93.30,110.00,1.00,0.00,30.22,M,6.21,M,BKN,BKN,M,M,21000.00,24000.00,M,M,M,M,M,M,M,M,M,M,KQEI 201930Z AUTO 11001KT 9999 BKN210 BKN240 06/05 A3022 RMK A02 TSNO
QEQ,2020-10-20 19:30,127.5500,37.8500,44.60,44.60,100.00,40.00,2.00,0.00,30.20,M,2.49,M,BKN,M,M,M,18000.00,M,M,M,BR,M,M,M,M,M,M,M,KQEQ 201930Z AUTO 04002KT 4000 BR BKN180 07/07 A3020 RMK A02 TSNO
QEW,2020-10-20 19:30,128.1500,36.4000,42.80,41.00,93.30,290.00,1.00,0.00,30.22,M,6.21,M,BKN,M,M,M,21000.00,M,M,M,M,M,M,M,M,M,M,M,KQEW 201930Z AUTO 29001KT 9999 BKN210 06/05 A3022 RMK A02 TSNO
QEP,2020-10-20 19:30,127.2667,37.4000,46.40,44.60,93.40,260.00,1.00,0.00,30.21,M,2.98,M,BKN,M,M,M,22000.00,M,M,M,BR,M,M,M,M,M,M,M,KQEP 201930Z AUTO 26001KT 4800 BR BKN220 08/07 A3021 RMK A02 TSNO
QFT,2020-10-20 19:30,127.3500,37.6000,48.20,44.60,87.28,30.00,3.00,0.00,30.19,M,M,M,BKN,M,M,M,21000.00,M,M,M,,M,M,M,M,M,M,47.21,KQFT 201930Z AUTO 03003KT / // BKN210 09/07 A3019 RMK A02 TSNO
QFU,2020-10-20 19:30,126.9667,37.8000,46.40,42.80,87.19,350.00,2.00,0.00,30.21,M,2.49,M,SCT,BKN,M,M,18000.00,22000.00,M,M,BR,M,M,M,M,M,M,M,KQFU 201930Z AUTO 35002KT 4000 BR SCT180 BKN220 08/06 A3021 RMK A02 TSNO
QEX,2020-10-20 19:30,128.3000,36.1000,50.00,44.60,81.61,330.00,2.00,0.00,30.15,M,6.21,M,BKN,M,M,M,22000.00,M,M,M,M,M,M,M,M,M,M,M,KQEX 201930Z AUTO 33002KT 9999 BKN220 10/07 A3015 RMK A02 TSNO
QFW,2020-10-20 19:30,127.8833,37.6667,44.60,44.60,100.00,40.00,2.00,0.00,30.23,M,6.21,M,BKN,M,M,M,20000.00,M,M,M,M,M,M,M,M,M,M,M,KQFW 201930Z AUTO 04002KT 9999 BKN200 07/07 A3023 RMK A02 TSNO
QFV,2020-10-20 19:30,127.5000,38.0500,39.20,37.40,93.19,110.00,1.00,0.00,30.24,M,6.21,M,BKN,BKN,M,M,19000.00,22000.00,M,M,M,M,M,M,M,M,M,M,KQFV 201930Z AUTO 11001KT 9999 BKN190 BKN220 04/03 A3024 RMK A02 TSNO
QFB,2020-10-20 19:40,128.7167,35.6500,46.40,44.60,93.40,280.00,2.00,0.00,30.26,M,6.21,M,BKN,M,M,M,22000.00,M,M,M,M,M,M,M,M,M,M,M,KQFB 201940Z AUTO 28002KT 9999 BKN220 08/07 A3026 RMK A02 TSNO
QEN,2020-10-20 19:40,128.7500,37.6667,41.00,44.60,M,250.00,5.00,0.00,M,M,3.73,M,BKN,M,M,M,110000.00,M,M,M,M,M,M,M,M,M,M,M,KQEN 201940Z AUTO 25005KT 6000 BKN1100 05/07 / RMK A02 TSNO
QES,2020-10-20 19:40,126.4500,36.9667,64.40,50.00,59.50,M,M,0.00,M,M,1.74,M,BKN,M,M,M,21000.00,M,M,M,BR,M,M,M,M,M,M,M,KQES 201940Z AUTO 2800 BR BKN210 18/10 / RMK A02 TSNO
QEJ,2020-10-20 19:40,127.9500,38.2000,41.00,39.20,93.24,0.00,0.00,0.00,30.22,M,3.73,M,BKN,M,M,M,21000.00,M,M,M,M,M,M,M,M,M,M,M,KQEJ 201940Z AUTO 00000KT 6000 BKN210 05/04 A3022 RMK A02 TSNO
QEI,2020-10-20 19:40,128.0667,37.9500,42.80,41.00,93.30,140.00,1.00,0.00,30.22,M,5.59,M,FEW,BKN,M,M,600.00,21000.00,M,M,,M,M,M,M,M,M,M,KQEI 201940Z AUTO 14001KT 9000 // FEW006 BKN210 06/05 A3022 RMK A02 TSNO
QEQ,2020-10-20 19:40,127.5500,37.8500,44.60,44.60,100.00,0.00,0.00,0.00,30.20,M,2.49,M,FEW,BKN,M,M,18000.00,21000.00,M,M,BR,M,M,M,M,M,M,M,KQEQ 201940Z AUTO 00000KT 4000 BR FEW180 BKN210 07/07 A3020 RMK A02 TSNO
QEW,2020-10-20 19:40,128.1500,36.4000,42.80,41.00,93.30,280.00,1.00,0.00,30.23,M,6.21,M,BKN,M,M,M,21000.00,M,M,M,M,M,M,M,M,M,M,M,KQEW 201940Z AUTO 28001KT 9999 BKN210 06/05 A3023 RMK A02 TSNO
QEP,2020-10-20 19:40,127.2667,37.4000,46.40,44.60,93.40,110.00,1.00,0.00,30.21,M,3.73,M,BKN,M,M,M,22000.00,M,M,M,M,M,M,M,M,M,M,M,KQEP 201940Z AUTO 11001KT 6000 BKN220 08/07 A3021 RMK A02 TSNO
QFT,2020-10-20 19:40,127.3500,37.6000,48.20,44.60,87.28,50.00,3.00,0.00,30.19,M,M,M,BKN,M,M,M,22000.00,M,M,M,,M,M,M,M,M,M,47.21,KQFT 201940Z AUTO 05003KT / // BKN220 09/07 A3019 RMK A02 TSNO
QFU,2020-10-20 19:40,126.9667,37.8000,46.40,42.80,87.19,70.00,1.00,0.00,30.21,M,2.49,M,FEW,BKN,M,M,18000.00,22000.00,M,M,BR,M,M,M,M,M,M,M,KQFU 201940Z AUTO 07001KT 4000 BR FEW180 BKN220 08/06 A3021 RMK A02 TSNO
QEX,2020-10-20 19:40,128.3000,36.1000,48.20,44.60,87.28,20.00,4.00,0.00,30.15,M,6.21,M,BKN,M,M,M,22000.00,M,M,M,M,M,M,M,M,M,M,46.34,KQEX 201940Z AUTO 02004KT 9999 BKN220 09/07 A3015 RMK A02 TSNO
QFW,2020-10-20 19:40,127.8833,37.6667,44.60,44.60,100.00,40.00,2.00,0.00,30.23,M,6.21,M,BKN,BKN,M,M,110000.00,23000.00,M,M,M,M,M,M,M,M,M,M,KQFW 201940Z AUTO 04002KT 9999 BKN1100 BKN230 07/07 A3023 RMK A02 TSNO
QFV,2020-10-20 19:40,127.5000,38.0500,39.20,37.40,93.19,0.00,0.00,0.00,30.24,M,6.21,M,BKN,M,M,M,19000.00,M,M,M,M,M,M,M,M,M,M,M,KQFV 201940Z AUTO 00000KT 9999 BKN190 04/03 A3024 RMK A02 TSNO
QFB,2020-10-20 19:50,128.7167,35.6500,46.40,42.80,87.19,280.00,3.00,0.00,30.27,M,6.21,M,BKN,M,M,M,21000.00,M,M,M,M,M,M,M,M,M,M,45.15,KQFB 201950Z AUTO 28003KT 9999 BKN210 08/06 A3027 RMK A02 TSNO
QEN,2020-10-20 19:50,128.7500,37.6667,41.00,44.60,M,260.00,7.00,0.00,M,M,2.49,M,BKN,BKN,M,M,19000.00,24000.00,M,M,BR,M,M,M,M,M,M,M,KQEN 201950Z AUTO 26007KT 4000 BR BKN190 BKN240 05/07 / RMK A02 TSNO
QES,2020-10-20 19:50,126.4500,36.9667,64.40,50.00,59.50,M,M,0.00,M,M,1.49,M,BKN,M,M,M,21000.00,M,M,M,BR,M,M,M,M,M,M,M,KQES 201950Z AUTO 2400 BR BKN210 18/10 / RMK A02 TSNO
QEJ,2020-10-20 19:50,127.9500,38.2000,41.00,39.20,93.24,0.00,0.00,0.00,30.21,M,3.73,M,BKN,M,M,M,21000.00,M,M,M,M,M,M,M,M,M,M,M,KQEJ 201950Z AUTO 00000KT 6000 BKN210 05/04 A3021 RMK A02 TSNO
QEI,2020-10-20 19:50,128.0667,37.9500,42.80,41.00,93.30,0.00,0.00,0.00,30.22,M,6.21,M,SCT,BKN,M,M,600.00,21000.00,M,M,M,M,M,M,M,M,M,M,KQEI 201950Z AUTO 00000KT 9999 SCT006 BKN210 06/05 A3022 RMK A02 TSNO
QEW,2020-10-20 19:50,128.1500,36.4000,44.60,42.80,93.35,360.00,1.00,0.00,30.22,M,6.21,M,FEW,BKN,M,M,21000.00,23000.00,M,M,M,M,M,M,M,M,M,M,KQEW 201950Z AUTO 36001KT 9999 FEW210 BKN230 07/06 A3022 RMK A02 TSNO
QEP,2020-10-20 19:50,127.2667,37.4000,46.40,44.60,93.40,130.00,1.00,0.00,30.20,M,2.98,M,BKN,M,M,M,22000.00,M,M,M,M,M,M,M,M,M,M,M,KQEP 201950Z AUTO 13001KT 4800 BKN220 08/07 A3020 RMK A02 TSNO
QFT,2020-10-20 19:50,127.3500,37.6000,48.20,44.60,87.28,30.00,3.00,0.00,30.18,M,M,M,BKN,M,M,M,21000.00,M,M,M,,M,M,M,M,M,M,47.21,KQFT 201950Z AUTO 03003KT / // BKN210 09/07 A3018 RMK A02 TSNO
QFU,2020-10-20 19:50,126.9667,37.8000,46.40,42.80,87.19,350.00,1.00,0.00,30.21,M,2.49,M,BKN,M,M,M,19000.00,M,M,M,BR,M,M,M,M,M,M,M,KQFU 201950Z AUTO 35001KT 4000 BR BKN190 08/06 A3021 RMK A02 TSNO
QEX,2020-10-20 19:50,128.3000,36.1000,48.20,44.60,87.28,20.00,4.00,0.00,30.15,M,6.21,M,BKN,M,M,M,22000.00,M,M,M,M,M,M,M,M,M,M,46.34,KQEX 201950Z AUTO 02004KT 9999 BKN220 09/07 A3015 RMK A02 TSNO
QFW,2020-10-20 19:50,127.8833,37.6667,42.80,44.60,M,10.00,2.00,0.00,30.22,M,6.21,M,SCT,BKN,M,M,110000.00,23000.00,M,M,M,M,M,M,M,M,M,M,KQFW 201950Z AUTO 01002KT 9999 SCT1100 BKN230 06/07 A3022 RMK A02 TSNO
QEQ,2020-10-20 19:50,127.5500,37.8500,44.60,44.60,100.00,340.00,2.00,0.00,30.20,M,2.49,M,BKN,M,M,M,22000.00,M,M,M,BR,M,M,M,M,M,M,M,KQEQ 201950Z AUTO 34002KT 4000 BR BKN220 07/07 A3020 RMK A02 TSNO
QFV,2020-10-20 19:50,127.5000,38.0500,41.00,37.40,86.89,290.00,1.00,0.00,30.23,M,6.21,M,BKN,M,M,M,19000.00,M,M,M,M,M,M,M,M,M,M,M,KQFV 201950Z AUTO 29001KT 9999 BKN190 05/03 A3023 RMK A02 TSNO
RKSG,2020-10-20 19:56,127.0311,36.9622,52.30,43.50,71.86,140.00,3.00,0.00,30.16,1021.60,5.00,M,FEW,M,M,M,21000.00,M,M,M,HZ,M,M,M,M,M,M,M,RKSG 201956Z 14003KT 5SM HZ FEW210 11/06 A3016 RMK AO2A SLP216 T01130064 $
RKJK,2020-10-20 19:56,126.6220,35.8994,51.80,47.50,85.20,90.00,5.00,0.00,30.14,1021.10,6.00,M,BKN,M,M,M,19000.00,M,M,M,HZ,M,M,M,M,M,M,M,RKJK 201956Z AUTO 09005KT 6SM HZ BKN190 11/09 A3014 RMK AO2 SLP211 T01100086 $
RKSY,2020-10-20 19:58,126.9753,37.5241,54.70,46.00,72.39,0.00,0.00,0.00,30.15,1021.30,6.21,M,OVC,M,M,M,20000.00,M,M,M,M,M,M,M,M,M,M,M,RKSY 201958Z AUTO 00000KT 9999 OVC200 13/08 A3015 RMK AO2 SLP213 T01260078 $
RKSO,2020-10-20 19:58,127.0296,37.0906,48.70,48.40,98.88,0.00,0.00,0.00,30.15,1021.30,3.00,M,BKN,BKN,M,M,20000.00,23000.00,M,M,BR,M,M,M,M,M,M,M,RKSO 201958Z 00000KT 3SM BR BKN200 BKN230 09/09 A3015 RMK AO2A SLP213 T00930091 $
RKJB,2020-10-20 20:00,126.3800,34.9800,53.60,50.00,87.56,80.00,4.00,0.00,30.15,M,4.35,M,NCD,M,M,M,M,M,M,M,M,M,M,M,M,M,M,M,RKJB 202000Z AUTO 08004KT 7000 NCD 12/10 Q1021
RKPC,2020-10-20 20:00,126.4930,33.5113,62.60,50.00,63.38,150.00,7.00,0.00,30.12,M,6.21,M,FEW,BKN,M,M,3000.00,20000.00,M,M,M,M,M,M,M,M,M,M,RKPC 202000Z 15007KT 9999 FEW030 BKN200 17/10 Q1020 NOSIG
RKNY,2020-10-20 20:00,128.6692,38.0613,50.00,44.60,81.61,240.00,4.00,0.00,30.15,M,6.21,M,NCD,M,M,M,M,M,M,M,M,M,M,M,M,M,M,M,RKNY 202000Z AUTO 24004KT 9999 NCD 10/07 Q1021
QFB,2020-10-20 20:00,128.7167,35.6500,46.40,42.80,87.19,290.00,2.00,0.00,30.26,M,6.21,M,BKN,M,M,M,21000.00,M,M,M,M,M,M,M,M,M,M,M,KQFB 202000Z AUTO 29002KT 9999 BKN210 08/06 A3026 RMK A02 TSNO
RKSS,2020-10-20 20:00,126.7906,37.5583,50.00,48.20,93.50,260.00,2.00,0.00,30.15,M,4.35,M,NSC,M,M,M,M,M,M,M,M,M,M,M,M,M,M,M,RKSS 202000Z 26002KT 7000 NSC 10/09 Q1021 NOSIG
RKTN,2020-10-20 20:00,128.6589,35.8941,50.00,46.40,87.37,140.00,2.00,0.00,30.21,M,6.21,M,M,M,M,M,M,M,M,M,M,M,M,M,M,M,M,M,RKTN 202000Z 14002KT CAVOK 10/08 Q1023
RKTU,2020-10-20 20:00,127.4991,36.7166,44.60,44.60,100.00,50.00,2.00,0.00,30.18,M,3.73,M,NSC,M,M,M,M,M,M,M,M,M,M,M,M,M,M,M,RKTU 202000Z 05002KT 6000 NSC 07/07 Q1022
QEN,2020-10-20 20:00,128.7500,37.6667,41.00,44.60,M,260.00,6.00,0.00,M,M,2.98,M,BKN,M,M,M,19000.00,M,M,M,M,M,M,M,M,M,M,M,KQEN 202000Z AUTO 26006KT 4800 BKN190 05/07 / RMK A02 TSNO
QES,2020-10-20 20:00,126.4500,36.9667,64.40,50.00,59.50,M,M,0.00,M,M,1.74,M,BKN,M,M,M,21000.00,M,M,M,BR,M,M,M,M,M,M,M,KQES 202000Z AUTO 2800 BR BKN210 18/10 / RMK A02 TSNO
QEJ,2020-10-20 20:00,127.9500,38.2000,41.00,39.20,93.24,300.00,1.00,0.00,30.20,M,3.73,M,BKN,M,M,M,110000.00,M,M,M,M,M,M,M,M,M,M,M,KQEJ 202000Z AUTO 30001KT 6000 BKN1100 05/04 A3020 RMK A02 TSNO
QEI,2020-10-20 20:00,128.0667,37.9500,42.80,41.00,93.30,330.00,1.00,0.00,30.21,M,6.21,M,FEW,BKN,M,M,600.00,110000.00,M,M,M,M,M,M,M,M,M,M,KQEI 202000Z AUTO 33001KT 9999 FEW006 BKN1100 06/05 A3021 RMK A02 TSNO
QEQ,2020-10-20 20:00,127.5500,37.8500,46.40,44.60,93.40,320.00,1.00,0.00,30.20,M,2.98,M,BKN,M,M,M,22000.00,M,M,M,BR,M,M,M,M,M,M,M,KQEQ 202000Z AUTO 32001KT 4800 BR BKN220 08/07 A3020 RMK A02 TSNO
QEW,2020-10-20 20:00,128.1500,36.4000,44.60,41.00,87.09,340.00,1.00,0.00,30.21,M,6.21,M,BKN,M,M,M,22000.00,M,M,M,M,M,M,M,M,M,M,M,KQEW 202000Z AUTO 34001KT 9999 BKN220 07/05 A3021 RMK A02 TSNO
QEP,2020-10-20 20:00,127.2667,37.4000,46.40,44.60,93.40,0.00,0.00,0.00,30.20,M,2.98,M,BKN,M,M,M,21000.00,M,M,M,M,M,M,M,M,M,M,M,KQEP 202000Z AUTO 00000KT 4800 BKN210 08/07 A3020 RMK A02 TSNO
RKPK,2020-10-20 20:00,128.9382,35.1795,55.40,46.40,71.64,360.00,3.00,0.00,30.18,M,6.21,M,M,M,M,M,M,M,M,M,M,M,M,M,M,M,M,M,RKPK 202000Z 36003KT CAVOK 13/08 Q1022
QFT,2020-10-20 20:00,127.3500,37.6000,48.20,44.60,87.28,50.00,2.00,0.00,30.18,M,M,M,BKN,M,M,M,20000.00,M,M,M,,M,M,M,M,M,M,M,KQFT 202000Z AUTO 05002KT / // BKN200 09/07 A3018 RMK A02 TSNO
QFU,2020-10-20 20:00,126.9667,37.8000,46.40,42.80,87.19,210.00,1.00,0.00,30.20,M,1.99,M,BKN,M,M,M,19000.00,M,M,M,BR,M,M,M,M,M,M,M,KQFU 202000Z AUTO 21001KT 3200 BR BKN190 08/06 A3020 RMK A02 TSNO
QEX,2020-10-20 20:00,128.3000,36.1000,48.20,44.60,87.28,50.00,4.00,0.00,30.14,M,5.59,M,BKN,M,M,M,22000.00,M,M,M,,M,M,M,M,M,M,46.34,KQEX 202000Z AUTO 05004KT 9000 // BKN220 09/07 A3014 RMK A02 TSNO
QFW,2020-10-20 20:00,127.8833,37.6667,42.80,44.60,M,30.00,3.00,0.00,30.22,M,5.59,M,FEW,BKN,M,M,19000.00,22000.00,M,M,,M,M,M,M,M,M,M,KQFW 202000Z AUTO 03003KT 9000 // FEW190 BKN220 06/07 A3022 RMK A02 TSNO
RKSI,2020-10-20 20:00,126.4500,37.4667,57.20,48.20,71.83,20.00,2.00,0.00,30.15,M,3.11,M,NSC,M,M,M,M,M,M,M,BR,M,M,M,M,M,M,M,RKSI 202000Z 02002KT 5000 BR NSC 14/09 Q1021 NOSIG
RKSM,2020-10-20 20:00,127.1139,37.4458,51.80,46.40,81.74,180.00,6.00,0.00,30.17,M,5.59,M,BKN,M,M,M,20000.00,M,M,M,BR,M,M,M,M,M,M,M,RKSM 202000Z 18006KT 9000 BR BKN200 11/08 A3017
QFV,2020-10-20 20:00,127.5000,38.0500,41.00,39.20,93.24,210.00,1.00,0.00,30.23,M,6.21,M,BKN,M,M,M,19000.00,M,M,M,M,M,M,M,M,M,M,M,KQFV 202000Z AUTO 21001KT 9999 BKN190 05/04 A3023 RMK A02 TSNO
QFB,2020-10-20 20:10,128.7167,35.6500,46.40,42.80,87.19,300.00,2.00,0.00,30.26,M,6.21,M,BKN,M,M,M,21000.00,M,M,M,M,M,M,M,M,M,M,M,KQFB 202010Z AUTO 30002KT 9999 BKN210 08/06 A3026 RMK A02 TSNO
QEN,2020-10-20 20:10,128.7500,37.6667,41.00,44.60,M,250.00,7.00,0.00,M,M,2.98,M,FEW,BKN,M,M,100.00,18000.00,M,M,M,M,M,M,M,M,M,M,KQEN 202010Z AUTO 25007KT 4800 FEW001 BKN180 05/07 / RMK A02 TSNO
QES,2020-10-20 20:10,126.4500,36.9667,64.40,50.00,59.50,M,M,0.00,M,M,1.49,M,BKN,M,M,M,20000.00,M,M,M,BR,M,M,M,M,M,M,M,KQES 202010Z AUTO 2400 BR BKN200 18/10 / RMK A02 TSNO
QEJ,2020-10-20 20:10,127.9500,38.2000,41.00,39.20,93.24,70.00,1.00,0.00,30.20,M,3.73,M,BKN,M,M,M,110000.00,M,M,M,M,M,M,M,M,M,M,M,KQEJ 202010Z AUTO 07001KT 6000 BKN1100 05/04 A3020 RMK A02 TSNO
QEI,2020-10-20 20:10,128.0667,37.9500,42.80,41.00,93.30,310.00,1.00,0.00,30.20,M,6.21,M,FEW,BKN,M,M,600.00,110000.00,M,M,M,M,M,M,M,M,M,M,KQEI 202010Z AUTO 31001KT 9999 FEW006 BKN1100 06/05 A3020 RMK A02 TSNO
QEQ,2020-10-20 20:10,127.5500,37.8500,44.60,44.60,100.00,110.00,2.00,0.00,30.20,M,2.98,M,BKN,M,M,M,22000.00,M,M,M,BR,M,M,M,M,M,M,M,KQEQ 202010Z AUTO 11002KT 4800 BR BKN220 07/07 A3020 RMK A02 TSNO
QEW,2020-10-20 20:10,128.1500,36.4000,42.80,41.00,93.30,280.00,1.00,0.00,30.21,M,6.21,M,BKN,M,M,M,22000.00,M,M,M,M,M,M,M,M,M,M,M,KQEW 202010Z AUTO 28001KT 9999 BKN220 06/05 A3021 RMK A02 TSNO
QEP,2020-10-20 20:10,127.2667,37.4000,46.40,44.60,93.40,240.00,1.00,0.00,30.20,M,3.73,M,BKN,M,M,M,21000.00,M,M,M,M,M,M,M,M,M,M,M,KQEP 202010Z AUTO 24001KT 6000 BKN210 08/07 A3020 RMK A02 TSNO
QFT,2020-10-20 20:10,127.3500,37.6000,48.20,44.60,87.28,30.00,3.00,0.00,30.17,M,M,M,BKN,M,M,M,20000.00,M,M,M,,M,M,M,M,M,M,47.21,KQFT 202010Z AUTO 03003KT / // BKN200 09/07 A3017 RMK A02 TSNO
QFU,2020-10-20 20:10,126.9667,37.8000,46.40,42.80,87.19,220.00,1.00,0.00,30.21,M,2.49,M,BKN,M,M,M,19000.00,M,M,M,BR,M,M,M,M,M,M,M,KQFU 202010Z AUTO 22001KT 4000 BR BKN190 08/06 A3021 RMK A02 TSNO
QEX,2020-10-20 20:10,128.3000,36.1000,48.20,44.60,87.28,10.00,2.00,0.00,30.14,M,5.59,M,BKN,M,M,M,22000.00,M,M,M,,M,M,M,M,M,M,M,KQEX 202010Z AUTO 01002KT 9000 // BKN220 09/07 A3014 RMK A02 TSNO
QFW,2020-10-20 20:10,127.8833,37.6667,42.80,44.60,M,10.00,1.00,0.00,30.22,M,5.59,M,BKN,M,M,M,22000.00,M,M,M,,M,M,M,M,M,M,M,KQFW 202010Z AUTO 01001KT 9000 // BKN220 06/07 A3022 RMK A02 TSNO
QFV,2020-10-20 20:10,127.5000,38.0500,41.00,37.40,86.89,70.00,2.00,0.00,30.23,M,6.21,M,BKN,M,M,M,110000.00,M,M,M,M,M,M,M,M,M,M,M,KQFV 202010Z AUTO 07002KT 9999 BKN1100 05/03 A3023 RMK A02 TSNO
QFB,2020-10-20 20:20,128.7167,35.6500,44.60,42.80,93.35,330.00,2.00,0.00,30.26,M,6.21,M,BKN,M,M,M,21000.00,M,M,M,M,M,M,M,M,M,M,M,KQFB 202020Z AUTO 33002KT 9999 BKN210 07/06 A3026 RMK A02 TSNO
QEN,2020-10-20 20:20,128.7500,37.6667,41.00,44.60,M,250.00,7.00,0.00,M,M,2.49,M,FEW,BKN,M,M,100.00,18000.00,M,M,BR,M,M,M,M,M,M,M,KQEN 202020Z AUTO 25007KT 4000 BR FEW001 BKN180 05/07 / RMK A02 TSNO
QES,2020-10-20 20:20,126.4500,36.9667,64.40,50.00,59.50,M,M,0.00,M,M,1.49,M,BKN,M,M,M,20000.00,M,M,M,BR,M,M,M,M,M,M,M,KQES 202020Z AUTO 2400 BR BKN200 18/10 / RMK A02 TSNO
QEJ,2020-10-20 20:20,127.9500,38.2000,41.00,39.20,93.24,0.00,0.00,0.00,30.19,M,2.98,M,BKN,M,M,M,110000.00,M,M,M,M,M,M,M,M,M,M,M,KQEJ 202020Z AUTO 00000KT 4800 BKN1100 05/04 A3019 RMK A02 TSNO
QEI,2020-10-20 20:20,128.0667,37.9500,42.80,41.00,93.30,200.00,1.00,0.00,30.21,M,6.21,M,SCT,BKN,M,M,600.00,110000.00,M,M,M,M,M,M,M,M,M,M,KQEI 202020Z AUTO 20001KT 9999 SCT006 BKN1100 06/05 A3021 RMK A02 TSNO
QEQ,2020-10-20 20:20,127.5500,37.8500,44.60,44.60,100.00,50.00,1.00,0.00,30.20,M,2.98,M,BKN,M,M,M,21000.00,M,M,M,M,M,M,M,M,M,M,M,KQEQ 202020Z AUTO 05001KT 4800 BKN210 07/07 A3020 RMK A02 TSNO
QEW,2020-10-20 20:20,128.1500,36.4000,42.80,41.00,93.30,250.00,2.00,0.00,30.21,M,6.21,M,BKN,M,M,M,21000.00,M,M,M,M,M,M,M,M,M,M,M,KQEW 202020Z AUTO 25002KT 9999 BKN210 06/05 A3021 RMK A02 TSNO
QEP,2020-10-20 20:20,127.2667,37.4000,46.40,44.60,93.40,0.00,0.00,0.00,30.20,M,3.73,M,BKN,M,M,M,21000.00,M,M,M,M,M,M,M,M,M,M,M,KQEP 202020Z AUTO 00000KT 6000 BKN210 08/07 A3020 RMK A02 TSNO
QFT,2020-10-20 20:20,127.3500,37.6000,48.20,44.60,87.28,40.00,3.00,0.00,30.18,M,M,M,BKN,M,M,M,20000.00,M,M,M,,M,M,M,M,M,M,47.21,KQFT 202020Z AUTO 04003KT / // BKN200 09/07 A3018 RMK A02 TSNO
QFU,2020-10-20 20:20,126.9667,37.8000,46.40,42.80,87.19,80.00,1.00,0.00,30.20,M,2.49,M,BKN,M,M,M,19000.00,M,M,M,BR,M,M,M,M,M,M,M,KQFU 202020Z AUTO 08001KT 4000 BR BKN190 08/06 A3020 RMK A02 TSNO
QEX,2020-10-20 20:20,128.3000,36.1000,48.20,44.60,87.28,20.00,2.00,0.00,30.14,M,5.59,M,BKN,M,M,M,21000.00,M,M,M,,M,M,M,M,M,M,M,KQEX 202020Z AUTO 02002KT 9000 // BKN210 09/07 A3014 RMK A02 TSNO
QFW,2020-10-20 20:20,127.8833,37.6667,42.80,44.60,M,310.00,1.00,0.00,30.22,M,5.59,M,BKN,M,M,M,22000.00,M,M,M,,M,M,M,M,M,M,M,KQFW 202020Z AUTO 31001KT 9000 // BKN220 06/07 A3022 RMK A02 TSNO
QFV,2020-10-20 20:20,127.5000,38.0500,41.00,39.20,93.24,130.00,1.00,0.00,30.22,M,6.21,M,BKN,M,M,M,18000.00,M,M,M,M,M,M,M,M,M,M,M,KQFV 202020Z AUTO 13001KT 9999 BKN180 05/04 A3022 RMK A02 TSNO
QFB,2020-10-20 20:30,128.7167,35.6500,46.40,44.60,93.40,0.00,0.00,0.00,30.26,M,6.21,M,BKN,M,M,M,21000.00,M,M,M,M,M,M,M,M,M,M,M,KQFB 202030Z AUTO 00000KT 9999 BKN210 08/07 A3026 RMK A02 TSNO
QEN,2020-10-20 20:30,128.7500,37.6667,41.00,44.60,M,250.00,7.00,0.00,M,M,2.49,M,FEW,BKN,M,M,100.00,18000.00,M,M,BR,M,M,M,M,M,M,M,KQEN 202030Z AUTO 25007KT 4000 BR FEW001 BKN180 05/07 / RMK A02 TSNO
QES,2020-10-20 20:30,126.4500,36.9667,64.40,50.00,59.50,M,M,0.00,M,M,1.24,M,BKN,M,M,M,20000.00,M,M,M,BR,M,M,M,M,M,M,M,KQES 202030Z AUTO 2000 BR BKN200 18/10 / RMK A02 TSNO
QEJ,2020-10-20 20:30,127.9500,38.2000,41.00,39.20,93.24,160.00,1.00,0.00,30.20,M,3.73,M,BKN,M,M,M,110000.00,M,M,M,M,M,M,M,M,M,M,M,KQEJ 202030Z AUTO 16001KT 6000 BKN1100 05/04 A3020 RMK A02 TSNO
QEI,2020-10-20 20:30,128.0667,37.9500,42.80,41.00,93.30,90.00,1.00,0.00,30.21,M,4.97,M,BKN,BKN,BKN,M,600.00,110000.00,22000.00,M,,M,M,M,M,M,M,M,KQEI 202030Z AUTO 09001KT 8000 // BKN006 BKN1100 BKN220 06/05 A3021 RMK A02 TSNO
QEQ,2020-10-20 20:30,127.5500,37.8500,44.60,44.60,100.00,330.00,1.00,0.00,30.20,M,2.98,M,BKN,M,M,M,20000.00,M,M,M,M,M,M,M,M,M,M,M,KQEQ 202030Z AUTO 33001KT 4800 BKN200 07/07 A3020 RMK A02 TSNO
QEW,2020-10-20 20:30,128.1500,36.4000,44.60,41.00,87.09,40.00,2.00,0.00,30.20,M,6.21,M,BKN,M,M,M,21000.00,M,M,M,M,M,M,M,M,M,M,M,KQEW 202030Z AUTO 04002KT 9999 BKN210 07/05 A3020 RMK A02 TSNO
QEP,2020-10-20 20:30,127.2667,37.4000,46.40,44.60,93.40,250.00,1.00,0.00,30.21,M,3.73,M,OVC,M,M,M,22000.00,M,M,M,M,M,M,M,M,M,M,M,KQEP 202030Z AUTO 25001KT 6000 OVC220 08/07 A3021 RMK A02 TSNO
QFT,2020-10-20 20:30,127.3500,37.6000,48.20,44.60,87.28,30.00,3.00,0.00,30.18,M,M,M,BKN,M,M,M,21000.00,M,M,M,,M,M,M,M,M,M,47.21,KQFT 202030Z AUTO 03003KT / // BKN210 09/07 A3018 RMK A02 TSNO
QFU,2020-10-20 20:30,126.9667,37.8000,46.40,42.80,87.19,280.00,1.00,0.00,30.20,M,1.99,M,BKN,M,M,M,110000.00,M,M,M,BR,M,M,M,M,M,M,M,KQFU 202030Z AUTO 28001KT 3200 BR BKN1100 08/06 A3020 RMK A02 TSNO
QEX,2020-10-20 20:30,128.3000,36.1000,48.20,44.60,87.28,360.00,2.00,0.00,30.14,M,6.21,M,BKN,M,M,M,21000.00,M,M,M,M,M,M,M,M,M,M,M,KQEX 202030Z AUTO 36002KT 9999 BKN210 09/07 A3014 RMK A02 TSNO
QFW,2020-10-20 20:30,127.8833,37.6667,42.80,44.60,M,10.00,2.00,0.00,30.21,M,6.21,M,BKN,M,M,M,21000.00,M,M,M,M,M,M,M,M,M,M,M,KQFW 202030Z AUTO 01002KT 9999 BKN210 06/07 A3021 RMK A02 TSNO
QFV,2020-10-20 20:30,127.5000,38.0500,41.00,39.20,93.24,360.00,1.00,0.00,30.22,M,6.21,M,BKN,M,M,M,18000.00,M,M,M,M,M,M,M,M,M,M,M,KQFV 202030Z AUTO 36001KT 9999 BKN180 05/04 A3022 RMK A02 TSNO
RKSI,2020-10-20 20:30,126.4500,37.4667,55.40,48.20,76.66,120.00,4.00,0.00,30.15,M,3.73,M,NSC,M,M,M,M,M,M,M,M,M,M,M,M,M,M,M,RKSI 202030Z 12004KT 6000 NSC 13/09 Q1021 NOSIG
RKTI,2020-10-20 20:32,127.8853,37.0300,44.60,44.60,100.00,150.00,1.00,0.00,30.18,M,1.99,M,FEW,BKN,M,M,300.00,20000.00,M,M,BR,M,M,M,M,M,M,M,RKTI 202032Z 15001KT 3200 BR FEW003 BKN200 07/07 A3018 RMK CIG200
QFB,2020-10-20 20:40,128.7167,35.6500,46.40,44.60,93.40,300.00,1.00,0.00,30.26,M,6.21,M,BKN,M,M,M,21000.00,M,M,M,M,M,M,M,M,M,M,M,KQFB 202040Z AUTO 30001KT 9999 BKN210 08/07 A3026 RMK A02 TSNO
QEN,2020-10-20 20:40,128.7500,37.6667,41.00,44.60,M,250.00,7.00,0.00,M,M,2.49,M,BKN,M,M,M,19000.00,M,M,M,BR,M,M,M,M,M,M,M,KQEN 202040Z AUTO 25007KT 4000 BR BKN190 05/07 / RMK A02 TSNO
QEJ,2020-10-20 20:40,127.9500,38.2000,41.00,39.20,93.24,190.00,1.00,0.00,30.19,M,3.73,M,BKN,M,M,M,21000.00,M,M,M,M,M,M,M,M,M,M,M,KQEJ 202040Z AUTO 19001KT 6000 BKN210 05/04 A3019 RMK A02 TSNO
QEI,2020-10-20 20:40,128.0667,37.9500,42.80,41.00,93.30,0.00,0.00,0.00,30.20,M,6.21,M,BKN,BKN,M,M,600.00,20000.00,M,M,M,M,M,M,M,M,M,M,KQEI 202040Z AUTO 00000KT 9999 BKN006 BKN200 06/05 A3020 RMK A02 TSNO
QEQ,2020-10-20 20:40,127.5500,37.8500,44.60,44.60,100.00,30.00,1.00,0.00,30.20,M,3.73,M,BKN,M,M,M,20000.00,M,M,M,M,M,M,M,M,M,M,M,KQEQ 202040Z AUTO 03001KT 6000 BKN200 07/07 A3020 RMK A02 TSNO
QEW,2020-10-20 20:40,128.1500,36.4000,44.60,41.00,87.09,160.00,3.00,0.00,30.20,M,6.21,M,BKN,M,M,M,21000.00,M,M,M,M,M,M,M,M,M,M,43.09,KQEW 202040Z AUTO 16003KT 9999 BKN210 07/05 A3020 RMK A02 TSNO
QEP,2020-10-20 20:40,127.2667,37.4000,46.40,44.60,93.40,50.00,1.00,0.00,30.21,M,3.73,M,OVC,M,M,M,21000.00,M,M,M,M,M,M,M,M,M,M,M,KQEP 202040Z AUTO 05001KT 6000 OVC210 08/07 A3021 RMK A02 TSNO
QFT,2020-10-20 20:40,127.3500,37.6000,48.20,44.60,87.28,100.00,1.00,0.00,30.18,M,M,M,OVC,M,M,M,22000.00,M,M,M,,M,M,M,M,M,M,M,KQFT 202040Z AUTO 10001KT / // OVC220 09/07 A3018 RMK A02 TSNO
QFU,2020-10-20 20:40,126.9667,37.8000,46.40,42.80,87.19,70.00,1.00,0.00,30.20,M,2.49,M,BKN,M,M,M,110000.00,M,M,M,BR,M,M,M,M,M,M,M,KQFU 202040Z AUTO 07001KT 4000 BR BKN1100 08/06 A3020 RMK A02 TSNO
QEX,2020-10-20 20:40,128.3000,36.1000,48.20,44.60,87.28,360.00,2.00,0.00,30.14,M,6.21,M,BKN,M,M,M,21000.00,M,M,M,M,M,M,M,M,M,M,M,KQEX 202040Z AUTO 36002KT 9999 BKN210 09/07 A3014 RMK A02 TSNO
QFW,2020-10-20 20:40,127.8833,37.6667,42.80,44.60,M,90.00,1.00,0.00,30.21,M,5.59,M,BKN,M,M,M,20000.00,M,M,M,,M,M,M,M,M,M,M,KQFW 202040Z AUTO 09001KT 9000 // BKN200 06/07 A3021 RMK A02 TSNO
QFB,2020-10-20 20:50,128.7167,35.6500,46.40,42.80,87.19,0.00,0.00,0.00,30.26,M,6.21,M,BKN,M,M,M,21000.00,M,M,M,M,M,M,M,M,M,M,M,KQFB 202050Z AUTO 00000KT 9999 BKN210 08/06 A3026 RMK A02 TSNO
QEQ,2020-10-20 20:50,127.5500,37.8500,44.60,44.60,100.00,50.00,1.00,0.00,30.20,M,3.73,M,BKN,M,M,M,20000.00,M,M,M,M,M,M,M,M,M,M,M,KQEQ 202050Z AUTO 05001KT 6000 BKN200 07/07 A3020 RMK A02 TSNO
QFU,2020-10-20 20:50,126.9667,37.8000,46.40,42.80,87.19,340.00,1.00,0.00,30.20,M,2.49,M,BKN,M,M,M,110000.00,M,M,M,BR,M,M,M,M,M,M,M,KQFU 202050Z AUTO 34001KT 4000 BR BKN1100 08/06 A3020 RMK A02 TSNO
QFV,2020-10-20 20:50,127.5000,38.0500,41.00,39.20,93.24,120.00,1.00,0.00,30.22,M,6.21,M,BKN,M,M,M,18000.00,M,M,M,M,M,M,M,M,M,M,M,KQFV 202050Z AUTO 12001KT 9999 BKN180 05/04 A3022 RMK A02 TSNO
QEN,2020-10-20 20:50,128.7500,37.6667,41.00,44.60,M,250.00,6.00,0.00,M,M,1.99,M,FEW,BKN,BKN,M,100.00,20000.00,25000.00,M,BR,M,M,M,M,M,M,M,KQEN 202050Z AUTO 25006KT 3200 BR FEW001 BKN200 BKN250 05/07 / RMK A02 TSNO
QES,2020-10-20 20:50,126.4500,36.9667,64.40,50.00,59.50,M,M,0.00,M,M,1.24,M,BKN,M,M,M,110000.00,M,M,M,BR,M,M,M,M,M,M,M,KQES 202050Z AUTO 2000 BR BKN1100 18/10 / RMK A02 TSNO
QEJ,2020-10-20 20:50,127.9500,38.2000,41.00,39.20,93.24,290.00,2.00,0.00,30.19,M,3.73,M,BKN,M,M,M,20000.00,M,M,M,M,M,M,M,M,M,M,M,KQEJ 202050Z AUTO 29002KT 6000 BKN200 05/04 A3019 RMK A02 TSNO
QEI,2020-10-20 20:50,128.0667,37.9500,42.80,41.00,93.30,0.00,0.00,0.00,30.19,M,6.21,M,SCT,BKN,M,M,600.00,110000.00,M,M,M,M,M,M,M,M,M,M,KQEI 202050Z AUTO 00000KT 9999 SCT006 BKN1100 06/05 A3019 RMK A02 TSNO
QEW,2020-10-20 20:50,128.1500,36.4000,44.60,41.00,87.09,250.00,1.00,0.00,30.20,M,6.21,M,FEW,BKN,M,M,19000.00,21000.00,M,M,M,M,M,M,M,M,M,M,KQEW 202050Z AUTO 25001KT 9999 FEW190 BKN210 07/05 A3020 RMK A02 TSNO
QEP,2020-10-20 20:50,127.2667,37.4000,46.40,44.60,93.40,130.00,2.00,0.00,30.20,M,3.73,M,BKN,M,M,M,110000.00,M,M,M,M,M,M,M,M,M,M,M,KQEP 202050Z AUTO 13002KT 6000 BKN1100 08/07 A3020 RMK A02 TSNO
QFT,2020-10-20 20:50,127.3500,37.6000,46.40,44.60,93.40,40.00,1.00,0.00,30.18,M,M,M,BKN,M,M,M,21000.00,M,M,M,,M,M,M,M,M,M,M,KQFT 202050Z AUTO 04001KT / // BKN210 08/07 A3018 RMK A02 TSNO
QEX,2020-10-20 20:50,128.3000,36.1000,48.20,44.60,87.28,30.00,3.00,0.00,30.12,M,4.97,M,BKN,M,M,M,20000.00,M,M,M,,M,M,M,M,M,M,47.21,KQEX 202050Z AUTO 03003KT 8000 // BKN200 09/07 A3012 RMK A02 TSNO
QFW,2020-10-20 20:50,127.8833,37.6667,42.80,44.60,M,200.00,1.00,0.00,30.21,M,6.21,M,BKN,M,M,M,20000.00,M,M,M,M,M,M,M,M,M,M,M,KQFW 202050Z AUTO 20001KT 9999 BKN200 06/07 A3021 RMK A02 TSNO
RKSG,2020-10-20 20:56,127.0311,36.9622,52.70,43.70,71.36,0.00,0.00,0.00,30.16,1021.60,5.00,M,BKN,M,M,M,20000.00,M,M,M,HZ,M,M,M,M,M,M,M,RKSG 202056Z 00000KT 5SM HZ BKN200 12/07 A3016 RMK AO2A SLP216 T01150065 56006 $
RKJK,2020-10-20 20:56,126.6220,35.8994,52.70,47.30,81.80,90.00,5.00,0.00,30.14,1021.10,7.00,M,SCT,SCT,M,M,18000.00,22000.00,M,M,M,M,M,M,M,M,M,M,RKJK 202056Z AUTO 09005KT 7SM SCT180 SCT220 12/09 A3014 RMK AO2 SLP211 T01150085 56008 $
RKSO,2020-10-20 20:58,127.0296,37.0906,49.50,49.10,98.52,0.00,0.00,0.00,30.16,1021.60,3.00,M,OVC,M,M,M,20000.00,M,M,M,BR,M,M,M,M,M,M,M,RKSO 202058Z 00000KT 3SM BR OVC200 10/10 A3016 RMK AO2A SLP216 T00970095 55008 $
RKSY,2020-10-20 20:58,126.9753,37.5241,55.20,45.90,70.81,0.00,0.00,0.00,30.15,1021.30,6.21,M,OVC,M,M,M,20000.00,M,M,M,M,M,M,M,M,M,M,M,RKSY 202058Z AUTO 00000KT 9999 OVC200 13/08 A3015 RMK AO2 SLP213 T01290077 56011 $
QFB,2020-10-20 21:00,128.7167,35.6500,46.40,44.60,93.40,350.00,1.00,0.00,30.25,M,6.21,M,BKN,M,M,M,21000.00,M,M,M,M,M,M,M,M,M,M,M,KQFB 202100Z AUTO 35001KT 9999 BKN210 08/07 A3025 RMK A02 TSNO
QFU,2020-10-20 21:00,126.9667,37.8000,46.40,42.80,87.19,360.00,3.00,0.00,30.20,M,1.99,M,OVC,M,M,M,20000.00,M,M,M,BR,M,M,M,M,M,M,45.15,KQFU 202100Z AUTO 36003KT 3200 BR OVC200 08/06 A3020 RMK A02 TSNO
QFV,2020-10-20 21:00,127.5000,38.0500,41.00,39.20,93.24,90.00,2.00,0.00,30.22,M,6.21,M,BKN,M,M,M,18000.00,M,M,M,M,M,M,M,M,M,M,M,KQFV 202100Z AUTO 09002KT 9999 BKN180 05/04 A3022 RMK A02 TSNO
RKJB,2020-10-20 21:00,126.3800,34.9800,53.60,50.00,87.56,80.00,4.00,0.00,30.15,M,3.73,M,NSC,M,M,M,M,M,M,M,M,M,M,M,M,M,M,M,RKJB 202100Z 08004KT 6000 NSC 12/10 Q1021 NOSIG
RKPC,2020-10-20 21:00,126.4930,33.5113,62.60,50.00,63.38,140.00,4.00,0.00,30.12,M,6.21,M,FEW,BKN,M,M,3000.00,18000.00,M,M,M,M,M,M,M,M,M,M,RKPC 202100Z 14004KT 9999 FEW030 BKN180 17/10 Q1020 NOSIG
RKNY,2020-10-20 21:00,128.6692,38.0613,51.80,42.80,71.26,230.00,3.00,0.00,30.12,M,6.21,M,NCD,M,M,M,M,M,M,M,M,M,M,M,M,M,M,M,RKNY 202100Z AUTO 23003KT 190V250 9999 NCD 11/06 Q1020
RKSS,2020-10-20 21:00,126.7906,37.5583,50.00,48.20,93.50,230.00,1.00,0.00,30.15,M,6.21,M,M,M,M,M,M,M,M,M,M,M,M,M,M,M,M,M,RKSS 202100Z 23001KT CAVOK 10/09 Q1021 NOSIG
RKTN,2020-10-20 21:00,128.6589,35.8941,48.20,46.40,93.45,120.00,3.00,0.00,30.21,M,6.21,M,M,M,M,M,M,M,M,M,M,M,M,M,M,M,M,47.21,RKTN 202100Z 12003KT CAVOK 09/08 Q1023
RKTU,2020-10-20 21:00,127.4991,36.7166,46.40,44.60,93.40,240.00,1.00,0.00,30.18,M,3.73,M,NSC,M,M,M,M,M,M,M,M,M,M,M,M,M,M,M,RKTU 202100Z 24001KT 6000 NSC 08/07 Q1022
RKPK,2020-10-20 21:00,128.9382,35.1795,55.40,48.20,76.66,320.00,3.00,0.00,30.18,M,6.21,M,M,M,M,M,M,M,M,M,M,M,M,M,M,M,M,M,RKPK 202100Z 32003KT CAVOK 13/09 Q1022
RKSI,2020-10-20 21:00,126.4500,37.4667,57.20,48.20,71.83,140.00,7.00,0.00,30.15,M,4.97,M,NSC,M,M,M,M,M,M,M,M,M,M,M,M,M,M,M,RKSI 202100Z 14007KT 120V180 8000 NSC 14/09 Q1021 NOSIG
RKSM,2020-10-20 21:00,127.1139,37.4458,53.60,46.40,76.50,190.00,6.00,0.00,30.18,M,5.59,M,BKN,M,M,M,20000.00,M,M,M,BR,M,M,M,M,M,M,M,RKSM 202100Z 19006KT 9000 BR BKN200 12/08 A3018
QEN,2020-10-20 21:00,128.7500,37.6667,41.00,44.60,M,250.00,7.00,0.00,M,M,1.74,M,SCT,BKN,BKN,M,100.00,20000.00,24000.00,M,BR,M,M,M,M,M,M,M,KQEN 202100Z AUTO 25007KT 2800 BR SCT001 BKN200 BKN240 05/07 / RMK A02 TSNO
QES,2020-10-20 21:00,126.4500,36.9667,64.40,50.00,59.50,M,M,0.00,M,M,1.49,M,OVC,M,M,M,110000.00,M,M,M,BR,M,M,M,M,M,M,M,KQES 202100Z AUTO 2400 BR OVC1100 18/10 / RMK A02 TSNO
QEJ,2020-10-20 21:00,127.9500,38.2000,41.00,39.20,93.24,100.00,1.00,0.00,30.19,M,2.98,M,BKN,M,M,M,19000.00,M,M,M,M,M,M,M,M,M,M,M,KQEJ 202100Z AUTO 10001KT 4800 BKN190 05/04 A3019 RMK A02 TSNO
QEI,2020-10-20 21:00,128.0667,37.9500,42.80,41.00,93.30,0.00,0.00,0.00,30.19,M,6.21,M,FEW,BKN,M,M,600.00,110000.00,M,M,M,M,M,M,M,M,M,M,KQEI 202100Z AUTO 00000KT 9999 FEW006 BKN1100 06/05 A3019 RMK A02 TSNO
QEQ,2020-10-20 21:00,127.5500,37.8500,44.60,44.60,100.00,120.00,1.00,0.00,30.20,M,3.73,M,BKN,M,M,M,110000.00,M,M,M,M,M,M,M,M,M,M,M,KQEQ 202100Z AUTO 12001KT 6000 BKN1100 07/07 A3020 RMK A02 TSNO
QEW,2020-10-20 21:00,128.1500,36.4000,42.80,41.00,93.30,320.00,1.00,0.00,30.20,M,6.21,M,BKN,M,M,M,21000.00,M,M,M,M,M,M,M,M,M,M,M,KQEW 202100Z AUTO 32001KT 9999 BKN210 06/05 A3020 RMK A02 TSNO
QEP,2020-10-20 21:00,127.2667,37.4000,46.40,44.60,93.40,130.00,1.00,0.00,30.20,M,3.73,M,BKN,M,M,M,110000.00,M,M,M,M,M,M,M,M,M,M,M,KQEP 202100Z AUTO 13001KT 6000 BKN1100 08/07 A3020 RMK A02 TSNO
QFT,2020-10-20 21:00,127.3500,37.6000,46.40,44.60,93.40,70.00,1.00,0.00,30.18,M,M,M,BKN,M,M,M,21000.00,M,M,M,,M,M,M,M,M,M,M,KQFT 202100Z AUTO 07001KT / // BKN210 08/07 A3018 RMK A02 TSNO
QEX,2020-10-20 21:00,128.3000,36.1000,48.20,44.60,87.28,10.00,2.00,0.00,30.12,M,3.73,M,BKN,M,M,M,110000.00,M,M,M,,M,M,M,M,M,M,M,KQEX 202100Z AUTO 01002KT 6000 // BKN1100 09/07 A3012 RMK A02 TSNO
QFW,2020-10-20 21:00,127.8833,37.6667,42.80,44.60,M,90.00,2.00,0.00,30.21,M,6.21,M,BKN,M,M,M,110000.00,M,M,M,M,M,M,M,M,M,M,M,KQFW 202100Z AUTO 09002KT 9999 BKN1100 06/07 A3021 RMK A02 TSNO
QEN,2020-10-20 21:10,128.7500,37.6667,41.00,44.60,M,260.00,8.00,0.00,M,M,1.99,M,SCT,BKN,BKN,M,100.00,19000.00,24000.00,M,BR,M,M,M,M,M,M,M,KQEN 202110Z AUTO 26008KT 3200 BR SCT001 BKN190 BKN240 05/07 / RMK A02 TSNO
QES,2020-10-20 21:10,126.4500,36.9667,64.40,50.00,59.50,M,M,0.00,M,M,1.49,M,OVC,M,M,M,19000.00,M,M,M,BR,M,M,M,M,M,M,M,KQES 202110Z AUTO 2400 BR OVC190 18/10 / RMK A02 TSNO
QEJ,2020-10-20 21:10,127.9500,38.2000,41.00,39.20,93.24,0.00,0.00,0.00,30.18,M,2.98,M,BKN,M,M,M,19000.00,M,M,M,M,M,M,M,M,M,M,M,KQEJ 202110Z AUTO 00000KT 4800 BKN190 05/04 A3018 RMK A02 TSNO
QEI,2020-10-20 21:10,128.0667,37.9500,42.80,41.00,93.30,150.00,1.00,0.00,30.20,M,6.21,M,FEW,BKN,M,M,600.00,110000.00,M,M,M,M,M,M,M,M,M,M,KQEI 202110Z AUTO 15001KT 9999 FEW006 BKN1100 06/05 A3020 RMK A02 TSNO
QEQ,2020-10-20 21:10,127.5500,37.8500,44.60,44.60,100.00,250.00,1.00,0.00,30.20,M,3.73,M,BKN,BKN,M,M,19000.00,21000.00,M,M,M,M,M,M,M,M,M,M,KQEQ 202110Z AUTO 25001KT 6000 BKN190 BKN210 07/07 A3020 RMK A02 TSNO
QEP,2020-10-20 21:10,127.2667,37.4000,46.40,44.60,93.40,70.00,1.00,0.00,30.20,M,3.73,M,BKN,M,M,M,110000.00,M,M,M,M,M,M,M,M,M,M,M,KQEP 202110Z AUTO 07001KT 6000 BKN1100 08/07 A3020 RMK A02 TSNO
QFT,2020-10-20 21:10,127.3500,37.6000,46.40,44.60,93.40,50.00,1.00,0.00,30.18,M,M,M,BKN,M,M,M,21000.00,M,M,M,,M,M,M,M,M,M,M,KQFT 202110Z AUTO 05001KT / // BKN210 08/07 A3018 RMK A02 TSNO
QEX,2020-10-20 21:10,128.3000,36.1000,48.20,44.60,87.28,330.00,2.00,0.00,30.13,M,3.73,M,BKN,M,M,M,110000.00,M,M,M,,M,M,M,M,M,M,M,KQEX 202110Z AUTO 33002KT 6000 // BKN1100 09/07 A3013 RMK A02 TSNO
QFW,2020-10-20 21:10,127.8833,37.6667,42.80,44.60,M,130.00,1.00,0.00,30.21,M,6.21,M,BKN,M,M,M,20000.00,M,M,M,M,M,M,M,M,M,M,M,KQFW 202110Z AUTO 13001KT 9999 BKN200 06/07 A3021 RMK A02 TSNO
QFB,2020-10-20 21:10,128.7167,35.6500,46.40,44.60,93.40,100.00,2.00,0.00,30.24,M,6.21,M,FEW,M,M,M,21000.00,M,M,M,M,M,M,M,M,M,M,M,KQFB 202110Z AUTO 10002KT 9999 FEW210 08/07 A3024 RMK A02 TSNO
QEW,2020-10-20 21:10,128.1500,36.4000,44.60,41.00,87.09,50.00,2.00,0.00,30.19,M,6.21,M,BKN,M,M,M,21000.00,M,M,M,M,M,M,M,M,M,M,M,KQEW 202110Z AUTO 05002KT 9999 BKN210 07/05 A3019 RMK A02 TSNO
QFU,2020-10-20 21:10,126.9667,37.8000,46.40,42.80,87.19,40.00,1.00,0.00,30.20,M,1.99,M,OVC,M,M,M,21000.00,M,M,M,BR,M,M,M,M,M,M,M,KQFU 202110Z AUTO 04001KT 3200 BR OVC210 08/06 A3020 RMK A02 TSNO
QFV,2020-10-20 21:10,127.5000,38.0500,41.00,39.20,93.24,150.00,1.00,0.00,30.22,M,6.21,M,BKN,M,M,M,18000.00,M,M,M,M,M,M,M,M,M,M,M,KQFV 202110Z AUTO 15001KT 9999 BKN180 05/04 A3022 RMK A02 TSNO
QFB,2020-10-20 21:20,128.7167,35.6500,46.40,44.60,93.40,20.00,2.00,0.00,30.24,M,6.21,M,BKN,M,M,M,21000.00,M,M,M,M,M,M,M,M,M,M,M,KQFB 202120Z AUTO 02002KT 9999 BKN210 08/07 A3024 RMK A02 TSNO
QEN,2020-10-20 21:20,128.7500,37.6667,41.00,44.60,M,260.00,7.00,0.00,M,M,1.99,M,SCT,BKN,BKN,M,100.00,19000.00,24000.00,M,BR,M,M,M,M,M,M,M,KQEN 202120Z AUTO 26007KT 3200 BR SCT001 BKN190 BKN240 05/07 / RMK A02 TSNO
QES,2020-10-20 21:20,126.4500,36.9667,64.40,50.00,59.50,M,M,0.00,M,M,1.49,M,OVC,M,M,M,19000.00,M,M,M,BR,M,M,M,M,M,M,M,KQES 202120Z AUTO 2400 BR OVC190 18/10 / RMK A02 TSNO
QEJ,2020-10-20 21:20,127.9500,38.2000,41.00,39.20,93.24,90.00,1.00,0.00,30.19,M,3.73,M,BKN,M,M,M,19000.00,M,M,M,M,M,M,M,M,M,M,M,KQEJ 202120Z AUTO 09001KT 6000 BKN190 05/04 A3019 RMK A02 TSNO
QEI,2020-10-20 21:20,128.0667,37.9500,42.80,41.00,93.30,140.00,1.00,0.00,30.20,M,5.59,M,BKN,BKN,M,M,600.00,110000.00,M,M,,M,M,M,M,M,M,M,KQEI 202120Z AUTO 14001KT 9000 // BKN006 BKN1100 06/05 A3020 RMK A02 TSNO
QEQ,2020-10-20 21:20,127.5500,37.8500,46.40,44.60,93.40,110.00,3.00,0.00,30.19,M,3.73,M,BKN,OVC,M,M,19000.00,21000.00,M,M,M,M,M,M,M,M,M,45.15,KQEQ 202120Z AUTO 11003KT 6000 BKN190 OVC210 08/07 A3019 RMK A02 TSNO
QEW,2020-10-20 21:20,128.1500,36.4000,42.80,41.00,93.30,250.00,2.00,0.00,30.20,M,6.21,M,BKN,M,M,M,21000.00,M,M,M,M,M,M,M,M,M,M,M,KQEW 202120Z AUTO 25002KT 9999 BKN210 06/05 A3020 RMK A02 TSNO
QEP,2020-10-20 21:20,127.2667,37.4000,46.40,44.60,93.40,310.00,1.00,0.00,30.20,M,2.98,M,OVC,M,M,M,21000.00,M,M,M,M,M,M,M,M,M,M,M,KQEP 202120Z AUTO 31001KT 4800 OVC210 08/07 A3020 RMK A02 TSNO
QFT,2020-10-20 21:20,127.3500,37.6000,46.40,44.60,93.40,130.00,1.00,0.00,30.17,M,M,M,OVC,M,M,M,20000.00,M,M,M,,M,M,M,M,M,M,M,KQFT 202120Z AUTO 13001KT / // OVC200 08/07 A3017 RMK A02 TSNO
QFU,2020-10-20 21:20,126.9667,37.8000,46.40,42.80,87.19,20.00,1.00,0.00,30.20,M,1.99,M,BKN,M,M,M,21000.00,M,M,M,BR,M,M,M,M,M,M,M,KQFU 202120Z AUTO 02001KT 3200 BR BKN210 08/06 A3020 RMK A02 TSNO
QEX,2020-10-20 21:20,128.3000,36.1000,48.20,44.60,87.28,20.00,1.00,0.00,30.13,M,4.97,M,BKN,M,M,M,20000.00,M,M,M,,M,M,M,M,M,M,M,KQEX 202120Z AUTO 02001KT 8000 // BKN200 09/07 A3013 RMK A02 TSNO
QFW,2020-10-20 21:20,127.8833,37.6667,42.80,44.60,M,0.00,0.00,0.00,30.21,M,6.21,M,BKN,M,M,M,20000.00,M,M,M,M,M,M,M,M,M,M,M,KQFW 202120Z AUTO 00000KT 9999 BKN200 06/07 A3021 RMK A02 TSNO
QFV,2020-10-20 21:20,127.5000,38.0500,41.00,39.20,93.24,260.00,1.00,0.00,30.22,M,6.21,M,BKN,M,M,M,19000.00,M,M,M,M,M,M,M,M,M,M,M,KQFV 202120Z AUTO 26001KT 9999 BKN190 05/04 A3022 RMK A02 TSNO
QFB,2020-10-20 21:30,128.7167,35.6500,46.40,44.60,93.40,290.00,1.00,0.00,30.24,M,6.21,M,BKN,M,M,M,21000.00,M,M,M,M,M,M,M,M,M,M,M,KQFB 202130Z AUTO 29001KT 9999 BKN210 08/07 A3024 RMK A02 TSNO
QEN,2020-10-20 21:30,128.7500,37.6667,41.00,44.60,M,260.00,8.00,0.00,M,M,1.99,M,FEW,SCT,BKN,M,100.00,19000.00,24000.00,M,BR,M,M,M,M,M,M,M,KQEN 202130Z AUTO 26008KT 3200 BR FEW001 SCT190 BKN240 05/07 / RMK A02 TSNO
QES,2020-10-20 21:30,126.4500,36.9667,64.40,50.00,59.50,M,M,0.00,M,M,1.49,M,OVC,M,M,M,19000.00,M,M,M,BR,M,M,M,M,M,M,M,KQES 202130Z AUTO 2400 BR OVC190 18/10 / RMK A02 TSNO
QEJ,2020-10-20 21:30,127.9500,38.2000,41.00,39.20,93.24,20.00,1.00,0.00,30.18,M,3.73,M,BKN,M,M,M,19000.00,M,M,M,M,M,M,M,M,M,M,M,KQEJ 202130Z AUTO 02001KT 6000 BKN190 05/04 A3018 RMK A02 TSNO
QEI,2020-10-20 21:30,128.0667,37.9500,42.80,42.80,100.00,130.00,1.00,0.00,30.19,M,4.97,M,SCT,SCT,BKN,M,600.00,19000.00,21000.00,M,,M,M,M,M,M,M,M,KQEI 202130Z AUTO 13001KT 8000 // SCT006 SCT190 BKN210 06/06 A3019 RMK A02 TSNO
QEQ,2020-10-20 21:30,127.5500,37.8500,46.40,44.60,93.40,100.00,2.00,0.00,30.19,M,3.73,M,OVC,M,M,M,19000.00,M,M,M,M,M,M,M,M,M,M,M,KQEQ 202130Z AUTO 10002KT 6000 OVC190 08/07 A3019 RMK A02 TSNO
QEW,2020-10-20 21:30,128.1500,36.4000,44.60,41.00,87.09,350.00,1.00,0.00,30.20,M,6.21,M,BKN,BKN,M,M,20000.00,25000.00,M,M,M,M,M,M,M,M,M,M,KQEW 202130Z AUTO 35001KT 9999 BKN200 BKN250 07/05 A3020 RMK A02 TSNO
QEP,2020-10-20 21:30,127.2667,37.4000,46.40,44.60,93.40,40.00,1.00,0.00,30.19,M,2.98,M,OVC,M,M,M,20000.00,M,M,M,M,M,M,M,M,M,M,M,KQEP 202130Z AUTO 04001KT 4800 OVC200 08/07 A3019 RMK A02 TSNO
QFT,2020-10-20 21:30,127.3500,37.6000,48.20,44.60,87.28,30.00,2.00,0.00,30.18,M,M,M,OVC,M,M,M,19000.00,M,M,M,,M,M,M,M,M,M,M,KQFT 202130Z AUTO 03002KT / // OVC190 09/07 A3018 RMK A02 TSNO
QFU,2020-10-20 21:30,126.9667,37.8000,46.40,42.80,87.19,30.00,2.00,0.00,30.19,M,1.99,M,BKN,M,M,M,21000.00,M,M,M,BR,M,M,M,M,M,M,M,KQFU 202130Z AUTO 03002KT 3200 BR BKN210 08/06 A3019 RMK A02 TSNO
QEX,2020-10-20 21:30,128.3000,36.1000,48.20,44.60,87.28,350.00,1.00,0.00,30.13,M,5.59,M,BKN,M,M,M,21000.00,M,M,M,,M,M,M,M,M,M,M,KQEX 202130Z AUTO 35001KT 9000 // BKN210 09/07 A3013 RMK A02 TSNO
QFW,2020-10-20 21:30,127.8833,37.6667,44.60,44.60,100.00,150.00,1.00,0.00,30.21,M,6.21,M,BKN,M,M,M,20000.00,M,M,M,M,M,M,M,M,M,M,M,KQFW 202130Z AUTO 15001KT 9999 BKN200 07/07 A3021 RMK A02 TSNO
QFV,2020-10-20 21:30,127.5000,38.0500,41.00,39.20,93.24,20.00,1.00,0.00,30.22,M,6.21,M,OVC,M,M,M,19000.00,M,M,M,M,M,M,M,M,M,M,M,KQFV 202130Z AUTO 02001KT 9999 OVC190 05/04 A3022 RMK A02 TSNO
RKSI,2020-10-20 21:30,126.4500,37.4667,55.40,48.20,76.66,150.00,9.00,0.00,30.15,M,5.59,M,NSC,M,M,M,M,M,M,M,M,M,M,M,M,M,M,M,RKSI 202130Z 15009KT 9000 NSC 13/09 Q1021 NOSIG
QFB,2020-10-20 21:40,128.7167,35.6500,44.60,42.80,93.35,310.00,2.00,0.00,30.24,M,6.21,M,BKN,M,M,M,20000.00,M,M,M,M,M,M,M,M,M,M,M,KQFB 202140Z AUTO 31002KT 9999 BKN200 07/06 A3024 RMK A02 TSNO
QEN,2020-10-20 21:40,128.7500,37.6667,41.00,44.60,M,260.00,7.00,0.00,M,M,1.99,M,SCT,BKN,BKN,M,17000.00,19000.00,24000.00,M,BR,M,M,M,M,M,M,M,KQEN 202140Z AUTO 26007KT 3200 BR SCT170 BKN190 BKN240 05/07 / RMK A02 TSNO
QES,2020-10-20 21:40,126.4500,36.9667,64.40,50.00,59.50,M,M,0.00,M,M,1.49,M,BKN,OVC,M,M,19000.00,24000.00,M,M,BR,M,M,M,M,M,M,M,KQES 202140Z AUTO 2400 BR BKN190 OVC240 18/10 / RMK A02 TSNO
QEJ,2020-10-20 21:40,127.9500,38.2000,41.00,39.20,93.24,240.00,1.00,0.00,30.18,M,2.98,M,BKN,M,M,M,19000.00,M,M,M,M,M,M,M,M,M,M,M,KQEJ 202140Z AUTO 24001KT 4800 BKN190 05/04 A3018 RMK A02 TSNO
QEI,2020-10-20 21:40,128.0667,37.9500,42.80,42.80,100.00,210.00,1.00,0.00,30.20,M,6.21,M,FEW,BKN,M,M,600.00,21000.00,M,M,M,M,M,M,M,M,M,M,KQEI 202140Z AUTO 21001KT 9999 FEW006 BKN210 06/06 A3020 RMK A02 TSNO
QEQ,2020-10-20 21:40,127.5500,37.8500,46.40,44.60,93.40,50.00,1.00,0.00,30.19,M,3.73,M,BKN,M,M,M,19000.00,M,M,M,M,M,M,M,M,M,M,M,KQEQ 202140Z AUTO 05001KT 6000 BKN190 08/07 A3019 RMK A02 TSNO
QEW,2020-10-20 21:40,128.1500,36.4000,44.60,41.00,87.09,130.00,2.00,0.00,30.20,M,6.21,M,BKN,BKN,M,M,20000.00,25000.00,M,M,M,M,M,M,M,M,M,M,KQEW 202140Z AUTO 13002KT 9999 BKN200 BKN250 07/05 A3020 RMK A02 TSNO
QEP,2020-10-20 21:40,127.2667,37.4000,46.40,44.60,93.40,270.00,1.00,0.00,30.19,M,3.73,M,OVC,M,M,M,20000.00,M,M,M,M,M,M,M,M,M,M,M,KQEP 202140Z AUTO 27001KT 6000 OVC200 08/07 A3019 RMK A02 TSNO
QFT,2020-10-20 21:40,127.3500,37.6000,48.20,44.60,87.28,30.00,3.00,0.00,30.17,M,M,M,OVC,M,M,M,19000.00,M,M,M,,M,M,M,M,M,M,47.21,KQFT 202140Z AUTO 03003KT / // OVC190 09/07 A3017 RMK A02 TSNO
QFU,2020-10-20 21:40,126.9667,37.8000,46.40,42.80,87.19,340.00,2.00,0.00,30.19,M,1.99,M,BKN,M,M,M,20000.00,M,M,M,BR,M,M,M,M,M,M,M,KQFU 202140Z AUTO 34002KT 3200 BR BKN200 08/06 A3019 RMK A02 TSNO
QEX,2020-10-20 21:40,128.3000,36.1000,48.20,44.60,87.28,350.00,3.00,0.00,30.12,M,5.59,M,BKN,M,M,M,20000.00,M,M,M,,M,M,M,M,M,M,47.21,KQEX 202140Z AUTO 35003KT 9000 // BKN200 09/07 A3012 RMK A02 TSNO
QFW,2020-10-20 21:40,127.8833,37.6667,44.60,44.60,100.00,270.00,1.00,0.00,30.20,M,6.21,M,BKN,M,M,M,19000.00,M,M,M,M,M,M,M,M,M,M,M,KQFW 202140Z AUTO 27001KT 9999 BKN190 07/07 A3020 RMK A02 TSNO
QFV,2020-10-20 21:40,127.5000,38.0500,41.00,39.20,93.24,110.00,2.00,0.00,30.21,M,6.21,M,OVC,M,M,M,20000.00,M,M,M,M,M,M,M,M,M,M,M,KQFV 202140Z AUTO 11002KT 9999 OVC200 05/04 A3021 RMK A02 TSNO
QFB,2020-10-20 21:50,128.7167,35.6500,44.60,42.80,93.35,320.00,2.00,0.00,30.24,M,6.21,M,BKN,BKN,M,M,20000.00,24000.00,M,M,M,M,M,M,M,M,M,M,KQFB 202150Z AUTO 32002KT 9999 BKN200 BKN240 07/06 A3024 RMK A02 TSNO
QEN,2020-10-20 21:50,128.7500,37.6667,41.00,44.60,M,260.00,8.00,0.00,M,M,2.98,M,FEW,BKN,BKN,M,200.00,17000.00,24000.00,M,M,M,M,M,M,M,M,M,KQEN 202150Z AUTO 26008KT 4800 FEW002 BKN170 BKN240 05/07 / RMK A02 TSNO
QEJ,2020-10-20 21:50,127.9500,38.2000,41.00,39.20,93.24,180.00,1.00,0.00,30.19,M,2.98,M,BKN,M,M,M,20000.00,M,M,M,M,M,M,M,M,M,M,M,KQEJ 202150Z AUTO 18001KT 4800 BKN200 05/04 A3019 RMK A02 TSNO
QEI,2020-10-20 21:50,128.0667,37.9500,42.80,42.80,100.00,150.00,1.00,0.00,30.19,M,3.73,M,FEW,BKN,M,M,600.00,21000.00,M,M,,M,M,M,M,M,M,M,KQEI 202150Z AUTO 15001KT 6000 // FEW006 BKN210 06/06 A3019 RMK A02 TSNO
QEQ,2020-10-20 21:50,127.5500,37.8500,46.40,44.60,93.40,300.00,1.00,0.00,30.19,M,2.98,M,BKN,M,M,M,19000.00,M,M,M,M,M,M,M,M,M,M,M,KQEQ 202150Z AUTO 30001KT 4800 BKN190 08/07 A3019 RMK A02 TSNO
QEW,2020-10-20 21:50,128.1500,36.4000,44.60,41.00,87.09,170.00,1.00,0.00,30.20,M,6.21,M,BKN,BKN,M,M,20000.00,25000.00,M,M,M,M,M,M,M,M,M,M,KQEW 202150Z AUTO 17001KT 9999 BKN200 BKN250 07/05 A3020 RMK A02 TSNO
QEP,2020-10-20 21:50,127.2667,37.4000,48.20,44.60,87.28,340.00,1.00,0.00,30.19,M,3.73,M,OVC,M,M,M,20000.00,M,M,M,M,M,M,M,M,M,M,M,KQEP 202150Z AUTO 34001KT 6000 OVC200 09/07 A3019 RMK A02 TSNO
QFT,2020-10-20 21:50,127.3500,37.6000,48.20,44.60,87.28,30.00,2.00,0.00,30.16,M,M,M,OVC,M,M,M,19000.00,M,M,M,,M,M,M,M,M,M,M,KQFT 202150Z AUTO 03002KT / // OVC190 09/07 A3016 RMK A02 TSNO
QFU,2020-10-20 21:50,126.9667,37.8000,48.20,42.80,81.47,350.00,1.00,0.00,30.19,M,1.99,M,OVC,M,M,M,20000.00,M,M,M,HZ,M,M,M,M,M,M,M,KQFU 202150Z AUTO 35001KT 3200 HZ OVC200 09/06 A3019 RMK A02 TSNO
QEX,2020-10-20 21:50,128.3000,36.1000,48.20,44.60,87.28,30.00,3.00,0.00,30.12,M,5.59,M,BKN,M,M,M,20000.00,M,M,M,,M,M,M,M,M,M,47.21,KQEX 202150Z AUTO 03003KT 9000 // BKN200 09/07 A3012 RMK A02 TSNO
QFW,2020-10-20 21:50,127.8833,37.6667,44.60,44.60,100.00,80.00,1.00,0.00,30.20,M,6.21,M,BKN,M,M,M,19000.00,M,M,M,M,M,M,M,M,M,M,M,KQFW 202150Z AUTO 08001KT 9999 BKN190 07/07 A3020 RMK A02 TSNO
QFV,2020-10-20 21:50,127.5000,38.0500,41.00,39.20,93.24,280.00,1.00,0.00,30.21,M,6.21,M,OVC,M,M,M,20000.00,M,M,M,M,M,M,M,M,M,M,M,KQFV 202150Z AUTO 28001KT 9999 OVC200 05/04 A3021 RMK A02 TSNO
QES,2020-10-20 21:50,126.4500,36.9667,64.40,50.00,59.50,M,M,0.00,M,M,1.49,M,BKN,OVC,M,M,19000.00,24000.00,M,M,BR,M,M,M,M,M,M,M,KQES 202150Z AUTO 2400 BR BKN190 OVC240 18/10 / RMK A02 TSNO
RKSG,2020-10-20 21:56,127.0311,36.9622,52.20,45.00,76.38,120.00,4.00,0.00,30.15,1021.30,3.00,M,BKN,M,M,M,19000.00,M,M,M,HZ,M,M,M,M,M,M,M,RKSG 202156Z 12004KT 3SM HZ BKN190 11/07 A3015 RMK AO2A SLP213 T01120072 $
RKJK,2020-10-20 21:56,126.6220,35.8994,52.20,48.40,86.83,90.00,6.00,0.00,30.14,1021.10,4.00,M,CLR,M,M,M,M,M,M,M,BR,M,M,M,M,M,M,M,RKJK 202156Z AUTO 09006KT 4SM BR CLR 11/09 A3014 RMK AO2 SLP211 T01120091 $
RKSY,2020-10-20 21:58,126.9753,37.5241,55.90,45.90,69.04,0.00,0.00,0.00,30.14,1021.00,6.21,M,OVC,M,M,M,18000.00,M,M,M,M,M,M,M,M,M,M,M,RKSY 202158Z AUTO 00000KT 9999 OVC180 13/08 A3014 RMK AO2 SLP210 T01330077 $
RKSO,2020-10-20 21:58,127.0296,37.0906,50.50,49.10,94.92,0.00,0.00,0.00,30.15,1021.30,5.00,M,OVC,M,M,M,18000.00,M,M,M,BR,M,M,M,M,M,M,M,RKSO 202158Z 00000KT 5SM BR OVC180 10/10 A3015 RMK AO2A SLP213 T01030095 $
QFB,2020-10-20 22:00,128.7167,35.6500,44.60,42.80,93.35,290.00,3.00,0.00,30.24,M,2.98,M,BKN,BKN,M,M,110000.00,24000.00,M,M,M,M,M,M,M,M,M,43.09,KQFB 202200Z AUTO 29003KT 4800 BKN1100 BKN240 07/06 A3024 RMK A02 TSNO
QEN,2020-10-20 22:00,128.7500,37.6667,41.00,44.60,M,250.00,6.00,0.00,M,M,2.49,M,BKN,M,M,M,17000.00,M,M,M,BR,M,M,M,M,M,M,M,KQEN 202200Z AUTO 25006KT 4000 BR BKN170 05/07 / RMK A02 TSNO
QEJ,2020-10-20 22:00,127.9500,38.2000,41.00,39.20,93.24,80.00,1.00,0.00,30.18,M,2.49,M,OVC,M,M,M,20000.00,M,M,M,BR,M,M,M,M,M,M,M,KQEJ 202200Z AUTO 08001KT 4000 BR OVC200 05/04 A3018 RMK A02 TSNO
QEI,2020-10-20 22:00,128.0667,37.9500,42.80,42.80,100.00,360.00,2.00,0.00,30.19,M,4.97,M,BKN,M,M,M,21000.00,M,M,M,,M,M,M,M,M,M,M,KQEI 202200Z AUTO 36002KT 8000 // BKN210 06/06 A3019 RMK A02 TSNO
QEQ,2020-10-20 22:00,127.5500,37.8500,46.40,44.60,93.40,10.00,1.00,0.00,30.19,M,3.73,M,BKN,M,M,M,19000.00,M,M,M,M,M,M,M,M,M,M,M,KQEQ 202200Z AUTO 01001KT 6000 BKN190 08/07 A3019 RMK A02 TSNO
QEW,2020-10-20 22:00,128.1500,36.4000,44.60,41.00,87.09,0.00,0.00,0.00,30.20,M,6.21,M,BKN,BKN,M,M,110000.00,25000.00,M,M,M,M,M,M,M,M,M,M,KQEW 202200Z AUTO 00000KT 9999 BKN1100 BKN250 07/05 A3020 RMK A02 TSNO
QEP,2020-10-20 22:00,127.2667,37.4000,48.20,44.60,87.28,0.00,0.00,0.00,30.19,M,3.73,M,OVC,M,M,M,20000.00,M,M,M,M,M,M,M,M,M,M,M,KQEP 202200Z AUTO 00000KT 6000 OVC200 09/07 A3019 RMK A02 TSNO
QFT,2020-10-20 22:00,127.3500,37.6000,48.20,44.60,87.28,30.00,2.00,0.00,30.17,M,M,M,OVC,M,M,M,20000.00,M,M,M,,M,M,M,M,M,M,M,KQFT 202200Z AUTO 03002KT / // OVC200 09/07 A3017 RMK A02 TSNO
QFU,2020-10-20 22:00,126.9667,37.8000,48.20,42.80,81.47,50.00,1.00,0.00,30.19,M,1.99,M,OVC,M,M,M,110000.00,M,M,M,HZ,M,M,M,M,M,M,M,KQFU 202200Z AUTO 05001KT 3200 HZ OVC1100 09/06 A3019 RMK A02 TSNO
QEX,2020-10-20 22:00,128.3000,36.1000,48.20,44.60,87.28,350.00,1.00,0.00,30.12,M,3.73,M,SCT,BKN,M,M,20000.00,24000.00,M,M,,M,M,M,M,M,M,M,KQEX 202200Z AUTO 35001KT 6000 // SCT200 BKN240 09/07 A3012 RMK A02 TSNO
QFW,2020-10-20 22:00,127.8833,37.6667,44.60,44.60,100.00,210.00,1.00,0.00,30.21,M,6.21,M,BKN,M,M,M,110000.00,M,M,M,M,M,M,M,M,M,M,M,KQFW 202200Z AUTO 21001KT 9999 BKN1100 07/07 A3021 RMK A02 TSNO
QFV,2020-10-20 22:00,127.5000,38.0500,41.00,39.20,93.24,0.00,0.00,0.00,30.21,M,6.21,M,OVC,M,M,M,20000.00,M,M,M,M,M,M,M,M,M,M,M,KQFV 202200Z AUTO 00000KT 9999 OVC200 05/04 A3021 RMK A02 TSNO
RKJB,2020-10-20 22:00,126.3800,34.9800,53.60,50.00,87.56,110.00,2.00,0.00,30.15,M,4.35,M,SCT,OVC,M,M,3000.00,17000.00,M,M,M,M,M,M,M,M,M,M,RKJB 202200Z 11002KT 7000 SCT030 OVC170 12/10 Q1021 NOSIG
RKPC,2020-10-20 22:00,126.4930,33.5113,64.40,55.40,72.56,80.00,2.00,0.00,30.12,M,6.21,M,FEW,BKN,M,M,3000.00,15000.00,M,M,M,M,M,M,M,M,M,M,RKPC 202200Z 08002KT 9999 FEW030 BKN150 18/13 Q1020 NOSIG
RKNY,2020-10-20 22:00,128.6692,38.0613,51.80,44.60,76.34,200.00,2.00,0.00,30.12,M,6.21,M,NCD,M,M,M,M,M,M,M,M,M,M,M,M,M,M,M,RKNY 202200Z AUTO 20002KT 9999 NCD 11/07 Q1020
RKSM,2020-10-20 22:00,127.1139,37.4458,53.60,46.40,76.50,220.00,5.00,0.00,30.17,M,5.59,M,BKN,M,M,M,20000.00,M,M,M,BR,M,M,M,M,M,M,M,RKSM 202200Z 22005KT 9000 BR BKN200 12/08 A3017
RKSS,2020-10-20 22:00,126.7906,37.5583,50.00,48.20,93.50,210.00,3.00,0.00,30.15,M,6.21,M,M,M,M,M,M,M,M,M,M,M,M,M,M,M,M,M,RKSS 202200Z 21003KT 170V230 CAVOK 10/09 Q1021 NOSIG
RKTN,2020-10-20 22:00,128.6589,35.8941,50.00,46.40,87.37,100.00,2.00,0.00,30.18,M,6.21,M,M,M,M,M,M,M,M,M,M,M,M,M,M,M,M,M,RKTN 202200Z 10002KT CAVOK 10/08 Q1022
RKTU,2020-10-20 22:00,127.4991,36.7166,46.40,44.60,93.40,340.00,1.00,0.00,30.18,M,4.97,M,NSC,M,M,M,M,M,M,M,M,M,M,M,M,M,M,M,RKTU 202200Z 34001KT 8000 NSC 08/07 Q1022
QES,2020-10-20 22:00,126.4500,36.9667,64.40,50.00,59.50,M,M,0.00,M,M,1.49,M,BKN,OVC,M,M,18000.00,24000.00,M,M,BR,M,M,M,M,M,M,M,KQES 202200Z AUTO 2400 BR BKN180 OVC240 18/10 / RMK A02 TSNO
RKPK,2020-10-20 22:00,128.9382,35.1795,55.40,46.40,71.64,320.00,2.00,0.00,30.15,M,6.21,M,M,M,M,M,M,M,M,M,M,M,M,M,M,M,M,M,RKPK 202200Z 32002KT CAVOK 13/08 Q1021
RKSI,2020-10-20 22:00,126.4500,37.4667,57.20,48.20,71.83,150.00,9.00,0.00,30.15,M,5.59,M,NSC,M,M,M,M,M,M,M,M,M,M,M,M,M,M,M,RKSI 202200Z 15009KT 9000 NSC 14/09 Q1021 NOSIG
QFB,2020-10-20 22:10,128.7167,35.6500,44.60,44.60,100.00,230.00,1.00,0.00,30.23,M,2.49,M,BKN,BKN,M,M,110000.00,24000.00,M,M,HZ,M,M,M,M,M,M,M,KQFB 202210Z AUTO 23001KT 4000 HZ BKN1100 BKN240 07/07 A3023 RMK A02 TSNO
QEN,2020-10-20 22:10,128.7500,37.6667,41.00,44.60,M,260.00,7.00,0.00,M,M,1.24,M,SCT,BKN,M,M,100.00,18000.00,M,M,BR,M,M,M,M,M,M,M,KQEN 202210Z AUTO 26007KT 2000 BR SCT001 BKN180 05/07 / RMK A02 TSNO
QEJ,2020-10-20 22:10,127.9500,38.2000,41.00,39.20,93.24,30.00,1.00,0.00,30.18,M,2.98,M,OVC,M,M,M,110000.00,M,M,M,M,M,M,M,M,M,M,M,KQEJ 202210Z AUTO 03001KT 4800 OVC1100 05/04 A3018 RMK A02 TSNO
QEI,2020-10-20 22:10,128.0667,37.9500,42.80,42.80,100.00,310.00,2.00,0.00,30.18,M,3.73,M,OVC,M,M,M,19000.00,M,M,M,,M,M,M,M,M,M,M,KQEI 202210Z AUTO 31002KT 6000 // OVC190 06/06 A3018 RMK A02 TSNO
QEW,2020-10-20 22:10,128.1500,36.4000,44.60,42.80,93.35,150.00,2.00,0.00,30.20,M,6.21,M,SCT,BKN,M,M,19000.00,24000.00,M,M,M,M,M,M,M,M,M,M,KQEW 202210Z AUTO 15002KT 9999 SCT190 BKN240 07/06 A3020 RMK A02 TSNO
QEP,2020-10-20 22:10,127.2667,37.4000,48.20,44.60,87.28,30.00,2.00,0.00,30.20,M,3.73,M,OVC,M,M,M,110000.00,M,M,M,M,M,M,M,M,M,M,M,KQEP 202210Z AUTO 03002KT 6000 OVC1100 09/07 A3020 RMK A02 TSNO
QFU,2020-10-20 22:10,126.9667,37.8000,48.20,42.80,81.47,50.00,2.00,0.00,30.19,M,1.99,M,BKN,M,M,M,19000.00,M,M,M,HZ,M,M,M,M,M,M,M,KQFU 202210Z AUTO 05002KT 3200 HZ BKN190 09/06 A3019 RMK A02 TSNO
QEX,2020-10-20 22:10,128.3000,36.1000,48.20,44.60,87.28,10.00,3.00,0.00,30.13,M,6.21,M,SCT,BKN,M,M,20000.00,24000.00,M,M,M,M,M,M,M,M,M,47.21,KQEX 202210Z AUTO 01003KT 9999 SCT200 BKN240 09/07 A3013 RMK A02 TSNO
QFW,2020-10-20 22:10,127.8833,37.6667,44.60,44.60,100.00,0.00,0.00,0.00,30.20,M,5.59,M,FEW,BKN,M,M,600.00,20000.00,M,M,,M,M,M,M,M,M,M,KQFW 202210Z AUTO 00000KT 9000 // FEW006 BKN200 07/07 A3020 RMK A02 TSNO
QFV,2020-10-20 22:10,127.5000,38.0500,41.00,39.20,93.24,120.00,2.00,0.00,30.21,M,6.21,M,BKN,M,M,M,110000.00,M,M,M,M,M,M,M,M,M,M,M,KQFV 202210Z AUTO 12002KT 9999 BKN1100 05/04 A3021 RMK A02 TSNO
QES,2020-10-20 22:10,126.4500,36.9667,64.40,50.00,59.50,M,M,0.00,M,M,1.74,M,BKN,M,M,M,18000.00,M,M,M,BR,M,M,M,M,M,M,M,KQES 202210Z AUTO 2800 BR BKN180 18/10 / RMK A02 TSNO
QEQ,2020-10-20 22:10,127.5500,37.8500,46.40,44.60,93.40,80.00,1.00,0.00,30.19,M,3.73,M,BKN,M,M,M,19000.00,M,M,M,M,M,M,M,M,M,M,M,KQEQ 202210Z AUTO 08001KT 6000 BKN190 08/07 A3019 RMK A02 TSNO
QFT,2020-10-20 22:10,127.3500,37.6000,48.20,44.60,87.28,30.00,3.00,0.00,30.17,M,M,M,OVC,M,M,M,110000.00,M,M,M,,M,M,M,M,M,M,47.21,KQFT 202210Z AUTO 03003KT / // OVC1100 09/07 A3017 RMK A02 TSNO
QFB,2020-10-20 22:20,128.7167,35.6500,46.40,44.60,93.40,290.00,3.00,0.00,30.24,M,6.21,M,BKN,BKN,M,M,19000.00,24000.00,M,M,M,M,M,M,M,M,M,45.15,KQFB 202220Z AUTO 29003KT 9999 BKN190 BKN240 08/07 A3024 RMK A02 TSNO
QEJ,2020-10-20 22:20,127.9500,38.2000,41.00,41.00,100.00,0.00,0.00,0.00,30.17,M,3.73,M,BKN,M,M,M,19000.00,M,M,M,M,M,M,M,M,M,M,M,KQEJ 202220Z AUTO 00000KT 6000 BKN190 05/05 A3017 RMK A02 TSNO
QEI,2020-10-20 22:20,128.0667,37.9500,42.80,42.80,100.00,160.00,1.00,0.00,30.18,M,3.73,M,BKN,M,M,M,19000.00,M,M,M,,M,M,M,M,M,M,M,KQEI 202220Z AUTO 16001KT 6000 // BKN190 06/06 A3018 RMK A02 TSNO
QEQ,2020-10-20 22:20,127.5500,37.8500,46.40,44.60,93.40,100.00,1.00,0.00,30.19,M,4.97,M,BKN,M,M,M,18000.00,M,M,M,M,M,M,M,M,M,M,M,KQEQ 202220Z AUTO 10001KT 8000 BKN180 08/07 A3019 RMK A02 TSNO
QEW,2020-10-20 22:20,128.1500,36.4000,44.60,42.80,93.35,240.00,1.00,0.00,30.20,M,6.21,M,BKN,BKN,M,M,110000.00,24000.00,M,M,M,M,M,M,M,M,M,M,KQEW 202220Z AUTO 24001KT 9999 BKN1100 BKN240 07/06 A3020 RMK A02 TSNO
QEP,2020-10-20 22:20,127.2667,37.4000,48.20,44.60,87.28,180.00,1.00,0.00,30.21,M,2.98,M,OVC,M,M,M,19000.00,M,M,M,M,M,M,M,M,M,M,M,KQEP 202220Z AUTO 18001KT 4800 OVC190 09/07 A3021 RMK A02 TSNO
QFT,2020-10-20 22:20,127.3500,37.6000,48.20,44.60,87.28,40.00,2.00,0.00,30.18,M,M,M,BKN,M,M,M,110000.00,M,M,M,,M,M,M,M,M,M,M,KQFT 202220Z AUTO 04002KT / // BKN1100 09/07 A3018 RMK A02 TSNO
QFU,2020-10-20 22:20,126.9667,37.8000,46.40,42.80,87.19,20.00,2.00,0.00,30.20,M,1.99,M,BKN,M,M,M,18000.00,M,M,M,BR,M,M,M,M,M,M,M,KQFU 202220Z AUTO 02002KT 3200 BR BKN180 08/06 A3020 RMK A02 TSNO
QEX,2020-10-20 22:20,128.3000,36.1000,48.20,44.60,87.28,360.00,2.00,0.00,30.13,M,5.59,M,BKN,BKN,M,M,19000.00,24000.00,M,M,,M,M,M,M,M,M,M,KQEX 202220Z AUTO 36002KT 9000 // BKN190 BKN240 09/07 A3013 RMK A02 TSNO
QFW,2020-10-20 22:20,127.8833,37.6667,44.60,44.60,100.00,0.00,0.00,0.00,30.20,M,6.21,M,FEW,BKN,M,M,600.00,110000.00,M,M,M,M,M,M,M,M,M,M,KQFW 202220Z AUTO 00000KT 9999 FEW006 BKN1100 07/07 A3020 RMK A02 TSNO
QFV,2020-10-20 22:20,127.5000,38.0500,41.00,39.20,93.24,90.00,2.00,0.00,30.21,M,5.59,M,BKN,M,M,M,18000.00,M,M,M,,M,M,M,M,M,M,M,KQFV 202220Z AUTO 09002KT 9000 // BKN180 05/04 A3021 RMK A02 TSNO
QEN,2020-10-20 22:20,128.7500,37.6667,41.00,44.60,M,250.00,7.00,0.00,M,M,1.99,M,FEW,BKN,BKN,M,100.00,18000.00,23000.00,M,BR,M,M,M,M,M,M,M,KQEN 202220Z AUTO 25007KT 3200 BR FEW001 BKN180 BKN230 05/07 / RMK A02 TSNO
QES,2020-10-20 22:20,126.4500,36.9667,64.40,50.00,59.50,M,M,0.00,M,M,1.74,M,BKN,M,M,M,18000.00,M,M,M,BR,M,M,M,M,M,M,M,KQES 202220Z AUTO 2800 BR BKN180 18/10 / RMK A02 TSNO
RKSI,2020-10-20 22:30,126.4500,37.4667,57.20,46.40,67.12,140.00,8.00,0.00,30.12,M,6.21,M,M,M,M,M,M,M,M,M,M,M,M,M,M,M,M,M,RKSI 202230Z 14008KT CAVOK 14/08 Q1020 NOSIG
QFB,2020-10-20 22:30,128.7167,35.6500,46.40,44.60,93.40,300.00,4.00,0.00,30.25,M,5.59,M,BKN,BKN,M,M,19000.00,24000.00,M,M,BR,M,M,M,M,M,M,44.24,KQFB 202230Z AUTO 30004KT 9000 BR BKN190 BKN240 08/07 A3025 RMK A02 TSNO
QEN,2020-10-20 22:30,128.7500,37.6667,41.00,44.60,M,250.00,6.00,0.00,M,M,1.99,M,FEW,SCT,BKN,M,100.00,19000.00,23000.00,M,BR,M,M,M,M,M,M,M,KQEN 202230Z AUTO 25006KT 3200 BR FEW001 SCT190 BKN230 05/07 / RMK A02 TSNO
QES,2020-10-20 22:30,126.4500,36.9667,64.40,50.00,59.50,M,M,0.00,M,M,1.99,M,SCT,BKN,M,M,18000.00,22000.00,M,M,BR,M,M,M,M,M,M,M,KQES 202230Z AUTO 3200 BR SCT180 BKN220 18/10 / RMK A02 TSNO
QEI,2020-10-20 22:30,128.0667,37.9500,42.80,42.80,100.00,0.00,0.00,0.00,30.18,M,3.73,M,FEW,BKN,M,M,700.00,19000.00,M,M,,M,M,M,M,M,M,M,KQEI 202230Z AUTO 00000KT 6000 // FEW007 BKN190 06/06 A3018 RMK A02 TSNO
QEQ,2020-10-20 22:30,127.5500,37.8500,46.40,44.60,93.40,50.00,3.00,0.00,30.19,M,5.59,M,BKN,M,M,M,18000.00,M,M,M,M,M,M,M,M,M,M,45.15,KQEQ 202230Z AUTO 05003KT 9000 BKN180 08/07 A3019 RMK A02 TSNO
QEW,2020-10-20 22:30,128.1500,36.4000,44.60,42.80,93.35,300.00,1.00,0.00,30.20,M,6.21,M,SCT,BKN,M,M,110000.00,23000.00,M,M,M,M,M,M,M,M,M,M,KQEW 202230Z AUTO 30001KT 9999 SCT1100 BKN230 07/06 A3020 RMK A02 TSNO
QEP,2020-10-20 22:30,127.2667,37.4000,48.20,46.40,93.45,0.00,0.00,0.00,30.20,M,1.49,M,BKN,M,M,M,18000.00,M,M,M,BR,M,M,M,M,M,M,M,KQEP 202230Z AUTO 00000KT 2400 BR BKN180 09/08 A3020 RMK A02 TSNO
QFT,2020-10-20 22:30,127.3500,37.6000,48.20,44.60,87.28,40.00,2.00,0.00,30.18,M,M,M,BKN,M,M,M,110000.00,M,M,M,,M,M,M,M,M,M,M,KQFT 202230Z AUTO 04002KT / // BKN1100 09/07 A3018 RMK A02 TSNO
QFU,2020-10-20 22:30,126.9667,37.8000,48.20,42.80,81.47,50.00,1.00,0.00,30.20,M,1.74,M,BKN,M,M,M,18000.00,M,M,M,HZ,M,M,M,M,M,M,M,KQFU 202230Z AUTO 05001KT 2800 HZ BKN180 09/06 A3020 RMK A02 TSNO
QEX,2020-10-20 22:30,128.3000,36.1000,48.20,44.60,87.28,30.00,4.00,0.00,30.13,M,4.97,M,BKN,BKN,M,M,19000.00,24000.00,M,M,,M,M,M,M,M,M,46.34,KQEX 202230Z AUTO 03004KT 8000 // BKN190 BKN240 09/07 A3013 RMK A02 TSNO
QFW,2020-10-20 22:30,127.8833,37.6667,44.60,44.60,100.00,10.00,1.00,0.00,30.20,M,5.59,M,FEW,BKN,M,M,600.00,110000.00,M,M,,M,M,M,M,M,M,M,KQFW 202230Z AUTO 01001KT 9000 // FEW006 BKN1100 07/07 A3020 RMK A02 TSNO
QFV,2020-10-20 22:30,127.5000,38.0500,41.00,39.20,93.24,270.00,1.00,0.00,30.22,M,6.21,M,BKN,M,M,M,18000.00,M,M,M,M,M,M,M,M,M,M,M,KQFV 202230Z AUTO 27001KT 9999 BKN180 05/04 A3022 RMK A02 TSNO
QEJ,2020-10-20 22:30,127.9500,38.2000,41.00,41.00,100.00,140.00,1.00,0.00,30.17,M,3.73,M,BKN,M,M,M,18000.00,M,M,M,M,M,M,M,M,M,M,M,KQEJ 202230Z AUTO 14001KT 6000 BKN180 05/05 A3017 RMK A02 TSNO
QFT,2020-10-20 22:40,127.3500,37.6000,48.20,44.60,87.28,40.00,3.00,0.00,30.17,M,M,M,BKN,M,M,M,19000.00,M,M,M,,M,M,M,M,M,M,47.21,KQFT 202240Z AUTO 04003KT / // BKN190 09/07 A3017 RMK A02 TSNO
QFU,2020-10-20 22:40,126.9667,37.8000,46.40,42.80,87.19,40.00,1.00,0.00,30.19,M,1.74,M,BKN,M,M,M,18000.00,M,M,M,BR,M,M,M,M,M,M,M,KQFU 202240Z AUTO 04001KT 2800 BR BKN180 08/06 A3019 RMK A02 TSNO
QEX,2020-10-20 22:40,128.3000,36.1000,48.20,44.60,87.28,30.00,3.00,0.00,30.13,M,3.73,M,SCT,BKN,M,M,19000.00,23000.00,M,M,,M,M,M,M,M,M,47.21,KQEX 202240Z AUTO 03003KT 6000 // SCT190 BKN230 09/07 A3013 RMK A02 TSNO
QFW,2020-10-20 22:40,127.8833,37.6667,44.60,44.60,100.00,220.00,1.00,0.00,30.21,M,6.21,M,BKN,M,M,M,110000.00,M,M,M,M,M,M,M,M,M,M,M,KQFW 202240Z AUTO 22001KT 9999 BKN1100 07/07 A3021 RMK A02 TSNO
QFV,2020-10-20 22:40,127.5000,38.0500,41.00,39.20,93.24,290.00,1.00,0.00,30.21,M,6.21,M,BKN,M,M,M,18000.00,M,M,M,M,M,M,M,M,M,M,M,KQFV 202240Z AUTO 29001KT 9999 BKN180 05/04 A3021 RMK A02 TSNO
QFB,2020-10-20 22:40,128.7167,35.6500,46.40,44.60,93.40,310.00,1.00,0.00,30.25,M,4.97,M,BKN,BKN,M,M,19000.00,25000.00,M,M,M,M,M,M,M,M,M,M,KQFB 202240Z AUTO 31001KT 8000 BKN190 BKN250 08/07 A3025 RMK A02 TSNO
QEN,2020-10-20 22:40,128.7500,37.6667,41.00,44.60,M,260.00,6.00,0.00,M,M,1.99,M,FEW,SCT,BKN,M,200.00,19000.00,23000.00,M,BR,M,M,M,M,M,M,M,KQEN 202240Z AUTO 26006KT 3200 BR FEW002 SCT190 BKN230 05/07 / RMK A02 TSNO
QES,2020-10-20 22:40,126.4500,36.9667,64.40,50.00,59.50,M,M,0.00,M,M,1.74,M,BKN,M,M,M,18000.00,M,M,M,BR,M,M,M,M,M,M,M,KQES 202240Z AUTO 2800 BR BKN180 18/10 / RMK A02 TSNO
QEJ,2020-10-20 22:40,127.9500,38.2000,42.80,41.00,93.30,120.00,2.00,0.00,30.18,M,3.73,M,BKN,M,M,M,18000.00,M,M,M,M,M,M,M,M,M,M,M,KQEJ 202240Z AUTO 12002KT 6000 BKN180 06/05 A3018 RMK A02 TSNO
QEI,2020-10-20 22:40,128.0667,37.9500,44.60,42.80,93.35,230.00,1.00,0.00,30.18,M,4.97,M,BKN,M,M,M,19000.00,M,M,M,,M,M,M,M,M,M,M,KQEI 202240Z AUTO 23001KT 8000 // BKN190 07/06 A3018 RMK A02 TSNO
QEQ,2020-10-20 22:40,127.5500,37.8500,46.40,44.60,93.40,110.00,2.00,0.00,30.19,M,4.97,M,BKN,M,M,M,18000.00,M,M,M,M,M,M,M,M,M,M,M,KQEQ 202240Z AUTO 11002KT 8000 BKN180 08/07 A3019 RMK A02 TSNO
QEW,2020-10-20 22:40,128.1500,36.4000,44.60,42.80,93.35,240.00,1.00,0.00,30.21,M,6.21,M,SCT,BKN,M,M,110000.00,23000.00,M,M,M,M,M,M,M,M,M,M,KQEW 202240Z AUTO 24001KT 9999 SCT1100 BKN230 07/06 A3021 RMK A02 TSNO
QEP,2020-10-20 22:40,127.2667,37.4000,48.20,46.40,93.45,190.00,2.00,0.00,30.19,M,2.98,M,BKN,M,M,M,18000.00,M,M,M,M,M,M,M,M,M,M,M,KQEP 202240Z AUTO 19002KT 4800 BKN180 09/08 A3019 RMK A02 TSNO
QFB,2020-10-20 22:50,128.7167,35.6500,46.40,44.60,93.40,280.00,1.00,0.00,30.25,M,5.59,M,SCT,BKN,M,M,19000.00,24000.00,M,M,M,M,M,M,M,M,M,M,KQFB 202250Z AUTO 28001KT 9000 SCT190 BKN240 08/07 A3025 RMK A02 TSNO
QEN,2020-10-20 22:50,128.7500,37.6667,41.00,44.60,M,250.00,6.00,0.00,M,M,2.49,M,BKN,BKN,M,M,18000.00,23000.00,M,M,BR,M,M,M,M,M,M,M,KQEN 202250Z AUTO 25006KT 4000 BR BKN180 BKN230 05/07 / RMK A02 TSNO
QES,2020-10-20 22:50,126.4500,36.9667,64.40,50.00,59.50,M,M,0.00,M,M,1.74,M,BKN,M,M,M,19000.00,M,M,M,BR,M,M,M,M,M,M,M,KQES 202250Z AUTO 2800 BR BKN190 18/10 / RMK A02 TSNO
QEJ,2020-10-20 22:50,127.9500,38.2000,42.80,41.00,93.30,180.00,1.00,0.00,30.19,M,3.73,M,BKN,M,M,M,18000.00,M,M,M,M,M,M,M,M,M,M,M,KQEJ 202250Z AUTO 18001KT 6000 BKN180 06/05 A3019 RMK A02 TSNO
QEI,2020-10-20 22:50,128.0667,37.9500,44.60,42.80,93.35,120.00,2.00,0.00,30.20,M,4.97,M,BKN,M,M,M,19000.00,M,M,M,,M,M,M,M,M,M,M,KQEI 202250Z AUTO 12002KT 8000 // BKN190 07/06 A3020 RMK A02 TSNO
QEQ,2020-10-20 22:50,127.5500,37.8500,46.40,44.60,93.40,110.00,2.00,0.00,30.18,M,3.73,M,BKN,M,M,M,18000.00,M,M,M,M,M,M,M,M,M,M,M,KQEQ 202250Z AUTO 11002KT 6000 BKN180 08/07 A3018 RMK A02 TSNO
QEW,2020-10-20 22:50,128.1500,36.4000,44.60,42.80,93.35,120.00,1.00,0.00,30.21,M,6.21,M,BKN,M,M,M,19000.00,M,M,M,M,M,M,M,M,M,M,M,KQEW 202250Z AUTO 12001KT 9999 BKN190 07/06 A3021 RMK A02 TSNO
QEP,2020-10-20 22:50,127.2667,37.4000,48.20,46.40,93.45,0.00,0.00,0.00,30.19,M,3.73,M,BKN,M,M,M,18000.00,M,M,M,M,M,M,M,M,M,M,M,KQEP 202250Z AUTO 00000KT 6000 BKN180 09/08 A3019 RMK A02 TSNO
QFT,2020-10-20 22:50,127.3500,37.6000,48.20,44.60,87.28,360.00,2.00,0.00,30.17,M,M,M,BKN,M,M,M,18000.00,M,M,M,,M,M,M,M,M,M,M,KQFT 202250Z AUTO 36002KT / // BKN180 09/07 A3017 RMK A02 TSNO
QFU,2020-10-20 22:50,126.9667,37.8000,48.20,44.60,87.28,360.00,1.00,0.00,30.19,M,1.74,M,BKN,M,M,M,18000.00,M,M,M,BR,M,M,M,M,M,M,M,KQFU 202250Z AUTO 36001KT 2800 BR BKN180 09/07 A3019 RMK A02 TSNO
QEX,2020-10-20 22:50,128.3000,36.1000,48.20,44.60,87.28,360.00,2.00,0.00,30.14,M,4.97,M,FEW,BKN,M,M,18000.00,23000.00,M,M,,M,M,M,M,M,M,M,KQEX 202250Z AUTO 36002KT 8000 // FEW180 BKN230 09/07 A3014 RMK A02 TSNO
QFW,2020-10-20 22:50,127.8833,37.6667,44.60,44.60,100.00,230.00,1.00,0.00,30.21,M,5.59,M,BKN,M,M,M,19000.00,M,M,M,,M,M,M,M,M,M,M,KQFW 202250Z AUTO 23001KT 9000 // BKN190 07/07 A3021 RMK A02 TSNO
QFV,2020-10-20 22:50,127.5000,38.0500,42.80,39.20,86.99,140.00,2.00,0.00,30.21,M,6.21,M,BKN,M,M,M,18000.00,M,M,M,M,M,M,M,M,M,M,M,KQFV 202250Z AUTO 14002KT 9999 BKN180 06/04 A3021 RMK A02 TSNO
RKSG,2020-10-20 22:55,127.0311,36.9622,55.90,43.30,62.53,110.00,5.00,0.00,30.14,1021.00,3.00,M,BKN,M,M,M,19000.00,M,M,M,HZ,M,M,M,M,M,M,M,RKSG 202255Z 11005KT 3SM HZ BKN190 13/06 A3014 RMK AO2A SLP210 T01330063 $
RKJK,2020-10-20 22:56,126.6220,35.8994,53.80,48.00,80.66,100.00,7.00,0.00,30.14,1021.10,5.00,M,CLR,M,M,M,M,M,M,M,HZ,M,M,M,M,M,M,M,RKJK 202256Z AUTO 10007KT 5SM HZ CLR 12/09 A3014 RMK AO2 SLP211 T01210089 $
RKSO,2020-10-20 22:58,127.0296,37.0906,52.30,50.50,93.56,100.00,3.00,0.00,30.15,1021.30,5.00,M,BKN,M,M,M,19000.00,M,M,M,BR,M,M,M,M,M,M,M,RKSO 202258Z 10003KT 5SM BR BKN190 11/10 A3015 RMK AO2A SLP213 T01130103 $
RKSY,2020-10-20 22:58,126.9753,37.5241,56.70,46.20,67.83,0.00,0.00,0.00,30.14,1021.00,6.21,M,OVC,M,M,M,17000.00,M,M,M,M,M,M,M,M,M,M,M,RKSY 202258Z AUTO 00000KT 9999 OVC170 14/08 A3014 RMK AO2 SLP210 T01370079 $
QFB,2020-10-20 23:00,128.7167,35.6500,46.40,44.60,93.40,340.00,1.00,0.00,30.26,M,6.21,M,FEW,BKN,M,M,19000.00,23000.00,M,M,M,M,M,M,M,M,M,M,KQFB 202300Z AUTO 34001KT 9999 FEW190 BKN230 08/07 A3026 RMK A02 TSNO
QEN,2020-10-20 23:00,128.7500,37.6667,41.00,44.60,M,240.00,5.00,0.00,M,M,2.98,M,BKN,BKN,M,M,17000.00,22000.00,M,M,M,M,M,M,M,M,M,M,KQEN 202300Z AUTO 24005KT 4800 BKN170 BKN220 05/07 / RMK A02 TSNO
QES,2020-10-20 23:00,126.4500,36.9667,64.40,50.00,59.50,M,M,0.00,M,M,1.99,M,BKN,M,M,M,18000.00,M,M,M,BR,M,M,M,M,M,M,M,KQES 202300Z AUTO 3200 BR BKN180 18/10 / RMK A02 TSNO
QEJ,2020-10-20 23:00,127.9500,38.2000,42.80,41.00,93.30,210.00,1.00,0.00,30.18,M,3.73,M,BKN,M,M,M,19000.00,M,M,M,M,M,M,M,M,M,M,M,KQEJ 202300Z AUTO 21001KT 6000 BKN190 06/05 A3018 RMK A02 TSNO
QEI,2020-10-20 23:00,128.0667,37.9500,44.60,42.80,93.35,50.00,1.00,0.00,30.19,M,3.73,M,BKN,M,M,M,19000.00,M,M,M,,M,M,M,M,M,M,M,KQEI 202300Z AUTO 05001KT 6000 // BKN190 07/06 A3019 RMK A02 TSNO
QEQ,2020-10-20 23:00,127.5500,37.8500,46.40,46.40,100.00,100.00,1.00,0.00,30.19,M,4.97,M,BKN,M,M,M,17000.00,M,M,M,M,M,M,M,M,M,M,M,KQEQ 202300Z AUTO 10001KT 8000 BKN170 08/08 A3019 RMK A02 TSNO
QEW,2020-10-20 23:00,128.1500,36.4000,44.60,42.80,93.35,130.00,2.00,0.00,30.20,M,6.21,M,BKN,M,M,M,19000.00,M,M,M,M,M,M,M,M,M,M,M,KQEW 202300Z AUTO 13002KT 9999 BKN190 07/06 A3020 RMK A02 TSNO
QEP,2020-10-20 23:00,127.2667,37.4000,48.20,46.40,93.45,30.00,1.00,0.00,30.19,M,3.73,M,BKN,M,M,M,18000.00,M,M,M,M,M,M,M,M,M,M,M,KQEP 202300Z AUTO 03001KT 6000 BKN180 09/08 A3019 RMK A02 TSNO
QFU,2020-10-20 23:00,126.9667,37.8000,48.20,44.60,87.28,60.00,1.00,0.00,30.19,M,1.74,M,BKN,M,M,M,17000.00,M,M,M,HZ,M,M,M,M,M,M,M,KQFU 202300Z AUTO 06001KT 2800 HZ BKN170 09/07 A3019 RMK A02 TSNO
QEX,2020-10-20 23:00,128.3000,36.1000,48.20,44.60,87.28,40.00,3.00,0.00,30.13,M,5.59,M,BKN,M,M,M,23000.00,M,M,M,,M,M,M,M,M,M,47.21,KQEX 202300Z AUTO 04003KT 9000 // BKN230 09/07 A3013 RMK A02 TSNO
QFW,2020-10-20 23:00,127.8833,37.6667,44.60,44.60,100.00,170.00,1.00,0.00,30.20,M,5.59,M,BKN,M,M,M,18000.00,M,M,M,,M,M,M,M,M,M,M,KQFW 202300Z AUTO 17001KT 9000 // BKN180 07/07 A3020 RMK A02 TSNO
QFV,2020-10-20 23:00,127.5000,38.0500,42.80,39.20,86.99,290.00,1.00,0.00,30.21,M,6.21,M,BKN,M,M,M,18000.00,M,M,M,M,M,M,M,M,M,M,M,KQFV 202300Z AUTO 29001KT 9999 BKN180 06/04 A3021 RMK A02 TSNO
RKJB,2020-10-20 23:00,126.3800,34.9800,55.40,51.80,87.65,70.00,5.00,0.00,30.15,M,4.35,M,SCT,OVC,M,M,3000.00,17000.00,M,M,M,M,M,M,M,M,M,M,RKJB 202300Z 07005KT 7000 SCT030 OVC170 13/11 Q1021 NOSIG
RKPC,2020-10-20 23:00,126.4930,33.5113,64.40,55.40,72.56,130.00,4.00,0.00,30.09,M,6.21,M,FEW,BKN,M,M,3000.00,15000.00,M,M,M,M,M,M,M,M,M,M,RKPC 202300Z 13004KT 090V150 9999 FEW030 BKN150 18/13 Q1019 NOSIG
RKNY,2020-10-20 23:00,128.6692,38.0613,55.40,44.60,66.91,200.00,1.00,0.00,30.12,M,6.21,M,M,M,M,M,M,M,M,M,M,M,M,M,M,M,M,M,RKNY 202300Z 20001KT CAVOK 13/07 Q1020 NOSIG
RKSS,2020-10-20 23:00,126.7906,37.5583,55.40,48.20,76.66,140.00,3.00,0.00,30.12,M,6.21,M,M,M,M,M,M,M,M,M,M,M,M,M,M,M,M,M,RKSS 202300Z 14003KT 110V200 CAVOK 13/09 Q1020 NOSIG
RKTN,2020-10-20 23:00,128.6589,35.8941,51.80,48.20,87.47,320.00,1.00,0.00,30.21,M,6.21,M,FEW,BKN,M,M,3000.00,20000.00,M,M,M,M,M,M,M,M,M,M,RKTN 202300Z 32001KT 9999 FEW030 BKN200 11/09 Q1023
RKTU,2020-10-20 23:00,127.4991,36.7166,48.20,46.40,93.45,40.00,1.00,0.00,30.18,M,4.97,M,NSC,M,M,M,M,M,M,M,M,M,M,M,M,M,M,M,RKTU 202300Z 04001KT 8000 NSC 09/08 Q1022
RKPK,2020-10-20 23:00,128.9382,35.1795,57.20,48.20,71.83,340.00,4.00,0.00,30.18,M,6.21,M,FEW,BKN,M,M,4000.00,20000.00,M,M,M,M,M,M,M,M,M,M,RKPK 202300Z 34004KT 9999 FEW040 BKN200 14/09 Q1022
QFT,2020-10-20 23:00,127.3500,37.6000,48.20,44.60,87.28,30.00,2.00,0.00,30.17,M,M,M,BKN,M,M,M,18000.00,M,M,M,,M,M,M,M,M,M,M,KQFT 202300Z AUTO 03002KT / // BKN180 09/07 A3017 RMK A02 TSNO
RKSI,2020-10-20 23:00,126.4500,37.4667,57.20,48.20,71.83,140.00,8.00,0.00,30.12,M,6.21,M,M,M,M,M,M,M,M,M,M,M,M,M,M,M,M,M,RKSI 202300Z 14008KT CAVOK 14/09 Q1020 NOSIG
RKSM,2020-10-20 23:00,127.1139,37.4458,55.40,46.40,71.64,220.00,4.00,0.00,30.16,M,5.59,M,BKN,M,M,M,18000.00,M,M,M,BR,M,M,M,M,M,M,M,RKSM 202300Z 22004KT 9000 BR BKN180 13/08 A3016
QFB,2020-10-20 23:10,128.7167,35.6500,46.40,44.60,93.40,250.00,1.00,0.00,30.26,M,6.21,M,BKN,M,M,M,23000.00,M,M,M,M,M,M,M,M,M,M,M,KQFB 202310Z AUTO 25001KT 9999 BKN230 08/07 A3026 RMK A02 TSNO
QEN,2020-10-20 23:10,128.7500,37.6667,41.00,44.60,M,260.00,5.00,0.00,M,M,3.73,M,BKN,M,M,M,17000.00,M,M,M,M,M,M,M,M,M,M,M,KQEN 202310Z AUTO 26005KT 6000 BKN170 05/07 / RMK A02 TSNO
QES,2020-10-20 23:10,126.4500,36.9667,64.40,50.00,59.50,M,M,0.00,M,M,2.49,M,BKN,M,M,M,17000.00,M,M,M,BR,M,M,M,M,M,M,M,KQES 202310Z AUTO 4000 BR BKN170 18/10 / RMK A02 TSNO
QEJ,2020-10-20 23:10,127.9500,38.2000,42.80,41.00,93.30,250.00,1.00,0.00,30.18,M,3.73,M,BKN,M,M,M,19000.00,M,M,M,M,M,M,M,M,M,M,M,KQEJ 202310Z AUTO 25001KT 6000 BKN190 06/05 A3018 RMK A02 TSNO
QEI,2020-10-20 23:10,128.0667,37.9500,44.60,42.80,93.35,330.00,2.00,0.00,30.19,M,6.21,M,BKN,M,M,M,18000.00,M,M,M,M,M,M,M,M,M,M,M,KQEI 202310Z AUTO 33002KT 9999 BKN180 07/06 A3019 RMK A02 TSNO
QEQ,2020-10-20 23:10,127.5500,37.8500,48.20,46.40,93.45,0.00,0.00,0.00,30.18,M,4.97,M,BKN,M,M,M,17000.00,M,M,M,M,M,M,M,M,M,M,M,KQEQ 202310Z AUTO 00000KT 8000 BKN170 09/08 A3018 RMK A02 TSNO
QEP,2020-10-20 23:10,127.2667,37.4000,48.20,46.40,93.45,330.00,1.00,0.00,30.20,M,3.73,M,BKN,M,M,M,18000.00,M,M,M,M,M,M,M,M,M,M,M,KQEP 202310Z AUTO 33001KT 6000 BKN180 09/08 A3020 RMK A02 TSNO
QFT,2020-10-20 23:10,127.3500,37.6000,48.20,44.60,87.28,40.00,2.00,0.00,30.17,M,M,M,BKN,M,M,M,18000.00,M,M,M,,M,M,M,M,M,M,M,KQFT 202310Z AUTO 04002KT / // BKN180 09/07 A3017 RMK A02 TSNO
QFU,2020-10-20 23:10,126.9667,37.8000,48.20,44.60,87.28,140.00,1.00,0.00,30.20,M,1.99,M,BKN,M,M,M,17000.00,M,M,M,HZ,M,M,M,M,M,M,M,KQFU 202310Z AUTO 14001KT 3200 HZ BKN170 09/07 A3020 RMK A02 TSNO
QEX,2020-10-20 23:10,128.3000,36.1000,48.20,44.60,87.28,30.00,4.00,0.00,30.14,M,4.97,M,SCT,BKN,M,M,21000.00,23000.00,M,M,,M,M,M,M,M,M,46.34,KQEX 202310Z AUTO 03004KT 8000 // SCT210 BKN230 09/07 A3014 RMK A02 TSNO
QFW,2020-10-20 23:10,127.8833,37.6667,44.60,44.60,100.00,10.00,2.00,0.00,30.20,M,6.21,M,BKN,M,M,M,18000.00,M,M,M,M,M,M,M,M,M,M,M,KQFW 202310Z AUTO 01002KT 9999 BKN180 07/07 A3020 RMK A02 TSNO
QFV,2020-10-20 23:10,127.5000,38.0500,42.80,39.20,86.99,300.00,1.00,0.00,30.20,M,6.21,M,BKN,M,M,M,17000.00,M,M,M,M,M,M,M,M,M,M,M,KQFV 202310Z AUTO 30001KT 9999 BKN170 06/04 A3020 RMK A02 TSNO
QEW,2020-10-20 23:10,128.1500,36.4000,44.60,42.80,93.35,200.00,2.00,0.00,30.21,M,3.73,M,BKN,M,M,M,19000.00,M,M,M,,M,M,M,M,M,M,M,KQEW 202310Z AUTO 20002KT 6000 // BKN190 07/06 A3021 RMK A02 TSNO
QFB,2020-10-20 23:20,128.7167,35.6500,48.20,44.60,87.28,270.00,1.00,0.00,30.26,M,6.21,M,BKN,M,M,M,23000.00,M,M,M,M,M,M,M,M,M,M,M,KQFB 202320Z AUTO 27001KT 9999 BKN230 09/07 A3026 RMK A02 TSNO
QEN,2020-10-20 23:20,128.7500,37.6667,41.00,44.60,M,250.00,5.00,0.00,M,M,4.97,M,BKN,M,M,M,17000.00,M,M,M,M,M,M,M,M,M,M,M,KQEN 202320Z AUTO 25005KT 8000 BKN170 05/07 / RMK A02 TSNO
QES,2020-10-20 23:20,126.4500,36.9667,64.40,50.00,59.50,M,M,0.00,M,M,2.49,M,BKN,M,M,M,17000.00,M,M,M,BR,M,M,M,M,M,M,M,KQES 202320Z AUTO 4000 BR BKN170 18/10 / RMK A02 TSNO
QEJ,2020-10-20 23:20,127.9500,38.2000,42.80,41.00,93.30,0.00,0.00,0.00,30.17,M,3.73,M,BKN,M,M,M,18000.00,M,M,M,M,M,M,M,M,M,M,M,KQEJ 202320Z AUTO 00000KT 6000 BKN180 06/05 A3017 RMK A02 TSNO
QEI,2020-10-20 23:20,128.0667,37.9500,44.60,42.80,93.35,170.00,1.00,0.00,30.19,M,6.21,M,BKN,M,M,M,18000.00,M,M,M,M,M,M,M,M,M,M,M,KQEI 202320Z AUTO 17001KT 9999 BKN180 07/06 A3019 RMK A02 TSNO
QEQ,2020-10-20 23:20,127.5500,37.8500,48.20,44.60,87.28,360.00,2.00,0.00,30.18,M,4.97,M,BKN,M,M,M,17000.00,M,M,M,M,M,M,M,M,M,M,M,KQEQ 202320Z AUTO 36002KT 8000 BKN170 09/07 A3018 RMK A02 TSNO
QEW,2020-10-20 23:20,128.1500,36.4000,46.40,42.80,87.19,300.00,1.00,0.00,30.20,M,5.59,M,BKN,BKN,M,M,19000.00,22000.00,M,M,,M,M,M,M,M,M,M,KQEW 202320Z AUTO 30001KT 9000 // BKN190 BKN220 08/06 A3020 RMK A02 TSNO
QEP,2020-10-20 23:20,127.2667,37.4000,50.00,46.40,87.37,360.00,1.00,0.00,30.20,M,3.73,M,BKN,BKN,M,M,18000.00,22000.00,M,M,M,M,M,M,M,M,M,M,KQEP 202320Z AUTO 36001KT 6000 BKN180 BKN220 10/08 A3020 RMK A02 TSNO
QFT,2020-10-20 23:20,127.3500,37.6000,48.20,44.60,87.28,40.00,2.00,0.00,30.17,M,M,M,BKN,BKN,M,M,18000.00,110000.00,M,M,,M,M,M,M,M,M,M,KQFT 202320Z AUTO 04002KT / // BKN180 BKN1100 09/07 A3017 RMK A02 TSNO
QFU,2020-10-20 23:20,126.9667,37.8000,50.00,44.60,81.61,70.00,1.00,0.00,30.18,M,1.99,M,BKN,M,M,M,17000.00,M,M,M,HZ,M,M,M,M,M,M,M,KQFU 202320Z AUTO 07001KT 3200 HZ BKN170 10/07 A3018 RMK A02 TSNO
QEX,2020-10-20 23:20,128.3000,36.1000,48.20,46.40,93.45,30.00,3.00,0.00,30.14,M,4.97,M,SCT,BKN,M,M,21000.00,23000.00,M,M,,M,M,M,M,M,M,47.21,KQEX 202320Z AUTO 03003KT 8000 // SCT210 BKN230 09/08 A3014 RMK A02 TSNO
QFW,2020-10-20 23:20,127.8833,37.6667,44.60,44.60,100.00,20.00,2.00,0.00,30.20,M,6.21,M,BKN,M,M,M,18000.00,M,M,M,M,M,M,M,M,M,M,M,KQFW 202320Z AUTO 02002KT 9999 BKN180 07/07 A3020 RMK A02 TSNO
QFV,2020-10-20 23:20,127.5000,38.0500,42.80,41.00,93.30,280.00,1.00,0.00,30.21,M,6.21,M,BKN,M,M,M,17000.00,M,M,M,M,M,M,M,M,M,M,M,KQFV 202320Z AUTO 28001KT 9999 BKN170 06/05 A3021 RMK A02 TSNO
RKTN,2020-10-20 23:23,128.6589,35.8941,53.60,48.20,81.87,20.00,1.00,0.00,30.21,M,6.21,M,FEW,BKN,M,M,3000.00,20000.00,M,M,M,M,M,M,M,M,M,M,RKTN 202323Z 02001KT 9999 FEW030 BKN200 12/09 Q1023 RMK CIG200
QFB,2020-10-20 23:30,128.7167,35.6500,48.20,44.60,87.28,350.00,1.00,0.00,30.25,M,6.21,M,FEW,BKN,M,M,20000.00,24000.00,M,M,M,M,M,M,M,M,M,M,KQFB 202330Z AUTO 35001KT 9999 FEW200 BKN240 09/07 A3025 RMK A02 TSNO
QEN,2020-10-20 23:30,128.7500,37.6667,41.00,44.60,M,250.00,6.00,0.00,M,M,3.73,M,BKN,M,M,M,16000.00,M,M,M,M,M,M,M,M,M,M,M,KQEN 202330Z AUTO 25006KT 6000 BKN160 05/07 / RMK A02 TSNO
QES,2020-10-20 23:30,126.4500,36.9667,64.40,50.00,59.50,M,M,0.00,M,M,2.49,M,BKN,M,M,M,17000.00,M,M,M,BR,M,M,M,M,M,M,M,KQES 202330Z AUTO 4000 BR BKN170 18/10 / RMK A02 TSNO
QEJ,2020-10-20 23:30,127.9500,38.2000,44.60,41.00,87.09,0.00,0.00,0.00,30.18,M,4.97,M,BKN,M,M,M,18000.00,M,M,M,M,M,M,M,M,M,M,M,KQEJ 202330Z AUTO 00000KT 8000 BKN180 07/05 A3018 RMK A02 TSNO
QEI,2020-10-20 23:30,128.0667,37.9500,44.60,42.80,93.35,310.00,1.00,0.00,30.19,M,6.21,M,BKN,M,M,M,18000.00,M,M,M,M,M,M,M,M,M,M,M,KQEI 202330Z AUTO 31001KT 9999 BKN180 07/06 A3019 RMK A02 TSNO
QEQ,2020-10-20 23:30,127.5500,37.8500,48.20,46.40,93.45,240.00,1.00,0.00,30.19,M,4.97,M,SCT,M,M,M,17000.00,M,M,M,M,M,M,M,M,M,M,M,KQEQ 202330Z AUTO 24001KT 8000 SCT170 09/08 A3019 RMK A02 TSNO
QEW,2020-10-20 23:30,128.1500,36.4000,46.40,42.80,87.19,0.00,0.00,0.00,30.20,M,5.59,M,BKN,BKN,M,M,19000.00,22000.00,M,M,,M,M,M,M,M,M,M,KQEW 202330Z AUTO 00000KT 9000 // BKN190 BKN220 08/06 A3020 RMK A02 TSNO
QEP,2020-10-20 23:30,127.2667,37.4000,50.00,46.40,87.37,300.00,1.00,0.00,30.20,M,3.73,M,BKN,BKN,M,M,18000.00,22000.00,M,M,M,M,M,M,M,M,M,M,KQEP 202330Z AUTO 30001KT 6000 BKN180 BKN220 10/08 A3020 RMK A02 TSNO
QFT,2020-10-20 23:30,127.3500,37.6000,50.00,44.60,81.61,30.00,2.00,0.00,30.17,M,M,M,BKN,M,M,M,18000.00,M,M,M,,M,M,M,M,M,M,M,KQFT 202330Z AUTO 03002KT / // BKN180 10/07 A3017 RMK A02 TSNO
QFU,2020-10-20 23:30,126.9667,37.8000,50.00,44.60,81.61,220.00,1.00,0.00,30.19,M,1.99,M,BKN,M,M,M,17000.00,M,M,M,HZ,M,M,M,M,M,M,M,KQFU 202330Z AUTO 22001KT 3200 HZ BKN170 10/07 A3019 RMK A02 TSNO
QEX,2020-10-20 23:30,128.3000,36.1000,48.20,46.40,93.45,30.00,3.00,0.00,30.13,M,4.97,M,SCT,BKN,M,M,19000.00,21000.00,M,M,,M,M,M,M,M,M,47.21,KQEX 202330Z AUTO 03003KT 8000 // SCT190 BKN210 09/08 A3013 RMK A02 TSNO
QFW,2020-10-20 23:30,127.8833,37.6667,46.40,44.60,93.40,0.00,0.00,0.00,30.21,M,6.21,M,BKN,M,M,M,18000.00,M,M,M,M,M,M,M,M,M,M,M,KQFW 202330Z AUTO 00000KT 9999 BKN180 08/07 A3021 RMK A02 TSNO
QFV,2020-10-20 23:30,127.5000,38.0500,42.80,41.00,93.30,100.00,1.00,0.00,30.21,M,6.21,M,BKN,M,M,M,16000.00,M,M,M,M,M,M,M,M,M,M,M,KQFV 202330Z AUTO 10001KT 9999 BKN160 06/05 A3021 RMK A02 TSNO
RKSI,2020-10-20 23:30,126.4500,37.4667,59.00,48.20,67.33,150.00,10.00,0.00,30.15,M,6.21,M,M,M,M,M,M,M,M,M,M,M,M,M,M,M,M,M,RKSI 202330Z 15010KT CAVOK 15/09 Q1021 NOSIG
QFB,2020-10-20 23:40,128.7167,35.6500,50.00,44.60,81.61,110.00,1.00,0.00,30.25,M,6.21,M,BKN,BKN,M,M,110000.00,24000.00,M,M,M,M,M,M,M,M,M,M,KQFB 202340Z AUTO 11001KT 9999 BKN1100 BKN240 10/07 A3025 RMK A02 TSNO
QEN,2020-10-20 23:40,128.7500,37.6667,41.00,44.60,M,250.00,6.00,0.00,M,M,3.73,M,BKN,BKN,M,M,16000.00,22000.00,M,M,M,M,M,M,M,M,M,M,KQEN 202340Z AUTO 25006KT 6000 BKN160 BKN220 05/07 / RMK A02 TSNO
QES,2020-10-20 23:40,126.4500,36.9667,64.40,50.00,59.50,M,M,0.00,M,M,2.49,M,BKN,BKN,M,M,17000.00,22000.00,M,M,BR,M,M,M,M,M,M,M,KQES 202340Z AUTO 4000 BR BKN170 BKN220 18/10 / RMK A02 TSNO
QEJ,2020-10-20 23:40,127.9500,38.2000,44.60,41.00,87.09,10.00,1.00,0.00,30.18,M,5.59,M,BKN,M,M,M,18000.00,M,M,M,M,M,M,M,M,M,M,M,KQEJ 202340Z AUTO 01001KT 9000 BKN180 07/05 A3018 RMK A02 TSNO
QEI,2020-10-20 23:40,128.0667,37.9500,46.40,42.80,87.19,0.00,0.00,0.00,30.19,M,6.21,M,BKN,M,M,M,18000.00,M,M,M,M,M,M,M,M,M,M,M,KQEI 202340Z AUTO 00000KT 9999 BKN180 08/06 A3019 RMK A02 TSNO
QEQ,2020-10-20 23:40,127.5500,37.8500,48.20,46.40,93.45,360.00,1.00,0.00,30.19,M,4.97,M,FEW,M,M,M,18000.00,M,M,M,M,M,M,M,M,M,M,M,KQEQ 202340Z AUTO 36001KT 8000 FEW180 09/08 A3019 RMK A02 TSNO
QEW,2020-10-20 23:40,128.1500,36.4000,48.20,44.60,87.28,300.00,1.00,0.00,30.20,M,6.21,M,BKN,M,M,M,19000.00,M,M,M,M,M,M,M,M,M,M,M,KQEW 202340Z AUTO 30001KT 9999 BKN190 09/07 A3020 RMK A02 TSNO
QEP,2020-10-20 23:40,127.2667,37.4000,50.00,46.40,87.37,230.00,2.00,0.00,30.19,M,3.73,M,BKN,BKN,M,M,18000.00,22000.00,M,M,M,M,M,M,M,M,M,M,KQEP 202340Z AUTO 23002KT 6000 BKN180 BKN220 10/08 A3019 RMK A02 TSNO
QFT,2020-10-20 23:40,127.3500,37.6000,50.00,44.60,81.61,40.00,2.00,0.00,30.17,M,M,M,BKN,M,M,M,18000.00,M,M,M,,M,M,M,M,M,M,M,KQFT 202340Z AUTO 04002KT / // BKN180 10/07 A3017 RMK A02 TSNO
QFU,2020-10-20 23:40,126.9667,37.8000,50.00,44.60,81.61,100.00,1.00,0.00,30.19,M,1.99,M,BKN,M,M,M,18000.00,M,M,M,HZ,M,M,M,M,M,M,M,KQFU 202340Z AUTO 10001KT 3200 HZ BKN180 10/07 A3019 RMK A02 TSNO
QEX,2020-10-20 23:40,128.3000,36.1000,50.00,46.40,87.37,30.00,2.00,0.00,30.14,M,4.97,M,BKN,M,M,M,19000.00,M,M,M,,M,M,M,M,M,M,M,KQEX 202340Z AUTO 03002KT 8000 // BKN190 10/08 A3014 RMK A02 TSNO
QFW,2020-10-20 23:40,127.8833,37.6667,46.40,44.60,93.40,30.00,1.00,0.00,30.21,M,6.21,M,BKN,M,M,M,17000.00,M,M,M,M,M,M,M,M,M,M,M,KQFW 202340Z AUTO 03001KT 9999 BKN170 08/07 A3021 RMK A02 TSNO
QFV,2020-10-20 23:40,127.5000,38.0500,42.80,41.00,93.30,110.00,2.00,0.00,30.21,M,6.21,M,BKN,M,M,M,16000.00,M,M,M,M,M,M,M,M,M,M,M,KQFV 202340Z AUTO 11002KT 9999 BKN160 06/05 A3021 RMK A02 TSNO
QFB,2020-10-20 23:50,128.7167,35.6500,51.80,46.40,81.74,340.00,2.00,0.00,30.26,M,6.21,M,BKN,M,M,M,110000.00,M,M,M,M,M,M,M,M,M,M,M,KQFB 202350Z AUTO 34002KT 9999 BKN1100 11/08 A3026 RMK A02 TSNO
QEN,2020-10-20 23:50,128.7500,37.6667,41.00,44.60,M,250.00,7.00,0.00,M,M,3.73,M,BKN,BKN,M,M,16000.00,22000.00,M,M,M,M,M,M,M,M,M,M,KQEN 202350Z AUTO 25007KT 6000 BKN160 BKN220 05/07 / RMK A02 TSNO
QES,2020-10-20 23:50,126.4500,36.9667,64.40,50.00,59.50,M,M,0.00,M,M,2.49,M,SCT,BKN,M,M,18000.00,22000.00,M,M,BR,M,M,M,M,M,M,M,KQES 202350Z AUTO 4000 BR SCT180 BKN220 18/10 / RMK A02 TSNO
QEJ,2020-10-20 23:50,127.9500,38.2000,44.60,41.00,87.09,360.00,1.00,0.00,30.19,M,4.97,M,BKN,M,M,M,18000.00,M,M,M,M,M,M,M,M,M,M,M,KQEJ 202350Z AUTO 36001KT 8000 BKN180 07/05 A3019 RMK A02 TSNO
QEI,2020-10-20 23:50,128.0667,37.9500,46.40,42.80,87.19,230.00,1.00,0.00,30.19,M,6.21,M,BKN,M,M,M,17000.00,M,M,M,M,M,M,M,M,M,M,M,KQEI 202350Z AUTO 23001KT 9999 BKN170 08/06 A3019 RMK A02 TSNO
QEQ,2020-10-20 23:50,127.5500,37.8500,48.20,44.60,87.28,50.00,2.00,0.00,30.19,M,6.21,M,FEW,M,M,M,18000.00,M,M,M,M,M,M,M,M,M,M,M,KQEQ 202350Z AUTO 05002KT 9999 FEW180 09/07 A3019 RMK A02 TSNO
QEW,2020-10-20 23:50,128.1500,36.4000,48.20,42.80,81.47,300.00,1.00,0.00,30.21,M,6.21,M,BKN,M,M,M,19000.00,M,M,M,M,M,M,M,M,M,M,M,KQEW 202350Z AUTO 30001KT 9999 BKN190 09/06 A3021 RMK A02 TSNO
QEP,2020-10-20 23:50,127.2667,37.4000,51.80,46.40,81.74,130.00,1.00,0.00,30.20,M,3.73,M,BKN,M,M,M,18000.00,M,M,M,HZ,M,M,M,M,M,M,M,KQEP 202350Z AUTO 13001KT 6000 HZ BKN180 11/08 A3020 RMK A02 TSNO
QFT,2020-10-20 23:50,127.3500,37.6000,50.00,44.60,81.61,20.00,2.00,0.00,30.17,M,M,M,BKN,BKN,M,M,18000.00,23000.00,M,M,,M,M,M,M,M,M,M,KQFT 202350Z AUTO 02002KT / // BKN180 BKN230 10/07 A3017 RMK A02 TSNO
QFU,2020-10-20 23:50,126.9667,37.8000,50.00,44.60,81.61,110.00,1.00,0.00,30.20,M,1.99,M,BKN,M,M,M,18000.00,M,M,M,HZ,M,M,M,M,M,M,M,KQFU 202350Z AUTO 11001KT 3200 HZ BKN180 10/07 A3020 RMK A02 TSNO
QEX,2020-10-20 23:50,128.3000,36.1000,50.00,46.40,87.37,30.00,3.00,0.00,30.13,M,5.59,M,BKN,M,M,M,19000.00,M,M,M,,M,M,M,M,M,M,M,KQEX 202350Z AUTO 03003KT 9000 // BKN190 10/08 A3013 RMK A02 TSNO
QFW,2020-10-20 23:50,127.8833,37.6667,46.40,44.60,93.40,50.00,1.00,0.00,30.21,M,6.21,M,BKN,M,M,M,17000.00,M,M,M,M,M,M,M,M,M,M,M,KQFW 202350Z AUTO 05001KT 9999 BKN170 08/07 A3021 RMK A02 TSNO
QFV,2020-10-20 23:50,127.5000,38.0500,42.80,41.00,93.30,130.00,1.00,0.00,30.21,M,6.21,M,BKN,M,M,M,15000.00,M,M,M,M,M,M,M,M,M,M,M,KQFV 202350Z AUTO 13001KT 9999 BKN150 06/05 A3021 RMK A02 TSNO
RKJK,2020-10-20 23:56,126.6220,35.8994,55.90,48.60,76.42,100.00,5.00,0.00,30.15,1021.40,6.00,M,BKN,M,M,M,16000.00,M,M,M,HZ,M,M,M,M,M,M,M,RKJK 202356Z 10005KT 6SM HZ BKN160 13/09 A3015 RMK AO2A SLP214 T01330092 10133 20108 53005 $
RKSG,2020-10-20 23:56,127.0311,36.9622,55.40,46.40,71.64,120.00,3.00,0.00,30.15,1021.30,4.00,M,SCT,M,M,M,19000.00,M,M,M,HZ,M,M,M,M,M,M,M,RKSG 202356Z 12003KT 4SM HZ SCT190 13/08 A3015 RMK AO2A SLP213 10134 20098 58002 $
RKSO,2020-10-20 23:58,127.0296,37.0906,57.40,50.50,77.70,90.00,4.00,0.00,30.14,1021.00,6.00,M,BKN,OVC,M,M,18000.00,21000.00,M,M,BR,M,M,M,M,M,M,M,RKSO 202358Z 09004KT 6SM BR BKN180 OVC210 14/10 A3014 RMK AO2A SLP210 T01410103 10141 20085 57004 $
RKSY,2020-10-20 23:58,126.9753,37.5241,57.70,46.40,65.93,0.00,0.00,0.00,30.15,1021.30,6.21,M,OVC,M,M,M,17000.00,M,M,M,M,M,M,M,M,M,M,M,RKSY 202358Z AUTO 00000KT 9999 OVC170 14/08 A3015 RMK AO2 SLP213 T01430080 10143 20106 55000 $
